{"type":"FeatureCollection","features":[{"type":"Feature","id":"relation/16871667","properties":{"amenity":"place_of_worship","building":"mosque","denomination":"sunni","name":"Karyağmaz Cami","religion":"muslim","type":"multipolygon","id":"relation/16871667"},"geometry":{"type":"Point","coordinates":[28.3765951,40.0099404]}},{"type":"Feature","id":"way/150797951","properties":{"amenity":"school","building":"yes","name":"Karaorman İ.Ö.O.","source":"bing","id":"way/150797951"},"geometry":{"type":"Point","coordinates":[28.4561524,39.9737696]}},{"type":"Feature","id":"way/150797954","properties":{"amenity":"place_of_worship","building":"mosque","denomination":"sunni","religion":"muslim","source":"bing","id":"way/150797954"},"geometry":{"type":"Point","coordinates":[28.5700694,39.9920889]}},{"type":"Feature","id":"way/150800738","properties":{"amenity":"place_of_worship","building":"mosque","denomination":"sunni","religion":"muslim","source":"bing","id":"way/150800738"},"geometry":{"type":"Point","coordinates":[28.4602321,39.9421052]}},{"type":"Feature","id":"way/215975618","properties":{"leisure":"pitch","sport":"soccer","id":"way/215975618"},"geometry":{"type":"Point","coordinates":[28.422344,40.0366142]}},{"type":"Feature","id":"way/252362731","properties":{"amenity":"place_of_worship","building":"mosque","denomination":"sunni","religion":"muslim","id":"way/252362731"},"geometry":{"type":"Point","coordinates":[28.3343915,40.0474494]}},{"type":"Feature","id":"way/321438701","properties":{"amenity":"place_of_worship","building":"mosque","religion":"muslim","id":"way/321438701"},"geometry":{"type":"Point","coordinates":[28.6942514,39.7863899]}},{"type":"Feature","id":"way/321443354","properties":{"amenity":"place_of_worship","building":"mosque","denomination":"sunni","name":"Fevzidede Camii","religion":"muslim","id":"way/321443354"},"geometry":{"type":"Point","coordinates":[28.410618,40.0423083]}},{"type":"Feature","id":"way/321443355","properties":{"amenity":"place_of_worship","building":"mosque","name":"Hamzabey Camii","religion":"muslim","id":"way/321443355"},"geometry":{"type":"Point","coordinates":[28.4101777,40.0386343]}},{"type":"Feature","id":"way/321443356","properties":{"amenity":"place_of_worship","building":"mosque","denomination":"sunni","name":"Sırma Camii","religion":"muslim","id":"way/321443356"},"geometry":{"type":"Point","coordinates":[28.4039384,40.0415585]}},{"type":"Feature","id":"way/321443358","properties":{"amenity":"place_of_worship","building":"mosque","denomination":"sunni","name":"Yeşil Camii","religion":"muslim","id":"way/321443358"},"geometry":{"type":"Point","coordinates":[28.4059488,40.0335025]}},{"type":"Feature","id":"way/321443360","properties":{"amenity":"place_of_worship","building":"mosque","religion":"muslim","id":"way/321443360"},"geometry":{"type":"Point","coordinates":[28.3988571,40.0207103]}},{"type":"Feature","id":"way/321443361","properties":{"amenity":"place_of_worship","building":"mosque","denomination":"sunni","name":"Cevizli Camii","religion":"muslim","id":"way/321443361"},"geometry":{"type":"Point","coordinates":[28.395582,40.0304409]}},{"type":"Feature","id":"way/321443362","properties":{"amenity":"place_of_worship","building":"mosque","denomination":"sunni","name":"İmam Hatip Lisesi Tatbikat Camii","religion":"muslim","id":"way/321443362"},"geometry":{"type":"Point","coordinates":[28.3952275,40.0323935]}},{"type":"Feature","id":"way/321443363","properties":{"amenity":"place_of_worship","building":"mosque","denomination":"sunni","name":"Çırpan Camii","religion":"muslim","id":"way/321443363"},"geometry":{"type":"Point","coordinates":[28.4002955,40.0341875]}},{"type":"Feature","id":"way/321443365","properties":{"amenity":"place_of_worship","building":"mosque","religion":"muslim","id":"way/321443365"},"geometry":{"type":"Point","coordinates":[28.40078,40.0370736]}},{"type":"Feature","id":"way/342553120","properties":{"leisure":"pitch","sport":"soccer","id":"way/342553120"},"geometry":{"type":"Point","coordinates":[28.4128637,40.0455251]}},{"type":"Feature","id":"way/364807182","properties":{"amenity":"place_of_worship","building":"mosque","denomination":"sunni","religion":"muslim","id":"way/364807182"},"geometry":{"type":"Point","coordinates":[28.2818833,40.022717]}},{"type":"Feature","id":"way/364808396","properties":{"amenity":"place_of_worship","building":"mosque","denomination":"sunni","religion":"muslim","id":"way/364808396"},"geometry":{"type":"Point","coordinates":[28.2598711,40.0133894]}},{"type":"Feature","id":"way/366079526","properties":{"amenity":"hospital","emergency":"yes","healthcare":"hospital","name":"Mustafakemalpaşa Devlet Hastanesi","operator":"Sağlık Bakanlığı","operator:type":"government","operator:wikidata":"Q4294365","operator:wikipedia":"tr:Türkiye Cumhuriyeti Sağlık Bakanlığı","id":"way/366079526"},"geometry":{"type":"Point","coordinates":[28.3633554,40.0290772]}},{"type":"Feature","id":"way/366081635","properties":{"amenity":"place_of_worship","building":"mosque","denomination":"sunni","name":"Güllüce Yeni Camii","religion":"muslim","id":"way/366081635"},"geometry":{"type":"Point","coordinates":[28.3118629,40.0313132]}},{"type":"Feature","id":"way/376091983","properties":{"amenity":"bus_station","building":"yes","bus":"yes","name":"Mustafakemalpaşa Şehirlerarası Otobüs Terminali","public_transport":"station","id":"way/376091983"},"geometry":{"type":"Point","coordinates":[28.37346,40.049523]}},{"type":"Feature","id":"way/379513118","properties":{"amenity":"place_of_worship","building":"mosque","religion":"muslim","id":"way/379513118"},"geometry":{"type":"Point","coordinates":[28.4022682,40.0783011]}},{"type":"Feature","id":"way/379513120","properties":{"amenity":"place_of_worship","building":"mosque","religion":"muslim","id":"way/379513120"},"geometry":{"type":"Point","coordinates":[28.4356745,40.1346044]}},{"type":"Feature","id":"way/379513127","properties":{"amenity":"place_of_worship","building":"mosque","religion":"muslim","id":"way/379513127"},"geometry":{"type":"Point","coordinates":[28.4537526,40.1471931]}},{"type":"Feature","id":"way/415722090","properties":{"amenity":"place_of_worship","building":"mosque","denomination":"sunni","name":"Lalaşahin Camii","religion":"muslim","wheelchair":"no","id":"way/415722090"},"geometry":{"type":"Point","coordinates":[28.4142316,40.032804]}},{"type":"Feature","id":"way/415722093","properties":{"amenity":"place_of_worship","building":"mosque","denomination":"sunni","name":"Züferbey Camii","religion":"muslim","wheelchair":"yes","id":"way/415722093"},"geometry":{"type":"Point","coordinates":[28.4141918,40.0347712]}},{"type":"Feature","id":"way/431347973","properties":{"amenity":"place_of_worship","building":"mosque","denomination":"sunni","name":"Fatih Camii","religion":"muslim","id":"way/431347973"},"geometry":{"type":"Point","coordinates":[28.3908454,40.035098]}},{"type":"Feature","id":"way/431349881","properties":{"amenity":"place_of_worship","building":"mosque","denomination":"sunni","name":"Yeni Camii","religion":"muslim","id":"way/431349881"},"geometry":{"type":"Point","coordinates":[28.4195917,40.0312559]}},{"type":"Feature","id":"way/431437530","properties":{"amenity":"place_of_worship","building":"mosque","denomination":"sunni","name":"Yıldız Camii","religion":"muslim","id":"way/431437530"},"geometry":{"type":"Point","coordinates":[28.4231994,40.0377127]}},{"type":"Feature","id":"way/434892285","properties":{"amenity":"place_of_worship","building":"mosque","denomination":"sunni","religion":"muslim","id":"way/434892285"},"geometry":{"type":"Point","coordinates":[28.527749,40.0058642]}},{"type":"Feature","id":"way/434894373","properties":{"amenity":"place_of_worship","building":"mosque","denomination":"sunni","religion":"muslim","id":"way/434894373"},"geometry":{"type":"Point","coordinates":[28.5724657,39.9587129]}},{"type":"Feature","id":"way/434897921","properties":{"amenity":"place_of_worship","building":"mosque","denomination":"sunni","religion":"muslim","id":"way/434897921"},"geometry":{"type":"Point","coordinates":[28.2644987,39.9799993]}},{"type":"Feature","id":"way/451840780","properties":{"amenity":"place_of_worship","building":"mosque","denomination":"sunni","religion":"muslim","id":"way/451840780"},"geometry":{"type":"Point","coordinates":[28.2938003,40.04899]}},{"type":"Feature","id":"way/497854432","properties":{"amenity":"place_of_worship","building":"mosque","denomination":"sunni","name":"Taşköprü Camii","religion":"muslim","id":"way/497854432"},"geometry":{"type":"Point","coordinates":[28.2147752,40.0021586]}},{"type":"Feature","id":"way/503916622","properties":{"amenity":"place_of_worship","building":"mosque","religion":"muslim","id":"way/503916622"},"geometry":{"type":"Point","coordinates":[28.6071306,39.8629442]}},{"type":"Feature","id":"way/503929746","properties":{"amenity":"place_of_worship","building":"mosque","denomination":"sunni","religion":"muslim","id":"way/503929746"},"geometry":{"type":"Point","coordinates":[28.4060524,40.0396078]}},{"type":"Feature","id":"way/545984472","properties":{"amenity":"place_of_worship","building":"mosque","religion":"muslim","id":"way/545984472"},"geometry":{"type":"Point","coordinates":[28.4951707,39.8903442]}},{"type":"Feature","id":"way/545984474","properties":{"amenity":"place_of_worship","building":"mosque","religion":"muslim","id":"way/545984474"},"geometry":{"type":"Point","coordinates":[28.5338744,39.8913957]}},{"type":"Feature","id":"way/545984476","properties":{"amenity":"place_of_worship","building":"mosque","religion":"muslim","id":"way/545984476"},"geometry":{"type":"Point","coordinates":[28.5283395,39.9269025]}},{"type":"Feature","id":"way/545984477","properties":{"amenity":"place_of_worship","building":"mosque","religion":"muslim","id":"way/545984477"},"geometry":{"type":"Point","coordinates":[28.5581561,39.9274465]}},{"type":"Feature","id":"way/545984480","properties":{"amenity":"place_of_worship","building":"mosque","religion":"muslim","id":"way/545984480"},"geometry":{"type":"Point","coordinates":[28.5347387,39.9464782]}},{"type":"Feature","id":"way/545984481","properties":{"amenity":"place_of_worship","building":"mosque","religion":"muslim","id":"way/545984481"},"geometry":{"type":"Point","coordinates":[28.5694136,39.954694]}},{"type":"Feature","id":"way/545984482","properties":{"amenity":"place_of_worship","building":"mosque","religion":"muslim","id":"way/545984482"},"geometry":{"type":"Point","coordinates":[28.5987258,39.9553978]}},{"type":"Feature","id":"way/545984483","properties":{"amenity":"place_of_worship","building":"mosque","religion":"muslim","id":"way/545984483"},"geometry":{"type":"Point","coordinates":[28.6196154,39.9548559]}},{"type":"Feature","id":"way/702530824","properties":{"amenity":"place_of_worship","building":"mosque","denomination":"sunni","religion":"muslim","id":"way/702530824"},"geometry":{"type":"Point","coordinates":[28.5646248,39.9135172]}},{"type":"Feature","id":"way/741824567","properties":{"amenity":"place_of_worship","building":"mosque","denomination":"sunni","religion":"muslim","id":"way/741824567"},"geometry":{"type":"Point","coordinates":[28.5254374,39.7887798]}},{"type":"Feature","id":"way/741825652","properties":{"amenity":"place_of_worship","building":"mosque","denomination":"sunni","religion":"muslim","id":"way/741825652"},"geometry":{"type":"Point","coordinates":[28.561782,39.852285]}},{"type":"Feature","id":"way/741844727","properties":{"amenity":"place_of_worship","building":"mosque","denomination":"sunni","religion":"muslim","id":"way/741844727"},"geometry":{"type":"Point","coordinates":[28.5753578,39.8926615]}},{"type":"Feature","id":"way/741844728","properties":{"amenity":"place_of_worship","building":"mosque","denomination":"sunni","religion":"muslim","id":"way/741844728"},"geometry":{"type":"Point","coordinates":[28.5626593,39.8987003]}},{"type":"Feature","id":"way/741844729","properties":{"amenity":"place_of_worship","building":"mosque","denomination":"sunni","religion":"muslim","id":"way/741844729"},"geometry":{"type":"Point","coordinates":[28.5624789,39.9143612]}},{"type":"Feature","id":"way/741849983","properties":{"amenity":"place_of_worship","building":"mosque","denomination":"sunni","religion":"muslim","id":"way/741849983"},"geometry":{"type":"Point","coordinates":[28.6184174,39.9003412]}},{"type":"Feature","id":"way/741849984","properties":{"amenity":"place_of_worship","building":"mosque","denomination":"sunni","religion":"muslim","id":"way/741849984"},"geometry":{"type":"Point","coordinates":[28.6025865,39.9165528]}},{"type":"Feature","id":"way/741849985","properties":{"amenity":"place_of_worship","building":"mosque","denomination":"sunni","religion":"muslim","source":"maxar Premium","id":"way/741849985"},"geometry":{"type":"Point","coordinates":[28.6130313,39.9758447]}},{"type":"Feature","id":"way/749355035","properties":{"amenity":"place_of_worship","building":"mosque","denomination":"sunni","religion":"muslim","id":"way/749355035"},"geometry":{"type":"Point","coordinates":[28.6601202,39.8212506]}},{"type":"Feature","id":"way/749361227","properties":{"amenity":"place_of_worship","building":"mosque","denomination":"sunni","religion":"muslim","id":"way/749361227"},"geometry":{"type":"Point","coordinates":[28.6876332,40.0616174]}},{"type":"Feature","id":"way/749361228","properties":{"amenity":"place_of_worship","building":"mosque","denomination":"sunni","religion":"muslim","id":"way/749361228"},"geometry":{"type":"Point","coordinates":[28.6700291,40.092646]}},{"type":"Feature","id":"way/749361229","properties":{"amenity":"place_of_worship","building":"mosque","denomination":"sunni","religion":"muslim","id":"way/749361229"},"geometry":{"type":"Point","coordinates":[28.6927926,40.0971039]}},{"type":"Feature","id":"way/886474195","properties":{"amenity":"place_of_worship","building":"mosque","denomination":"sunni","name":"Adaköy Camii","religion":"muslim","id":"way/886474195"},"geometry":{"type":"Point","coordinates":[28.2177783,40.0168888]}},{"type":"Feature","id":"way/996839128","properties":{"amenity":"place_of_worship","building":"mosque","denomination":"sunni","name":"Mekke Camii","religion":"muslim","id":"way/996839128"},"geometry":{"type":"Point","coordinates":[28.3767116,40.0343505]}},{"type":"Feature","id":"way/996859216","properties":{"leisure":"park","name":"Profesör Doktor Aziz Sancar Parkı","id":"way/996859216"},"geometry":{"type":"Point","coordinates":[28.3788264,40.0358625]}},{"type":"Feature","id":"way/996859233","properties":{"leisure":"park","id":"way/996859233"},"geometry":{"type":"Point","coordinates":[28.3792286,40.0334512]}},{"type":"Feature","id":"way/996891745","properties":{"leisure":"park","id":"way/996891745"},"geometry":{"type":"Point","coordinates":[28.3860078,40.0355208]}},{"type":"Feature","id":"way/1006058930","properties":{"amenity":"place_of_worship","building":"mosque","denomination":"sunni","name":"Aydınlık Evler Camii","religion":"muslim","id":"way/1006058930"},"geometry":{"type":"Point","coordinates":[28.3899677,40.0327331]}},{"type":"Feature","id":"way/1014260546","properties":{"amenity":"place_of_worship","building":"mosque","denomination":"sunni","name":"Kaymakam Mustafa Masatlı Camii","religion":"muslim","id":"way/1014260546"},"geometry":{"type":"Point","coordinates":[28.4231021,40.0414373]}},{"type":"Feature","id":"way/1014260547","properties":{"leisure":"pitch","sport":"soccer","id":"way/1014260547"},"geometry":{"type":"Point","coordinates":[28.4345373,40.0370425]}},{"type":"Feature","id":"way/1014260548","properties":{"amenity":"place_of_worship","building":"mosque","denomination":"sunni","name":"Özfatura Camii","religion":"muslim","id":"way/1014260548"},"geometry":{"type":"Point","coordinates":[28.4200747,40.0341296]}},{"type":"Feature","id":"way/1014260549","properties":{"amenity":"place_of_worship","building":"mosque","denomination":"sunni","name":"Şeyh Müftü Camii","religion":"muslim","wikidata":"Q132134537","id":"way/1014260549"},"geometry":{"type":"Point","coordinates":[28.4103407,40.0351354]}},{"type":"Feature","id":"way/1014260553","properties":{"addr:city":"Bursa","addr:district":"Mustafakemalpaşa","amenity":"townhall","building":"yes","name":"Mustafakemalpaşa Belediyesi","id":"way/1014260553"},"geometry":{"type":"Point","coordinates":[28.4089139,40.0383674]}},{"type":"Feature","id":"way/1014260554","properties":{"amenity":"place_of_worship","building":"mosque","denomination":"sunni","name":"Vıraca Camii","religion":"muslim","id":"way/1014260554"},"geometry":{"type":"Point","coordinates":[28.4072224,40.0362666]}},{"type":"Feature","id":"way/1014275299","properties":{"leisure":"stadium","id":"way/1014275299"},"geometry":{"type":"Point","coordinates":[28.4223153,40.0367346]}},{"type":"Feature","id":"way/1018711936","properties":{"amenity":"place_of_worship","building":"mosque","name":"Ertuğrul Camii","religion":"muslim","id":"way/1018711936"},"geometry":{"type":"Point","coordinates":[28.3990517,40.0399244]}},{"type":"Feature","id":"way/1018711938","properties":{"amenity":"place_of_worship","building":"mosque","denomination":"sunni","name":"Oğlaktepe Şehitler Camii","religion":"muslim","id":"way/1018711938"},"geometry":{"type":"Point","coordinates":[28.39158,40.0405148]}},{"type":"Feature","id":"way/1018726681","properties":{"amenity":"school","name":"Mustafakemalpaşa Ortaokulu","id":"way/1018726681"},"geometry":{"type":"Point","coordinates":[28.4033241,40.0385454]}},{"type":"Feature","id":"way/1018726682","properties":{"amenity":"school","name":"Mustafakemalpaşa Ortaokulu","id":"way/1018726682"},"geometry":{"type":"Point","coordinates":[28.4040259,40.0390122]}},{"type":"Feature","id":"way/1018726683","properties":{"amenity":"school","name":"Mustafakemalpaşa Anaokulu","id":"way/1018726683"},"geometry":{"type":"Point","coordinates":[28.4026209,40.0389951]}},{"type":"Feature","id":"way/1018738246","properties":{"amenity":"school","name":"Mustafakemalpaşa Kız Anadolu İmam Hatip Lisesi","id":"way/1018738246"},"geometry":{"type":"Point","coordinates":[28.3870875,40.0398199]}},{"type":"Feature","id":"way/1018987829","properties":{"amenity":"place_of_worship","building":"mosque","denomination":"sunni","name":"Medine Camii","religion":"muslim","id":"way/1018987829"},"geometry":{"type":"Point","coordinates":[28.3967058,40.0277472]}},{"type":"Feature","id":"way/1019000083","properties":{"amenity":"place_of_worship","building":"mosque","denomination":"sunni","religion":"muslim","id":"way/1019000083"},"geometry":{"type":"Point","coordinates":[28.3993145,40.0164861]}},{"type":"Feature","id":"way/1019000084","properties":{"amenity":"place_of_worship","building":"mosque","denomination":"sunni","religion":"muslim","id":"way/1019000084"},"geometry":{"type":"Point","coordinates":[28.3937139,40.0134905]}},{"type":"Feature","id":"way/1019000085","properties":{"amenity":"place_of_worship","building":"mosque","denomination":"sunni","name":"Sanayi Sitesi Camii","religion":"muslim","id":"way/1019000085"},"geometry":{"type":"Point","coordinates":[28.3827973,40.0331067]}},{"type":"Feature","id":"way/1019000089","properties":{"amenity":"place_of_worship","building":"mosque","denomination":"sunni","religion":"muslim","id":"way/1019000089"},"geometry":{"type":"Point","coordinates":[28.2760509,40.0700449]}},{"type":"Feature","id":"way/1019000090","properties":{"amenity":"place_of_worship","building":"mosque","denomination":"sunni","religion":"muslim","id":"way/1019000090"},"geometry":{"type":"Point","coordinates":[28.2476029,40.0507909]}},{"type":"Feature","id":"way/1021107995","properties":{"amenity":"place_of_worship","building":"mosque","denomination":"sunni","name":"Şevketiye Camii","religion":"muslim","id":"way/1021107995"},"geometry":{"type":"Point","coordinates":[28.4124606,40.0374346]}},{"type":"Feature","id":"way/1027613221","properties":{"amenity":"school","name":"Mehmet Akif Ersoy Ortaokulu","id":"way/1027613221"},"geometry":{"type":"Point","coordinates":[28.412612,40.0443248]}},{"type":"Feature","id":"way/1030892106","properties":{"leisure":"playground","id":"way/1030892106"},"geometry":{"type":"Point","coordinates":[28.3998309,40.0327013]}},{"type":"Feature","id":"way/1031984303","properties":{"amenity":"school","name":"Lala Şahin Paşa Ortaokulu","operator":"Millî Eğitim Bakanlığı","operator:en":"Ministry of National Education","operator:short":"MEB","operator:tr":"Millî Eğitim Bakanlığı","operator:type":"government","operator:wikidata":"Q1359675","id":"way/1031984303"},"geometry":{"type":"Point","coordinates":[28.4124232,40.0311514]}},{"type":"Feature","id":"way/1032901464","properties":{"amenity":"school","name":"Mevlana İlkokulu","operator":"Millî Eğitim Bakanlığı","operator:en":"Ministry of National Education","operator:short":"MEB","operator:tr":"Millî Eğitim Bakanlığı","operator:type":"government","operator:wikidata":"Q1359675","id":"way/1032901464"},"geometry":{"type":"Point","coordinates":[28.4163785,40.0346155]}},{"type":"Feature","id":"way/1032906712","properties":{"amenity":"school","name":"Güner Şenpamukçu Ortaokulu","id":"way/1032906712"},"geometry":{"type":"Point","coordinates":[28.4218652,40.0401706]}},{"type":"Feature","id":"way/1173649536","properties":{"amenity":"place_of_worship","building":"mosque","denomination":"sunni","religion":"muslim","id":"way/1173649536"},"geometry":{"type":"Point","coordinates":[28.243049,40.0778498]}},{"type":"Feature","id":"way/1173651068","properties":{"amenity":"place_of_worship","building":"mosque","denomination":"sunni","religion":"muslim","id":"way/1173651068"},"geometry":{"type":"Point","coordinates":[28.6184907,39.9347412]}},{"type":"Feature","id":"way/1173651070","properties":{"amenity":"place_of_worship","building":"mosque","denomination":"sunni","religion":"muslim","id":"way/1173651070"},"geometry":{"type":"Point","coordinates":[28.6366396,39.9208987]}},{"type":"Feature","id":"way/1234024592","properties":{"amenity":"place_of_worship","building":"mosque","denomination":"sunni","religion":"muslim","id":"way/1234024592"},"geometry":{"type":"Point","coordinates":[28.3724027,39.9468761]}},{"type":"Feature","id":"way/1234024593","properties":{"amenity":"place_of_worship","building":"mosque","denomination":"sunni","religion":"muslim","id":"way/1234024593"},"geometry":{"type":"Point","coordinates":[28.3667709,39.9474107]}},{"type":"Feature","id":"way/1234024594","properties":{"amenity":"place_of_worship","building":"mosque","denomination":"sunni","religion":"muslim","id":"way/1234024594"},"geometry":{"type":"Point","coordinates":[28.3501034,39.9680136]}},{"type":"Feature","id":"way/1234024595","properties":{"amenity":"place_of_worship","building":"mosque","denomination":"sunni","religion":"muslim","id":"way/1234024595"},"geometry":{"type":"Point","coordinates":[28.371894,39.9913445]}},{"type":"Feature","id":"way/1234024596","properties":{"amenity":"place_of_worship","building":"mosque","denomination":"sunni","religion":"muslim","id":"way/1234024596"},"geometry":{"type":"Point","coordinates":[28.376286,40.0058525]}},{"type":"Feature","id":"way/1234024597","properties":{"amenity":"school","name":"Karyağmaz İlkokulu","operator":"Millî Eğitim Bakanlığı","operator:en":"Ministry of National Education","operator:short":"MEB","operator:tr":"Millî Eğitim Bakanlığı","operator:type":"government","operator:wikidata":"Q1359675","id":"way/1234024597"},"geometry":{"type":"Point","coordinates":[28.3741701,40.005449]}},{"type":"Feature","id":"way/1234024601","properties":{"amenity":"place_of_worship","building":"mosque","denomination":"sunni","religion":"muslim","id":"way/1234024601"},"geometry":{"type":"Point","coordinates":[28.3901965,40.0137126]}},{"type":"Feature","id":"way/1234024765","properties":{"amenity":"place_of_worship","building":"mosque","denomination":"sunni","religion":"muslim","id":"way/1234024765"},"geometry":{"type":"Point","coordinates":[28.4205115,39.9405177]}},{"type":"Feature","id":"way/1234026110","properties":{"amenity":"place_of_worship","building":"mosque","denomination":"sunni","religion":"muslim","id":"way/1234026110"},"geometry":{"type":"Point","coordinates":[28.4718658,40.0420996]}},{"type":"Feature","id":"way/1234026111","properties":{"amenity":"place_of_worship","building":"mosque","denomination":"sunni","religion":"muslim","id":"way/1234026111"},"geometry":{"type":"Point","coordinates":[28.4931478,40.0754936]}},{"type":"Feature","id":"way/1234026112","properties":{"amenity":"place_of_worship","building":"mosque","denomination":"sunni","religion":"muslim","id":"way/1234026112"},"geometry":{"type":"Point","coordinates":[28.4918189,40.098265]}},{"type":"Feature","id":"way/1234026113","properties":{"amenity":"place_of_worship","building":"mosque","denomination":"sunni","religion":"muslim","id":"way/1234026113"},"geometry":{"type":"Point","coordinates":[28.5263981,40.0982927]}},{"type":"Feature","id":"way/1234569268","properties":{"amenity":"place_of_worship","building":"mosque","denomination":"sunni","religion":"muslim","id":"way/1234569268"},"geometry":{"type":"Point","coordinates":[28.4584406,40.0956979]}},{"type":"Feature","id":"way/1234569269","properties":{"amenity":"place_of_worship","building":"mosque","denomination":"sunni","religion":"muslim","id":"way/1234569269"},"geometry":{"type":"Point","coordinates":[28.4734256,40.0934546]}},{"type":"Feature","id":"way/1234572660","properties":{"amenity":"place_of_worship","building":"mosque","denomination":"sunni","religion":"muslim","id":"way/1234572660"},"geometry":{"type":"Point","coordinates":[28.4377463,40.1005897]}},{"type":"Feature","id":"way/1234574200","properties":{"amenity":"place_of_worship","building":"mosque","denomination":"sunni","religion":"muslim","id":"way/1234574200"},"geometry":{"type":"Point","coordinates":[28.5997764,40.0633321]}},{"type":"Feature","id":"way/1234574203","properties":{"amenity":"place_of_worship","building":"mosque","denomination":"sunni","religion":"muslim","id":"way/1234574203"},"geometry":{"type":"Point","coordinates":[28.6467636,40.0628858]}},{"type":"Feature","id":"way/1234574475","properties":{"amenity":"place_of_worship","building":"mosque","denomination":"sunni","religion":"muslim","id":"way/1234574475"},"geometry":{"type":"Point","coordinates":[28.6555749,40.0009772]}},{"type":"Feature","id":"way/1234574476","properties":{"amenity":"place_of_worship","building":"mosque","denomination":"sunni","religion":"muslim","id":"way/1234574476"},"geometry":{"type":"Point","coordinates":[28.6618463,40.0375837]}},{"type":"Feature","id":"way/1234574951","properties":{"amenity":"place_of_worship","building":"mosque","denomination":"sunni","religion":"muslim","id":"way/1234574951"},"geometry":{"type":"Point","coordinates":[28.5211406,40.0740413]}},{"type":"Feature","id":"way/1234575413","properties":{"amenity":"place_of_worship","building":"mosque","denomination":"sunni","religion":"muslim","id":"way/1234575413"},"geometry":{"type":"Point","coordinates":[28.6047868,40.0016449]}},{"type":"Feature","id":"way/1236272540","properties":{"amenity":"place_of_worship","building":"mosque","denomination":"sunni","religion":"muslim","id":"way/1236272540"},"geometry":{"type":"Point","coordinates":[28.6026769,40.0707885]}},{"type":"Feature","id":"way/1275372331","properties":{"leisure":"park","id":"way/1275372331"},"geometry":{"type":"Point","coordinates":[28.231194,40.0566672]}},{"type":"Feature","id":"way/1275818066","properties":{"leisure":"pitch","sport":"soccer","id":"way/1275818066"},"geometry":{"type":"Point","coordinates":[28.2442939,40.0526838]}},{"type":"Feature","id":"way/1314785361","properties":{"leisure":"pitch","name":"Güllüce Halı Saha","sport":"soccer","id":"way/1314785361"},"geometry":{"type":"Point","coordinates":[28.3053117,40.0343536]}},{"type":"Feature","id":"way/1314999408","properties":{"amenity":"place_of_worship","building":"mosque","denomination":"sunni","name":"Güllüce Çerkez Camii","religion":"muslim","id":"way/1314999408"},"geometry":{"type":"Point","coordinates":[28.3085917,40.0341189]}},{"type":"Feature","id":"way/1314999409","properties":{"amenity":"place_of_worship","building":"mosque","denomination":"sunni","name":"Güllüce Camii","religion":"muslim","id":"way/1314999409"},"geometry":{"type":"Point","coordinates":[28.3127007,40.0334201]}},{"type":"Feature","id":"way/1314999410","properties":{"amenity":"place_of_worship","building":"mosque","denomination":"sunni","religion":"muslim","id":"way/1314999410"},"geometry":{"type":"Point","coordinates":[28.3613331,40.0378521]}},{"type":"Feature","id":"way/1314999411","properties":{"amenity":"place_of_worship","building":"mosque","denomination":"sunni","religion":"muslim","id":"way/1314999411"},"geometry":{"type":"Point","coordinates":[28.4061821,40.0353323]}},{"type":"Feature","id":"way/1320893436","properties":{"amenity":"school","id":"way/1320893436"},"geometry":{"type":"Point","coordinates":[28.3923841,40.0320229]}},{"type":"Feature","id":"way/1320893437","properties":{"amenity":"school","name":"Şehit Hikmet Aktaş Ortaokulu","id":"way/1320893437"},"geometry":{"type":"Point","coordinates":[28.3858662,40.0377762]}},{"type":"Feature","id":"way/1320893438","properties":{"amenity":"school","name":"Mustafakemalpaşa Endüstri Meslek Lisesi","id":"way/1320893438"},"geometry":{"type":"Point","coordinates":[28.3943844,40.0334349]}},{"type":"Feature","id":"way/1320893439","properties":{"amenity":"school","id":"way/1320893439"},"geometry":{"type":"Point","coordinates":[28.3955437,40.0331463]}},{"type":"Feature","id":"way/1320893440","properties":{"amenity":"school","name":"Mustafakemalpaşa 14 Eylül İlkokulu","id":"way/1320893440"},"geometry":{"type":"Point","coordinates":[28.405606,40.0402245]}},{"type":"Feature","id":"way/1320901240","properties":{"addr:city":"Bursa","addr:district":"Mustafakemalpaşa","amenity":"marketplace","building":"yes","name":"Esnaf Çarşısı","id":"way/1320901240"},"geometry":{"type":"Point","coordinates":[28.4090565,40.0375973]}},{"type":"Feature","id":"way/1320901289","properties":{"addr:city":"Bursa","addr:district":"Mustafakemalpaşa","amenity":"marketplace","building":"yes","name":"Esnaf Çarşısı","id":"way/1320901289"},"geometry":{"type":"Point","coordinates":[28.4088827,40.0376816]}},{"type":"Feature","id":"way/1320901308","properties":{"addr:city":"Bursa","addr:district":"Mustafakemalpaşa","amenity":"marketplace","building":"yes","name":"Esnaf Çarşısı","id":"way/1320901308"},"geometry":{"type":"Point","coordinates":[28.408845,40.0377053]}},{"type":"Feature","id":"way/1320901602","properties":{"addr:city":"Bursa","addr:district":"Mustafakemalpaşa","amenity":"marketplace","building":"yes","name":"Esnaf Çarşısı","id":"way/1320901602"},"geometry":{"type":"Point","coordinates":[28.4093838,40.0379676]}},{"type":"Feature","id":"way/1320901644","properties":{"addr:city":"Bursa","addr:district":"Mustafakemalpaşa","amenity":"marketplace","building":"yes","name":"Esnaf Çarşısı","id":"way/1320901644"},"geometry":{"type":"Point","coordinates":[28.4092331,40.0380449]}},{"type":"Feature","id":"way/1320901667","properties":{"addr:city":"Bursa","addr:district":"Mustafakemalpaşa","amenity":"marketplace","building":"yes","name":"Esnaf Çarşısı","id":"way/1320901667"},"geometry":{"type":"Point","coordinates":[28.4091845,40.038071]}},{"type":"Feature","id":"way/1320901703","properties":{"addr:city":"Bursa","addr:district":"Mustafakemalpaşa","amenity":"marketplace","building":"yes","name":"Esnaf Çarşısı","id":"way/1320901703"},"geometry":{"type":"Point","coordinates":[28.4089581,40.0379257]}},{"type":"Feature","id":"way/1323892721","properties":{"leisure":"park","id":"way/1323892721"},"geometry":{"type":"Point","coordinates":[28.394338,40.0365477]}},{"type":"Feature","id":"way/1323892722","properties":{"leisure":"park","id":"way/1323892722"},"geometry":{"type":"Point","coordinates":[28.3946403,40.0396804]}},{"type":"Feature","id":"way/1323892723","properties":{"leisure":"park","id":"way/1323892723"},"geometry":{"type":"Point","coordinates":[28.3936425,40.0393266]}},{"type":"Feature","id":"way/1323892724","properties":{"leisure":"playground","id":"way/1323892724"},"geometry":{"type":"Point","coordinates":[28.3937991,40.039225]}},{"type":"Feature","id":"way/1323892725","properties":{"leisure":"playground","id":"way/1323892725"},"geometry":{"type":"Point","coordinates":[28.3947056,40.0398621]}},{"type":"Feature","id":"way/1323892726","properties":{"leisure":"park","id":"way/1323892726"},"geometry":{"type":"Point","coordinates":[28.3987773,40.0410756]}},{"type":"Feature","id":"way/1323892727","properties":{"leisure":"park","id":"way/1323892727"},"geometry":{"type":"Point","coordinates":[28.4031912,40.0417255]}},{"type":"Feature","id":"way/1323892728","properties":{"leisure":"park","id":"way/1323892728"},"geometry":{"type":"Point","coordinates":[28.4115975,40.0443657]}},{"type":"Feature","id":"way/1323892729","properties":{"leisure":"playground","id":"way/1323892729"},"geometry":{"type":"Point","coordinates":[28.3918008,40.0408259]}},{"type":"Feature","id":"way/1323892730","properties":{"leisure":"playground","id":"way/1323892730"},"geometry":{"type":"Point","coordinates":[28.3867104,40.0377049]}},{"type":"Feature","id":"way/1323892731","properties":{"leisure":"playground","id":"way/1323892731"},"geometry":{"type":"Point","coordinates":[28.3878977,40.0353278]}},{"type":"Feature","id":"way/1323892732","properties":{"leisure":"park","id":"way/1323892732"},"geometry":{"type":"Point","coordinates":[28.388435,40.0360006]}},{"type":"Feature","id":"way/1323892733","properties":{"leisure":"playground","id":"way/1323892733"},"geometry":{"type":"Point","coordinates":[28.3799753,40.035049]}},{"type":"Feature","id":"way/1323892734","properties":{"leisure":"playground","id":"way/1323892734"},"geometry":{"type":"Point","coordinates":[28.3954769,40.0341036]}},{"type":"Feature","id":"way/1323892735","properties":{"leisure":"playground","id":"way/1323892735"},"geometry":{"type":"Point","coordinates":[28.3911438,40.0327297]}},{"type":"Feature","id":"way/1323892736","properties":{"leisure":"park","id":"way/1323892736"},"geometry":{"type":"Point","coordinates":[28.3911364,40.0327416]}},{"type":"Feature","id":"way/1323892737","properties":{"leisure":"park","id":"way/1323892737"},"geometry":{"type":"Point","coordinates":[28.3932189,40.0304958]}},{"type":"Feature","id":"way/1323892738","properties":{"leisure":"playground","id":"way/1323892738"},"geometry":{"type":"Point","coordinates":[28.3932189,40.0305063]}},{"type":"Feature","id":"way/1323892739","properties":{"leisure":"park","id":"way/1323892739"},"geometry":{"type":"Point","coordinates":[28.3935285,40.0309907]}},{"type":"Feature","id":"way/1323892740","properties":{"leisure":"playground","id":"way/1323892740"},"geometry":{"type":"Point","coordinates":[28.3949303,40.0283455]}},{"type":"Feature","id":"way/1323892741","properties":{"leisure":"park","id":"way/1323892741"},"geometry":{"type":"Point","coordinates":[28.3948038,40.0283546]}},{"type":"Feature","id":"way/1323892742","properties":{"leisure":"park","id":"way/1323892742"},"geometry":{"type":"Point","coordinates":[28.3958241,40.0264047]}},{"type":"Feature","id":"way/1323892743","properties":{"leisure":"playground","id":"way/1323892743"},"geometry":{"type":"Point","coordinates":[28.3954905,40.0263644]}},{"type":"Feature","id":"way/1323892744","properties":{"leisure":"park","id":"way/1323892744"},"geometry":{"type":"Point","coordinates":[28.4071847,40.0386128]}},{"type":"Feature","id":"way/1323892745","properties":{"leisure":"park","id":"way/1323892745"},"geometry":{"type":"Point","coordinates":[28.407133,40.0360753]}},{"type":"Feature","id":"way/1323892746","properties":{"leisure":"playground","id":"way/1323892746"},"geometry":{"type":"Point","coordinates":[28.4184795,40.0341387]}},{"type":"Feature","id":"way/1323892747","properties":{"leisure":"playground","id":"way/1323892747"},"geometry":{"type":"Point","coordinates":[28.4165303,40.0313224]}},{"type":"Feature","id":"way/1323892748","properties":{"leisure":"park","id":"way/1323892748"},"geometry":{"type":"Point","coordinates":[28.4165658,40.0312598]}},{"type":"Feature","id":"way/1323892749","properties":{"leisure":"playground","id":"way/1323892749"},"geometry":{"type":"Point","coordinates":[28.4222191,40.0347109]}},{"type":"Feature","id":"way/1323892750","properties":{"leisure":"park","id":"way/1323892750"},"geometry":{"type":"Point","coordinates":[28.4223972,40.0348343]}},{"type":"Feature","id":"way/1324307081","properties":{"amenity":"place_of_worship","building":"mosque","denomination":"sunni","religion":"muslim","id":"way/1324307081"},"geometry":{"type":"Point","coordinates":[28.6168675,40.0408937]}},{"type":"Feature","id":"way/1327508373","properties":{"amenity":"townhall","building":"yes","name":"Garipçetekke Muhtarlığı","source":"microsoft/BuildingFootprints","townhall:type":"village","id":"way/1327508373"},"geometry":{"type":"Point","coordinates":[28.5241134,40.0632867]}},{"type":"Feature","id":"way/1328548291","properties":{"amenity":"bus_station","bus":"yes","name":"Mustafakemalpaşa Otogarı","public_transport":"station","id":"way/1328548291"},"geometry":{"type":"Point","coordinates":[28.3728653,40.0497328]}},{"type":"Feature","id":"way/1330717962","properties":{"leisure":"pitch","sport":"soccer","id":"way/1330717962"},"geometry":{"type":"Point","coordinates":[28.2312291,40.0564138]}},{"type":"Feature","id":"way/1333697706","properties":{"leisure":"playground","id":"way/1333697706"},"geometry":{"type":"Point","coordinates":[28.3790433,40.0365699]}},{"type":"Feature","id":"way/1335087272","properties":{"amenity":"place_of_worship","building":"mosque","name":"Dorak Cami","religion":"muslim","id":"way/1335087272"},"geometry":{"type":"Point","coordinates":[28.5844593,40.1008206]}},{"type":"Feature","id":"way/1335103863","properties":{"amenity":"school","name":"Karaoğlan İlkokulu","id":"way/1335103863"},"geometry":{"type":"Point","coordinates":[28.5224672,40.0964718]}},{"type":"Feature","id":"way/1337338141","properties":{"amenity":"parking","parking":"surface","id":"way/1337338141"},"geometry":{"type":"Point","coordinates":[28.3615101,40.0292057]}},{"type":"Feature","id":"way/1357060901","properties":{"amenity":"community_centre","building":"yes","name":"Karyağmaz Köy Konağı","source":"microsoft/BuildingFootprints","id":"way/1357060901"},"geometry":{"type":"Point","coordinates":[28.3769126,40.0069914]}},{"type":"Feature","id":"way/1359083063","properties":{"amenity":"school","name":"Durumtay İlköğretim Okulu","operator":"Millî Eğitim Bakanlığı","operator:en":"Ministry of National Education","operator:short":"MEB","operator:tr":"Millî Eğitim Bakanlığı","operator:type":"government","operator:wikidata":"Q1359675","id":"way/1359083063"},"geometry":{"type":"Point","coordinates":[28.2406944,40.0758201]}},{"type":"Feature","id":"way/1359598279","properties":{"amenity":"school","name":"Yumurcaklı İlkokulu","operator":"Millî Eğitim Bakanlığı","operator:en":"Ministry of National Education","operator:short":"MEB","operator:tr":"Millî Eğitim Bakanlığı","operator:type":"government","operator:wikidata":"Q1359675","id":"way/1359598279"},"geometry":{"type":"Point","coordinates":[28.2774111,40.0675729]}},{"type":"Feature","id":"way/1359841325","properties":{"amenity":"school","name":"Ocaklı İlkokulu","operator":"Millî Eğitim Bakanlığı","operator:en":"Ministry of National Education","operator:short":"MEB","operator:tr":"Millî Eğitim Bakanlığı","operator:type":"government","operator:wikidata":"Q1359675","id":"way/1359841325"},"geometry":{"type":"Point","coordinates":[28.292465,40.0491149]}},{"type":"Feature","id":"way/1360097020","properties":{"amenity":"school","name":"Koşuboğazı İlköğretim Okulu","operator":"Millî Eğitim Bakanlığı","operator:en":"Ministry of National Education","operator:short":"MEB","operator:tr":"Millî Eğitim Bakanlığı","operator:type":"government","operator:wikidata":"Q1359675","id":"way/1360097020"},"geometry":{"type":"Point","coordinates":[28.2441252,40.0542006]}},{"type":"Feature","id":"way/1456238125","properties":{"amenity":"school","name":"İlyasçılar İlkokulu","operator":"Millî Eğitim Bakanlığı","operator:en":"Ministry of National Education","operator:short":"MEB","operator:tr":"Millî Eğitim Bakanlığı","operator:type":"government","operator:wikidata":"Q1359675","id":"way/1456238125"},"geometry":{"type":"Point","coordinates":[28.4907809,40.0112001]}},{"type":"Feature","id":"way/1456238239","properties":{"amenity":"place_of_worship","building":"mosque","name":"İlyasçılar Camii","religion":"muslim","source":"microsoft/BuildingFootprints","id":"way/1456238239"},"geometry":{"type":"Point","coordinates":[28.4925081,40.0108736]}},{"type":"Feature","id":"way/1526407037","properties":{"amenity":"school","education":"school","name":"Toki Hamzabey Anadolu Lisesi","operator":"Millî Eğitim Bakanlığı","operator:en":"Ministry of National Education","operator:short":"MEB","operator:tr":"Millî Eğitim Bakanlığı","operator:type":"government","operator:wikidata":"Q1359675","id":"way/1526407037"},"geometry":{"type":"Point","coordinates":[28.357404,40.0110712]}},{"type":"Feature","id":"node/2058334086","properties":{"amenity":"school","name":"Mustafakemalpaşa Anadolu Lisesi","id":"node/2058334086"},"geometry":{"type":"Point","coordinates":[28.4046874,40.0385576]}},{"type":"Feature","id":"node/2058334093","properties":{"amenity":"school","id":"node/2058334093"},"geometry":{"type":"Point","coordinates":[28.4067363,40.0335265]}},{"type":"Feature","id":"node/2058334113","properties":{"amenity":"police","id":"node/2058334113"},"geometry":{"type":"Point","coordinates":[28.3962946,40.0342597]}},{"type":"Feature","id":"node/2129504393","properties":{"amenity":"post_office","name":"PTT","operator":"PTT","operator:wikidata":"Q3079259","operator:wikipedia":"tr:PTT","website":"https://ptt.gov.tr/","id":"node/2129504393"},"geometry":{"type":"Point","coordinates":[28.4104218,40.0346507]}},{"type":"Feature","id":"node/2422651558","properties":{"amenity":"fuel","brand":"Euroil","brand:wikidata":"Q128078519","building":"yes","name":"Euroil - Ufku Petrol","id":"node/2422651558"},"geometry":{"type":"Point","coordinates":[28.2214757,40.002181]}},{"type":"Feature","id":"node/4679473964","properties":{"amenity":"bank","atm":"yes","brand":"Akbank","brand:wikidata":"Q416624","brand:wikipedia":"tr:Akbank","name":"Akbank","operator":"Akbank","id":"node/4679473964"},"geometry":{"type":"Point","coordinates":[28.4107545,40.0359801]}},{"type":"Feature","id":"node/4699019909","properties":{"addr:city":"Bursa","addr:country":"TR","addr:district":"Mustafakemalpaşa","addr:housenumber":"20","addr:neighbourhood":"Cumhuriyet Mahallesi","addr:postcode":"16500","addr:street":"Karacabey - Mustafakemalpaşa Yolu","amenity":"fuel","brand":"Opet","brand:wikidata":"Q7072824","brand:wikipedia":"tr:Opet","contact:phone":"+90 2246181418","fuel:diesel":"yes","fuel:euro_diesel":"yes","fuel:lpg":"yes","name":"Opet Mustafakemalpaşa","operator":"Opet Petrolcülük A.Ş.","source":"Yellow Pages Türkiye","website":"https://www.opet.com.tr/","id":"node/4699019909"},"geometry":{"type":"Point","coordinates":[28.374236,40.03539]}},{"type":"Feature","id":"node/4941682977","properties":{"amenity":"fuel","id":"node/4941682977"},"geometry":{"type":"Point","coordinates":[28.3661255,40.0536648]}},{"type":"Feature","id":"node/4941682984","properties":{"amenity":"fuel","id":"node/4941682984"},"geometry":{"type":"Point","coordinates":[28.3641257,40.056045]}},{"type":"Feature","id":"node/6944683893","properties":{"amenity":"fuel","id":"node/6944683893"},"geometry":{"type":"Point","coordinates":[28.5614622,39.9187401]}},{"type":"Feature","id":"node/7097955239","properties":{"amenity":"fast_food","drive_through":"no","name":"Akın Ekmek Fırını Simit Sarayı","operator":"Akın Ekmek Fırını","id":"node/7097955239"},"geometry":{"type":"Point","coordinates":[28.3864858,40.0368552]}},{"type":"Feature","id":"node/7097955240","properties":{"brand":"A101","brand:wikidata":"Q6034496","brand:wikipedia":"tr:A101","name":"A101","opening_hours":"Mo-Su 09:00-21:30","shop":"supermarket","id":"node/7097955240"},"geometry":{"type":"Point","coordinates":[28.3864646,40.037305]}},{"type":"Feature","id":"node/7097955241","properties":{"name":"Yükseller Market - Barış Şube","operator":"Yükseller Market","shop":"supermarket","id":"node/7097955241"},"geometry":{"type":"Point","coordinates":[28.3861204,40.0344293]}},{"type":"Feature","id":"node/7097955243","properties":{"amenity":"taxi","name":"Dolmuş Durakları","id":"node/7097955243"},"geometry":{"type":"Point","coordinates":[28.3857002,40.0353438]}},{"type":"Feature","id":"node/7097955244","properties":{"brand":"BİM","brand:wikidata":"Q1022075","brand:wikipedia":"en:Bim (company)","name":"BİM","opening_hours":"Mo-Su 09:00-21:00","shop":"supermarket","id":"node/7097955244"},"geometry":{"type":"Point","coordinates":[28.3916392,40.0359082]}},{"type":"Feature","id":"node/9272555444","properties":{"brand":"A101","brand:wikidata":"Q6034496","brand:wikipedia":"tr:A101","name":"A101","opening_hours":"Mo-Su 09:00-21:30","shop":"supermarket","id":"node/9272555444"},"geometry":{"type":"Point","coordinates":[28.4012325,40.0335034]}},{"type":"Feature","id":"node/9272579834","properties":{"brand":"Şok","brand:wikidata":"Q19613992","brand:wikipedia":"tr:Şok (market)","name":"Şok","opening_hours":"Mo-Sa 09:00-21:00","shop":"supermarket","id":"node/9272579834"},"geometry":{"type":"Point","coordinates":[28.4012192,40.0333894]}},{"type":"Feature","id":"node/9357505529","properties":{"amenity":"fuel","brand":"SOCAR","brand:wikidata":"Q1622293","name":"SOCAR","id":"node/9357505529"},"geometry":{"type":"Point","coordinates":[28.3660626,40.03216]}},{"type":"Feature","id":"node/9357505530","properties":{"amenity":"fuel","id":"node/9357505530"},"geometry":{"type":"Point","coordinates":[28.3870335,40.0332648]}},{"type":"Feature","id":"node/9357644810","properties":{"addr:city":"Bursa","addr:district":"Mustafakemalpaşa","name":"Altınoluk Pastaneleri","shop":"pastry","id":"node/9357644810"},"geometry":{"type":"Point","coordinates":[28.4086853,40.0373666]}},{"type":"Feature","id":"node/9357650952","properties":{"brand":"Turkcell","brand:wikidata":"Q283852","brand:wikipedia":"en:Turkcell","name":"Turkcell","shop":"mobile_phone","id":"node/9357650952"},"geometry":{"type":"Point","coordinates":[28.4082038,40.0373919]}},{"type":"Feature","id":"node/9357650953","properties":{"brand":"Migros Jet","brand:wikidata":"Q1754510","brand:wikipedia":"tr:Migros (Türkiye)","name":"Migros Jet","shop":"convenience","id":"node/9357650953"},"geometry":{"type":"Point","coordinates":[28.4085332,40.0372168]}},{"type":"Feature","id":"node/9357650954","properties":{"addr:city":"Bursa","addr:district":"Mustafakemalpaşa","amenity":"pharmacy","dispensing":"yes","healthcare":"pharmacy","name":"Durumbey Eczanesi","phone":"+90 224 614 1574","id":"node/9357650954"},"geometry":{"type":"Point","coordinates":[28.4083834,40.0373017]}},{"type":"Feature","id":"node/9357747309","properties":{"amenity":"fuel","brand":"Petrol Ofisi","brand:wikidata":"Q1278087","name":"Petrol Ofisi","id":"node/9357747309"},"geometry":{"type":"Point","coordinates":[28.336837,40.0305281]}},{"type":"Feature","id":"node/9357747311","properties":{"amenity":"fuel","id":"node/9357747311"},"geometry":{"type":"Point","coordinates":[28.284868,40.0320533]}},{"type":"Feature","id":"node/9398663239","properties":{"amenity":"fuel","id":"node/9398663239"},"geometry":{"type":"Point","coordinates":[28.3977139,40.0169997]}},{"type":"Feature","id":"node/9398663261","properties":{"amenity":"fuel","id":"node/9398663261"},"geometry":{"type":"Point","coordinates":[28.3817689,40.0330938]}},{"type":"Feature","id":"node/9398663262","properties":{"amenity":"fuel","id":"node/9398663262"},"geometry":{"type":"Point","coordinates":[28.3770798,40.032872]}},{"type":"Feature","id":"node/9398663263","properties":{"amenity":"fuel","id":"node/9398663263"},"geometry":{"type":"Point","coordinates":[28.3760123,40.033369]}},{"type":"Feature","id":"node/9398663264","properties":{"amenity":"fuel","id":"node/9398663264"},"geometry":{"type":"Point","coordinates":[28.3665826,40.0518303]}},{"type":"Feature","id":"node/9534649559","properties":{"amenity":"fire_station","name":"Mustafakemalpaşa İtfaiye","id":"node/9534649559"},"geometry":{"type":"Point","coordinates":[28.3876174,40.0316276]}},{"type":"Feature","id":"node/10127609014","properties":{"addr:city":"BURSA","addr:district":"MUSTAFAKEMALPAŞA","addr:housenumber":"2/4A","addr:neighbourhood":"HAMZABEY","addr:postcode":"16500","addr:street":"Şehit Adnan Yıldız Sokak","amenity":"veterinary","name":"KLİNİKA VETERİNER MUAYENEHANESİ","opening_hours":"Mo-Sa 09:00-20:00","operator":"KLİNİKA VETERİNER MUAYENEHANESİ","id":"node/10127609014"},"geometry":{"type":"Point","coordinates":[28.4017652,40.0418754]}},{"type":"Feature","id":"node/11452069795","properties":{"amenity":"fuel","id":"node/11452069795"},"geometry":{"type":"Point","coordinates":[28.4708535,40.0464918]}},{"type":"Feature","id":"node/11455095469","properties":{"amenity":"pharmacy","name":"Özman Eczanesi","phone":"+90 224 635 2278","id":"node/11455095469"},"geometry":{"type":"Point","coordinates":[28.4283204,40.1190221]}},{"type":"Feature","id":"node/11658166169","properties":{"amenity":"pharmacy","healthcare":"pharmacy","name":"Yalın Eczanesi","phone":"+90 224 647 2121","id":"node/11658166169"},"geometry":{"type":"Point","coordinates":[28.3980568,40.0183545]}},{"type":"Feature","id":"node/11658166170","properties":{"amenity":"pharmacy","healthcare":"pharmacy","name":"Ergin Eczanesi","phone":"+90 224 614 3589","id":"node/11658166170"},"geometry":{"type":"Point","coordinates":[28.3655493,40.0299709]}},{"type":"Feature","id":"node/11658166171","properties":{"amenity":"pharmacy","healthcare":"pharmacy","name":"Karaman Sağlık Eczanesi","phone":"+90 224 613 8000","id":"node/11658166171"},"geometry":{"type":"Point","coordinates":[28.383803,40.0369409]}},{"type":"Feature","id":"node/11658166172","properties":{"amenity":"pharmacy","healthcare":"pharmacy","name":"Hilal Eczanesi","phone":"+90 224 612 1266","id":"node/11658166172"},"geometry":{"type":"Point","coordinates":[28.3954456,40.0300074]}},{"type":"Feature","id":"node/11658166173","properties":{"addr:housenumber":"22","addr:street":"Yalıntaş Caddesi","amenity":"pharmacy","healthcare":"pharmacy","name":"Karaman Eczanesi","phone":"+90 224 613 2030","id":"node/11658166173"},"geometry":{"type":"Point","coordinates":[28.3986882,40.0328525]}},{"type":"Feature","id":"node/11658166174","properties":{"amenity":"pharmacy","healthcare":"pharmacy","name":"Özkocaman Eczanesi","phone":"+90 224 613 1300","id":"node/11658166174"},"geometry":{"type":"Point","coordinates":[28.4053791,40.0336149]}},{"type":"Feature","id":"node/11658166175","properties":{"amenity":"pharmacy","healthcare":"pharmacy","name":"Azim Eczanesi","phone":"+90 224 613 1129","id":"node/11658166175"},"geometry":{"type":"Point","coordinates":[28.4134541,40.0346479]}},{"type":"Feature","id":"node/11658166176","properties":{"amenity":"pharmacy","healthcare":"pharmacy","name":"Nergis Eczanesi","phone":"+90 224 613 0809","id":"node/11658166176"},"geometry":{"type":"Point","coordinates":[28.4146271,40.0360744]}},{"type":"Feature","id":"node/11658166177","properties":{"amenity":"pharmacy","healthcare":"pharmacy","name":"Yeni Eczanesi","phone":"+90 224 613 1109","id":"node/11658166177"},"geometry":{"type":"Point","coordinates":[28.4111052,40.0378271]}},{"type":"Feature","id":"node/11658166178","properties":{"amenity":"pharmacy","healthcare":"pharmacy","name":"Ayhan Eczanesi","phone":"+90 224 613 1927","id":"node/11658166178"},"geometry":{"type":"Point","coordinates":[28.4113079,40.0360498]}},{"type":"Feature","id":"node/11658166179","properties":{"amenity":"pharmacy","healthcare":"pharmacy","name":"Gültekin Eczanesi","phone":"+90 224 613 1337","id":"node/11658166179"},"geometry":{"type":"Point","coordinates":[28.410673,40.036374]}},{"type":"Feature","id":"node/11658166180","properties":{"amenity":"pharmacy","healthcare":"pharmacy","name":"Çarşı Eczanesi","phone":"+90 224 613 1188","id":"node/11658166180"},"geometry":{"type":"Point","coordinates":[28.4101289,40.0363701]}},{"type":"Feature","id":"node/11658166181","properties":{"amenity":"pharmacy","healthcare":"pharmacy","name":"Bozkurt Eczanesi","phone":"+90 224 614 1781","id":"node/11658166181"},"geometry":{"type":"Point","coordinates":[28.4105268,40.0348657]}},{"type":"Feature","id":"node/11658166182","properties":{"amenity":"pharmacy","healthcare":"pharmacy","name":"Şifa Eczanesi","phone":"+90 224 613 1747","id":"node/11658166182"},"geometry":{"type":"Point","coordinates":[28.41002,40.0346549]}},{"type":"Feature","id":"node/11658166183","properties":{"amenity":"pharmacy","healthcare":"pharmacy","name":"Gülser Eczanesi","phone":"+90 224 613 4210","id":"node/11658166183"},"geometry":{"type":"Point","coordinates":[28.4077736,40.0388278]}},{"type":"Feature","id":"node/11658166184","properties":{"amenity":"pharmacy","healthcare":"pharmacy","name":"Karaca Sağlık Eczanesi","phone":"+90 224 618 0041","id":"node/11658166184"},"geometry":{"type":"Point","coordinates":[28.4082249,40.0391679]}},{"type":"Feature","id":"node/11658166269","properties":{"amenity":"pharmacy","healthcare":"pharmacy","name":"Çalışkan Eczanesi","phone":"+90 224 618 1211","id":"node/11658166269"},"geometry":{"type":"Point","coordinates":[28.3656435,40.0302093]}},{"type":"Feature","id":"node/11658166270","properties":{"amenity":"pharmacy","healthcare":"pharmacy","name":"Erdem Eczanesi","phone":"+90 224 618 0025","id":"node/11658166270"},"geometry":{"type":"Point","coordinates":[28.3847587,40.0327801]}},{"type":"Feature","id":"node/11658166271","properties":{"amenity":"pharmacy","healthcare":"pharmacy","name":"Sel Eczanesi","phone":"+90 224 614 1319","id":"node/11658166271"},"geometry":{"type":"Point","coordinates":[28.4065901,40.0382799]}},{"type":"Feature","id":"node/11658166469","properties":{"amenity":"pharmacy","healthcare":"pharmacy","name":"Çırpan Eczanesi","phone":"+90 224 613 2548","id":"node/11658166469"},"geometry":{"type":"Point","coordinates":[28.3653848,40.030965]}},{"type":"Feature","id":"node/11658166470","properties":{"amenity":"pharmacy","healthcare":"pharmacy","name":"Ersin Eczanesi","phone":"+90 224 614 2424","id":"node/11658166470"},"geometry":{"type":"Point","coordinates":[28.3884213,40.0334564]}},{"type":"Feature","id":"node/11658166471","properties":{"amenity":"pharmacy","healthcare":"pharmacy","name":"Erdoğan Eczanesi","phone":"+90 224 613 1755","id":"node/11658166471"},"geometry":{"type":"Point","coordinates":[28.4101515,40.0347698]}},{"type":"Feature","id":"node/11658166569","properties":{"amenity":"pharmacy","healthcare":"pharmacy","name":"Merkez Eczanesi","phone":"+90 224 612 2960","id":"node/11658166569"},"geometry":{"type":"Point","coordinates":[28.4139167,40.0341183]}},{"type":"Feature","id":"node/11658166570","properties":{"amenity":"pharmacy","healthcare":"pharmacy","name":"Ulutaş Eczanesi","phone":"+90 224 613 1643","id":"node/11658166570"},"geometry":{"type":"Point","coordinates":[28.4136756,40.0351488]}},{"type":"Feature","id":"node/11658166571","properties":{"amenity":"pharmacy","healthcare":"pharmacy","name":"Çelebi Eczanesi","phone":"+90 224 613 8236","id":"node/11658166571"},"geometry":{"type":"Point","coordinates":[28.4117278,40.0375051]}},{"type":"Feature","id":"node/11658166572","properties":{"amenity":"pharmacy","healthcare":"pharmacy","name":"Trakyalı Eczanesi","phone":"+90 224 613 9795","id":"node/11658166572"},"geometry":{"type":"Point","coordinates":[28.4095042,40.034417]}},{"type":"Feature","id":"node/11658166573","properties":{"amenity":"pharmacy","healthcare":"pharmacy","name":"Savaş Eczanesi","phone":"+90 224 613 9594","id":"node/11658166573"},"geometry":{"type":"Point","coordinates":[28.406628,40.0405838]}},{"type":"Feature","id":"node/11658166574","properties":{"amenity":"pharmacy","healthcare":"pharmacy","name":"Derman Eczanesi","phone":"+90 224 613 9130","id":"node/11658166574"},"geometry":{"type":"Point","coordinates":[28.4067134,40.0407067]}},{"type":"Feature","id":"node/11658166669","properties":{"amenity":"pharmacy","healthcare":"pharmacy","name":"Beyza Altay Eczanesi","phone":"+90 224 614 1414","id":"node/11658166669"},"geometry":{"type":"Point","coordinates":[28.4065994,40.0397917]}},{"type":"Feature","id":"node/11721949940","properties":{"amenity":"fuel","id":"node/11721949940"},"geometry":{"type":"Point","coordinates":[28.406072,40.0743485]}},{"type":"Feature","id":"node/11721949941","properties":{"amenity":"fuel","id":"node/11721949941"},"geometry":{"type":"Point","coordinates":[28.4060536,40.072565]}},{"type":"Feature","id":"node/12169447371","properties":{"leisure":"pitch","lit":"yes","name":"Güllüce Halı Saha","sport":"soccer","id":"node/12169447371"},"geometry":{"type":"Point","coordinates":[28.3053108,40.0343551]}},{"type":"Feature","id":"node/12549161136","properties":{"bus":"yes","highway":"bus_stop","name":"Mustafakemalpaşa Terminal","public_transport":"platform","id":"node/12549161136"},"geometry":{"type":"Point","coordinates":[28.3733132,40.0497885]}},{"type":"Feature","id":"node/13468117630","properties":{"addr:city":"Bursa","addr:district":"Mustafakemalpaşa","addr:housenumber":"12/2","addr:neighbourhood":"Hamzabey","addr:postcode":"16500","addr:street":"Değirmen Sokak","amenity":"restaurant","cuisine":"turkish;barbecue","name":"Löpür Löpür Et Kasap Izgara","opening_hours":"Mo-Su 09:00-21:00","phone":"+90 547 420 5050","id":"node/13468117630"},"geometry":{"type":"Point","coordinates":[28.4063891,40.0403319]}},{"type":"Feature","id":"node/13939049363","properties":{"amenity":"place_of_worship","building":"yes","name":"Mescid","religion":"muslim","id":"node/13939049363"},"geometry":{"type":"Point","coordinates":[28.5943395,39.955205]}}]}