{"type":"FeatureCollection","features":[{"type":"Feature","id":"node/6205225357","properties":{"highway":"street_lamp","id":"node/6205225357"},"geometry":{"type":"Point","coordinates":[27.209354,38.4723141]}},{"type":"Feature","id":"node/6205225358","properties":{"highway":"street_lamp","id":"node/6205225358"},"geometry":{"type":"Point","coordinates":[27.2093558,38.4721603]}},{"type":"Feature","id":"node/6205225359","properties":{"highway":"street_lamp","id":"node/6205225359"},"geometry":{"type":"Point","coordinates":[27.2089124,38.4724112]}},{"type":"Feature","id":"node/8105166296","properties":{"highway":"street_lamp","id":"node/8105166296"},"geometry":{"type":"Point","coordinates":[27.2357319,38.4486308]}}]}