{"type":"FeatureCollection","features":[{"type":"Feature","id":"node/8184671770","properties":{"highway":"street_lamp","lamp_mount":"bent_mast","lamp_type":"electric","id":"node/8184671770"},"geometry":{"type":"Point","coordinates":[5.2929695,51.6934837]}},{"type":"Feature","id":"node/8184671771","properties":{"highway":"street_lamp","lamp_mount":"bent_mast","lamp_type":"electric","id":"node/8184671771"},"geometry":{"type":"Point","coordinates":[5.2926744,51.6934149]}},{"type":"Feature","id":"node/11251022155","properties":{"highway":"street_lamp","id":"node/11251022155"},"geometry":{"type":"Point","coordinates":[5.2661412,51.6942416]}},{"type":"Feature","id":"node/11288292458","properties":{"highway":"street_lamp","lamp_mount":"straight_mast","lamp_type":"electric","operator":"Gemeente 's-Hertogenbosch","operator:type":"government","operator:wikidata":"Q9807","ref":"007301479026","support":"pole","id":"node/11288292458"},"geometry":{"type":"Point","coordinates":[5.2894169,51.6912795]}},{"type":"Feature","id":"node/11288318322","properties":{"highway":"street_lamp","lamp_mount":"straight_mast","lamp_type":"electric","operator":"Gemeente 's-Hertogenbosch","operator:type":"government","operator:wikidata":"Q9807","ref":"007301479029","support":"pole","id":"node/11288318322"},"geometry":{"type":"Point","coordinates":[5.2890493,51.6913382]}},{"type":"Feature","id":"node/11771099169","properties":{"highway":"street_lamp","lamp_mount":"straight_mast","lamp_type":"led","ref":"42","support":"pole","id":"node/11771099169"},"geometry":{"type":"Point","coordinates":[5.3563404,51.7362954]}},{"type":"Feature","id":"node/11771099170","properties":{"highway":"street_lamp","lamp_mount":"straight_mast","lamp_type":"led","support":"pole","id":"node/11771099170"},"geometry":{"type":"Point","coordinates":[5.3562003,51.7364933]}},{"type":"Feature","id":"node/11771099171","properties":{"highway":"street_lamp","lamp_mount":"straight_mast","lamp_type":"led","support":"pole","id":"node/11771099171"},"geometry":{"type":"Point","coordinates":[5.356189,51.7366738]}},{"type":"Feature","id":"node/11771099172","properties":{"highway":"street_lamp","lamp_mount":"straight_mast","lamp_type":"led","support":"pole","id":"node/11771099172"},"geometry":{"type":"Point","coordinates":[5.3561803,51.7369122]}},{"type":"Feature","id":"node/11771111974","properties":{"highway":"street_lamp","lamp_mount":"straight_mast","lamp_type":"led","support":"pole","id":"node/11771111974"},"geometry":{"type":"Point","coordinates":[5.3561735,51.7370403]}},{"type":"Feature","id":"node/11771525608","properties":{"highway":"street_lamp","id":"node/11771525608"},"geometry":{"type":"Point","coordinates":[5.3568577,51.7363424]}},{"type":"Feature","id":"node/11771525609","properties":{"highway":"street_lamp","lamp_mount":"straight_mast","lamp_type":"led","support":"pole","id":"node/11771525609"},"geometry":{"type":"Point","coordinates":[5.3572272,51.7364447]}},{"type":"Feature","id":"node/11771525611","properties":{"highway":"street_lamp","lamp_mount":"straight_mast","lamp_type":"led","ref":"43","support":"pole","id":"node/11771525611"},"geometry":{"type":"Point","coordinates":[5.3571871,51.7371608]}},{"type":"Feature","id":"node/11771525612","properties":{"highway":"street_lamp","lamp_mount":"straight_mast","lamp_type":"led","ref":"32","support":"pole","id":"node/11771525612"},"geometry":{"type":"Point","coordinates":[5.3568791,51.737145]}},{"type":"Feature","id":"node/11771525613","properties":{"highway":"street_lamp","lamp_mount":"straight_mast","lamp_type":"led","ref":"38","support":"pole","id":"node/11771525613"},"geometry":{"type":"Point","coordinates":[5.3565777,51.7371267]}},{"type":"Feature","id":"node/11771525614","properties":{"highway":"street_lamp","lamp_mount":"straight_mast","lamp_type":"led","support":"pole","id":"node/11771525614"},"geometry":{"type":"Point","coordinates":[5.356309,51.7370962]}},{"type":"Feature","id":"node/11771544026","properties":{"highway":"street_lamp","lamp_mount":"bent_mast","lamp_type":"led","support":"pole","id":"node/11771544026"},"geometry":{"type":"Point","coordinates":[5.3573694,51.7367616]}},{"type":"Feature","id":"node/11771544033","properties":{"highway":"street_lamp","lamp_mount":"bent_mast","lamp_type":"led","support":"pole","id":"node/11771544033"},"geometry":{"type":"Point","coordinates":[5.3573515,51.7368821]}},{"type":"Feature","id":"node/11771544034","properties":{"highway":"street_lamp","lamp_mount":"bent_mast","lamp_type":"led","support":"pole","id":"node/11771544034"},"geometry":{"type":"Point","coordinates":[5.357307,51.7370344]}},{"type":"Feature","id":"node/11771545675","properties":{"highway":"street_lamp","lamp_mount":"bent_mast","lamp_type":"led","support":"pole","id":"node/11771545675"},"geometry":{"type":"Point","coordinates":[5.357529,51.7364413]}},{"type":"Feature","id":"node/12318211839","properties":{"highway":"street_lamp","lamp_mount":"bent_mast","lamp_type":"led","support":"pole","id":"node/12318211839"},"geometry":{"type":"Point","coordinates":[5.3573358,51.7372902]}},{"type":"Feature","id":"node/12318211840","properties":{"highway":"street_lamp","lamp_mount":"bent_mast","lamp_type":"led","support":"pole","id":"node/12318211840"},"geometry":{"type":"Point","coordinates":[5.3573198,51.737429]}},{"type":"Feature","id":"node/12318211841","properties":{"highway":"street_lamp","lamp_mount":"bent_mast","lamp_type":"led","support":"pole","id":"node/12318211841"},"geometry":{"type":"Point","coordinates":[5.3572918,51.7375559]}},{"type":"Feature","id":"node/12318211842","properties":{"highway":"street_lamp","lamp_mount":"bent_mast","lamp_type":"led","support":"pole","id":"node/12318211842"},"geometry":{"type":"Point","coordinates":[5.3572728,51.7376845]}},{"type":"Feature","id":"node/12318211843","properties":{"highway":"street_lamp","lamp_mount":"bent_mast","lamp_type":"led","support":"pole","id":"node/12318211843"},"geometry":{"type":"Point","coordinates":[5.3572396,51.7378249]}},{"type":"Feature","id":"node/12318211844","properties":{"highway":"street_lamp","lamp_mount":"bent_mast","lamp_type":"led","support":"pole","id":"node/12318211844"},"geometry":{"type":"Point","coordinates":[5.357329,51.737969]}},{"type":"Feature","id":"node/12318211845","properties":{"highway":"street_lamp","lamp_mount":"bent_mast","lamp_type":"led","support":"pole","id":"node/12318211845"},"geometry":{"type":"Point","coordinates":[5.3572774,51.7382814]}},{"type":"Feature","id":"node/12318211846","properties":{"highway":"street_lamp","lamp_mount":"bent_mast","lamp_type":"led","support":"pole","id":"node/12318211846"},"geometry":{"type":"Point","coordinates":[5.3570125,51.7385752]}},{"type":"Feature","id":"node/12318211847","properties":{"highway":"street_lamp","lamp_mount":"bent_mast","lamp_type":"led","support":"pole","id":"node/12318211847"},"geometry":{"type":"Point","coordinates":[5.3572355,51.7385285]}},{"type":"Feature","id":"node/12318211848","properties":{"highway":"street_lamp","lamp_mount":"bent_mast","lamp_type":"led","support":"pole","id":"node/12318211848"},"geometry":{"type":"Point","coordinates":[5.3571163,51.7385455]}},{"type":"Feature","id":"node/12318211849","properties":{"highway":"street_lamp","lamp_mount":"bent_mast","lamp_type":"led","support":"pole","id":"node/12318211849"},"geometry":{"type":"Point","coordinates":[5.3574034,51.7386235]}},{"type":"Feature","id":"node/12318211851","properties":{"highway":"street_lamp","lamp_mount":"straight_mast","lamp_type":"led","support":"pole","id":"node/12318211851"},"geometry":{"type":"Point","coordinates":[5.3580226,51.73887]}},{"type":"Feature","id":"node/12318211852","properties":{"highway":"street_lamp","lamp_mount":"straight_mast","lamp_type":"led","support":"pole","id":"node/12318211852"},"geometry":{"type":"Point","coordinates":[5.3578475,51.739149]}},{"type":"Feature","id":"node/12318211853","properties":{"highway":"street_lamp","lamp_mount":"straight_mast","lamp_type":"led","support":"pole","id":"node/12318211853"},"geometry":{"type":"Point","coordinates":[5.3576093,51.739167]}},{"type":"Feature","id":"node/12318211854","properties":{"highway":"street_lamp","lamp_mount":"straight_mast","lamp_type":"led","support":"pole","id":"node/12318211854"},"geometry":{"type":"Point","coordinates":[5.3577654,51.7392923]}},{"type":"Feature","id":"node/12318211855","properties":{"highway":"street_lamp","lamp_mount":"straight_mast","lamp_type":"led","support":"pole","id":"node/12318211855"},"geometry":{"type":"Point","coordinates":[5.3576947,51.7394265]}},{"type":"Feature","id":"node/12318211856","properties":{"highway":"street_lamp","lamp_mount":"straight_mast","lamp_type":"led","support":"pole","id":"node/12318211856"},"geometry":{"type":"Point","coordinates":[5.3575488,51.7396315]}},{"type":"Feature","id":"node/12318211857","properties":{"highway":"street_lamp","lamp_mount":"straight_mast","lamp_type":"led","support":"pole","id":"node/12318211857"},"geometry":{"type":"Point","coordinates":[5.357428,51.7397576]}},{"type":"Feature","id":"node/12318211858","properties":{"highway":"street_lamp","lamp_mount":"straight_mast","lamp_type":"led","support":"pole","id":"node/12318211858"},"geometry":{"type":"Point","coordinates":[5.3572481,51.7399744]}},{"type":"Feature","id":"node/12318211862","properties":{"highway":"street_lamp","lamp_mount":"straight_mast","lamp_type":"led","support":"pole","id":"node/12318211862"},"geometry":{"type":"Point","coordinates":[5.3561974,51.7396727]}},{"type":"Feature","id":"node/12318211863","properties":{"highway":"street_lamp","lamp_mount":"straight_mast","lamp_type":"led","support":"pole","id":"node/12318211863"},"geometry":{"type":"Point","coordinates":[5.356324,51.7394741]}},{"type":"Feature","id":"node/12318211864","properties":{"highway":"street_lamp","lamp_mount":"straight_mast","lamp_type":"led","support":"pole","id":"node/12318211864"},"geometry":{"type":"Point","coordinates":[5.3564383,51.7392931]}},{"type":"Feature","id":"node/12318211865","properties":{"highway":"street_lamp","lamp_mount":"straight_mast","lamp_type":"led","support":"pole","id":"node/12318211865"},"geometry":{"type":"Point","coordinates":[5.356608,51.7390269]}},{"type":"Feature","id":"node/12318211866","properties":{"highway":"street_lamp","lamp_mount":"straight_mast","lamp_type":"led","support":"pole","id":"node/12318211866"},"geometry":{"type":"Point","coordinates":[5.3566563,51.7388596]}},{"type":"Feature","id":"node/12318211867","properties":{"highway":"street_lamp","lamp_mount":"straight_mast","lamp_type":"led","support":"pole","id":"node/12318211867"},"geometry":{"type":"Point","coordinates":[5.3566967,51.7386945]}},{"type":"Feature","id":"node/12318211868","properties":{"highway":"street_lamp","lamp_mount":"straight_mast","lamp_type":"led","support":"pole","id":"node/12318211868"},"geometry":{"type":"Point","coordinates":[5.3568277,51.7386638]}},{"type":"Feature","id":"node/12945059801","properties":{"highway":"street_lamp","lamp_mount":"straight_mast","lamp_type":"electric","support":"pole","id":"node/12945059801"},"geometry":{"type":"Point","coordinates":[5.2988399,51.7253697]}},{"type":"Feature","id":"node/12945059802","properties":{"highway":"street_lamp","lamp_mount":"straight_mast","lamp_type":"electric","support":"pole","id":"node/12945059802"},"geometry":{"type":"Point","coordinates":[5.2987144,51.7255432]}},{"type":"Feature","id":"node/12945059803","properties":{"highway":"street_lamp","lamp_mount":"straight_mast","lamp_type":"electric","support":"pole","id":"node/12945059803"},"geometry":{"type":"Point","coordinates":[5.2986141,51.7257409]}},{"type":"Feature","id":"node/12945059804","properties":{"highway":"street_lamp","lamp_mount":"straight_mast","lamp_type":"electric","support":"pole","id":"node/12945059804"},"geometry":{"type":"Point","coordinates":[5.2982406,51.7259043]}},{"type":"Feature","id":"node/12945059805","properties":{"highway":"street_lamp","lamp_mount":"straight_mast","lamp_type":"electric","support":"pole","id":"node/12945059805"},"geometry":{"type":"Point","coordinates":[5.2975773,51.7258593]}},{"type":"Feature","id":"node/12945059806","properties":{"highway":"street_lamp","lamp_mount":"straight_mast","lamp_type":"electric","support":"pole","id":"node/12945059806"},"geometry":{"type":"Point","coordinates":[5.297211,51.7257866]}},{"type":"Feature","id":"node/12945059807","properties":{"highway":"street_lamp","lamp_type":"electric","support":"pole","id":"node/12945059807"},"geometry":{"type":"Point","coordinates":[5.2969211,51.7256821]}},{"type":"Feature","id":"node/12945059808","properties":{"highway":"street_lamp","lamp_type":"electric","support":"pole","id":"node/12945059808"},"geometry":{"type":"Point","coordinates":[5.2972642,51.7256238]}},{"type":"Feature","id":"node/12945059809","properties":{"highway":"street_lamp","lamp_mount":"straight_mast","lamp_type":"electric","support":"pole","id":"node/12945059809"},"geometry":{"type":"Point","coordinates":[5.2966503,51.7255844]}},{"type":"Feature","id":"node/12945059810","properties":{"highway":"street_lamp","lamp_mount":"straight_mast","lamp_type":"electric","support":"pole","id":"node/12945059810"},"geometry":{"type":"Point","coordinates":[5.2964227,51.7254626]}},{"type":"Feature","id":"node/12945059811","properties":{"highway":"street_lamp","lamp_mount":"straight_mast","lamp_type":"electric","support":"pole","id":"node/12945059811"},"geometry":{"type":"Point","coordinates":[5.2962359,51.7253188]}},{"type":"Feature","id":"node/12945059812","properties":{"highway":"street_lamp","lamp_mount":"straight_mast","lamp_type":"electric","support":"pole","id":"node/12945059812"},"geometry":{"type":"Point","coordinates":[5.2960755,51.7251376]}},{"type":"Feature","id":"node/12945059813","properties":{"highway":"street_lamp","lamp_mount":"straight_mast","lamp_type":"electric","support":"pole","id":"node/12945059813"},"geometry":{"type":"Point","coordinates":[5.2959602,51.7248211]}},{"type":"Feature","id":"node/12945059814","properties":{"highway":"street_lamp","id":"node/12945059814"},"geometry":{"type":"Point","coordinates":[5.2963185,51.7246057]}},{"type":"Feature","id":"node/12945059815","properties":{"highway":"street_lamp","lamp_mount":"straight_mast","lamp_type":"electric","support":"pole","id":"node/12945059815"},"geometry":{"type":"Point","coordinates":[5.2963253,51.7248311]}},{"type":"Feature","id":"node/12945059816","properties":{"highway":"street_lamp","lamp_mount":"straight_mast","lamp_type":"electric","support":"pole","id":"node/12945059816"},"geometry":{"type":"Point","coordinates":[5.2968761,51.7248639]}},{"type":"Feature","id":"node/12945059817","properties":{"highway":"street_lamp","lamp_mount":"straight_mast","lamp_type":"electric","support":"pole","id":"node/12945059817"},"geometry":{"type":"Point","coordinates":[5.2970508,51.7250516]}},{"type":"Feature","id":"node/12945059818","properties":{"highway":"street_lamp","lamp_mount":"straight_mast","lamp_type":"electric","support":"pole","id":"node/12945059818"},"geometry":{"type":"Point","coordinates":[5.2972544,51.7251567]}},{"type":"Feature","id":"node/12945059819","properties":{"highway":"street_lamp","lamp_mount":"straight_mast","lamp_type":"electric","support":"pole","id":"node/12945059819"},"geometry":{"type":"Point","coordinates":[5.2977348,51.7252141]}},{"type":"Feature","id":"node/12945059820","properties":{"highway":"street_lamp","lamp_type":"electric","support":"pole","id":"node/12945059820"},"geometry":{"type":"Point","coordinates":[5.2974365,51.7252948]}},{"type":"Feature","id":"node/12945059821","properties":{"highway":"street_lamp","lamp_mount":"straight_mast","lamp_type":"electric","support":"pole","id":"node/12945059821"},"geometry":{"type":"Point","coordinates":[5.2981238,51.7252917]}},{"type":"Feature","id":"node/12945059822","properties":{"highway":"street_lamp","lamp_mount":"straight_mast","lamp_type":"electric","support":"pole","id":"node/12945059822"},"geometry":{"type":"Point","coordinates":[5.2984745,51.7253614]}},{"type":"Feature","id":"node/12945059823","properties":{"highway":"street_lamp","lamp_mount":"straight_mast","lamp_type":"electric","support":"pole","id":"node/12945059823"},"geometry":{"type":"Point","coordinates":[5.2985341,51.7259073]}},{"type":"Feature","id":"node/12945059824","properties":{"highway":"street_lamp","lamp_mount":"bent_mast","lamp_type":"electric","support":"pole","id":"node/12945059824"},"geometry":{"type":"Point","coordinates":[5.2986707,51.726209]}},{"type":"Feature","id":"node/12945059825","properties":{"highway":"street_lamp","lamp_mount":"straight_mast","lamp_type":"electric","support":"pole","id":"node/12945059825"},"geometry":{"type":"Point","coordinates":[5.2987238,51.7260598]}},{"type":"Feature","id":"node/12945059826","properties":{"highway":"street_lamp","lamp_mount":"bent_mast","lamp_type":"electric","support":"pole","id":"node/12945059826"},"geometry":{"type":"Point","coordinates":[5.298023,51.7260034]}},{"type":"Feature","id":"node/12945059827","properties":{"highway":"street_lamp","lamp_mount":"bent_mast","lamp_type":"electric","support":"pole","id":"node/12945059827"},"geometry":{"type":"Point","coordinates":[5.2982447,51.7259578]}},{"type":"Feature","id":"node/12945059828","properties":{"highway":"street_lamp","lamp_mount":"bent_mast","lamp_type":"electric","support":"pole","id":"node/12945059828"},"geometry":{"type":"Point","coordinates":[5.2981925,51.7261221]}},{"type":"Feature","id":"node/12945059829","properties":{"highway":"street_lamp","lamp_mount":"bent_mast","lamp_type":"electric","support":"pole","id":"node/12945059829"},"geometry":{"type":"Point","coordinates":[5.2988508,51.7261616]}},{"type":"Feature","id":"node/12945059830","properties":{"highway":"street_lamp","id":"node/12945059830"},"geometry":{"type":"Point","coordinates":[5.298293,51.7263473]}},{"type":"Feature","id":"node/12945059831","properties":{"highway":"street_lamp","id":"node/12945059831"},"geometry":{"type":"Point","coordinates":[5.2981995,51.7265606]}},{"type":"Feature","id":"node/12945059832","properties":{"highway":"street_lamp","id":"node/12945059832"},"geometry":{"type":"Point","coordinates":[5.2981009,51.7267801]}},{"type":"Feature","id":"node/12945059833","properties":{"highway":"street_lamp","id":"node/12945059833"},"geometry":{"type":"Point","coordinates":[5.2979982,51.7269879]}},{"type":"Feature","id":"node/12945059834","properties":{"highway":"street_lamp","lamp_mount":"straight_mast","lamp_type":"electric","support":"pole","id":"node/12945059834"},"geometry":{"type":"Point","coordinates":[5.2991599,51.7261299]}},{"type":"Feature","id":"node/12945059835","properties":{"highway":"street_lamp","lamp_mount":"straight_mast","lamp_type":"electric","support":"pole","id":"node/12945059835"},"geometry":{"type":"Point","coordinates":[5.2989321,51.7260133]}},{"type":"Feature","id":"node/12945059836","properties":{"highway":"street_lamp","lamp_mount":"straight_mast","lamp_type":"electric","support":"pole","id":"node/12945059836"},"geometry":{"type":"Point","coordinates":[5.2994133,51.7262187]}},{"type":"Feature","id":"node/12945059837","properties":{"highway":"street_lamp","lamp_mount":"straight_mast","lamp_type":"electric","support":"pole","id":"node/12945059837"},"geometry":{"type":"Point","coordinates":[5.2997763,51.726297]}},{"type":"Feature","id":"node/12945059838","properties":{"highway":"street_lamp","lamp_mount":"straight_mast","lamp_type":"electric","support":"pole","id":"node/12945059838"},"geometry":{"type":"Point","coordinates":[5.3000661,51.7263623]}},{"type":"Feature","id":"node/12945059839","properties":{"highway":"street_lamp","lamp_mount":"straight_mast","lamp_type":"electric","support":"pole","id":"node/12945059839"},"geometry":{"type":"Point","coordinates":[5.3004005,51.7264301]}},{"type":"Feature","id":"node/12945059840","properties":{"highway":"street_lamp","lamp_mount":"straight_mast","lamp_type":"electric","support":"pole","id":"node/12945059840"},"geometry":{"type":"Point","coordinates":[5.3007042,51.7264721]}},{"type":"Feature","id":"node/12945059841","properties":{"highway":"street_lamp","lamp_mount":"straight_mast","lamp_type":"electric","support":"pole","id":"node/12945059841"},"geometry":{"type":"Point","coordinates":[5.3010009,51.7265226]}},{"type":"Feature","id":"node/12945059847","properties":{"highway":"street_lamp","id":"node/12945059847"},"geometry":{"type":"Point","coordinates":[5.3031589,51.7266253]}},{"type":"Feature","id":"node/12945059864","properties":{"highway":"street_lamp","id":"node/12945059864"},"geometry":{"type":"Point","coordinates":[5.3006254,51.7261296]}},{"type":"Feature","id":"node/12945059868","properties":{"highway":"street_lamp","lamp_mount":"straight_mast","lamp_type":"electric","support":"pole","id":"node/12945059868"},"geometry":{"type":"Point","coordinates":[5.3004018,51.7262548]}},{"type":"Feature","id":"node/12945059869","properties":{"highway":"street_lamp","lamp_mount":"straight_mast","lamp_type":"electric","support":"pole","id":"node/12945059869"},"geometry":{"type":"Point","coordinates":[5.2991389,51.7254906]}},{"type":"Feature","id":"node/12945059883","properties":{"highway":"street_lamp","id":"node/12945059883"},"geometry":{"type":"Point","coordinates":[5.2990866,51.7245773]}},{"type":"Feature","id":"node/12945059889","properties":{"highway":"street_lamp","lamp_mount":"straight_mast","lamp_type":"electric","support":"pole","id":"node/12945059889"},"geometry":{"type":"Point","coordinates":[5.297722,51.7241968]}},{"type":"Feature","id":"node/12945059890","properties":{"highway":"street_lamp","lamp_mount":"straight_mast","lamp_type":"electric","support":"pole","id":"node/12945059890"},"geometry":{"type":"Point","coordinates":[5.2974959,51.7240953]}},{"type":"Feature","id":"node/12945059891","properties":{"highway":"street_lamp","lamp_mount":"straight_mast","lamp_type":"electric","support":"pole","id":"node/12945059891"},"geometry":{"type":"Point","coordinates":[5.2970787,51.7241123]}},{"type":"Feature","id":"node/12945059892","properties":{"highway":"street_lamp","lamp_mount":"straight_mast","lamp_type":"electric","support":"pole","id":"node/12945059892"},"geometry":{"type":"Point","coordinates":[5.297291,51.7242046]}},{"type":"Feature","id":"node/12945059895","properties":{"highway":"street_lamp","lamp_mount":"straight_mast","lamp_type":"electric","support":"pole","id":"node/12945059895"},"geometry":{"type":"Point","coordinates":[5.2966663,51.7241296]}},{"type":"Feature","id":"node/12945059896","properties":{"highway":"street_lamp","lamp_mount":"straight_mast","lamp_type":"electric","support":"pole","id":"node/12945059896"},"geometry":{"type":"Point","coordinates":[5.2969081,51.7243223]}},{"type":"Feature","id":"node/12945059897","properties":{"highway":"street_lamp","lamp_mount":"bent_mast","lamp_type":"electric","support":"pole","id":"node/12945059897"},"geometry":{"type":"Point","coordinates":[5.2966469,51.7245554]}},{"type":"Feature","id":"node/12945059898","properties":{"highway":"street_lamp","lamp_mount":"straight_mast","lamp_type":"electric","support":"pole","id":"node/12945059898"},"geometry":{"type":"Point","coordinates":[5.29622,51.7244635]}},{"type":"Feature","id":"node/12945059899","properties":{"highway":"street_lamp","lamp_mount":"bent_mast","lamp_type":"electric","support":"pole","id":"node/12945059899"},"geometry":{"type":"Point","coordinates":[5.2957201,51.7245909]}},{"type":"Feature","id":"node/12945059900","properties":{"highway":"street_lamp","lamp_mount":"bent_mast","lamp_type":"electric","support":"pole","id":"node/12945059900"},"geometry":{"type":"Point","coordinates":[5.2953583,51.7246878]}},{"type":"Feature","id":"node/12945059901","properties":{"highway":"street_lamp","lamp_mount":"bent_mast","lamp_type":"electric","support":"pole","id":"node/12945059901"},"geometry":{"type":"Point","coordinates":[5.2952391,51.7244781]}},{"type":"Feature","id":"node/12945059902","properties":{"highway":"street_lamp","lamp_mount":"bent_mast","lamp_type":"electric","support":"pole","id":"node/12945059902"},"geometry":{"type":"Point","coordinates":[5.295615,51.7244132]}},{"type":"Feature","id":"node/12945059903","properties":{"highway":"street_lamp","lamp_mount":"bent_mast","lamp_type":"electric","support":"pole","id":"node/12945059903"},"geometry":{"type":"Point","coordinates":[5.2958076,51.7248457]}},{"type":"Feature","id":"node/12945059904","properties":{"highway":"street_lamp","lamp_mount":"bent_mast","lamp_type":"electric","support":"pole","id":"node/12945059904"},"geometry":{"type":"Point","coordinates":[5.2956061,51.7249052]}},{"type":"Feature","id":"node/12945059905","properties":{"highway":"street_lamp","id":"node/12945059905"},"geometry":{"type":"Point","coordinates":[5.2958132,51.7251464]}},{"type":"Feature","id":"node/12945059906","properties":{"highway":"street_lamp","id":"node/12945059906"},"geometry":{"type":"Point","coordinates":[5.2960218,51.7253884]}},{"type":"Feature","id":"node/12945059907","properties":{"highway":"street_lamp","id":"node/12945059907"},"geometry":{"type":"Point","coordinates":[5.2962934,51.7256042]}},{"type":"Feature","id":"node/12945059908","properties":{"highway":"street_lamp","id":"node/12945059908"},"geometry":{"type":"Point","coordinates":[5.2966365,51.7257733]}},{"type":"Feature","id":"node/12945059909","properties":{"highway":"street_lamp","id":"node/12945059909"},"geometry":{"type":"Point","coordinates":[5.297025,51.7258894]}},{"type":"Feature","id":"node/12945059920","properties":{"highway":"street_lamp","lamp_mount":"straight_mast","lamp_type":"electric","support":"pole","id":"node/12945059920"},"geometry":{"type":"Point","coordinates":[5.2963569,51.723512]}},{"type":"Feature","id":"node/12945059925","properties":{"highway":"street_lamp","id":"node/12945059925"},"geometry":{"type":"Point","coordinates":[5.2950995,51.7228713]}},{"type":"Feature","id":"node/12945059926","properties":{"highway":"street_lamp","id":"node/12945059926"},"geometry":{"type":"Point","coordinates":[5.2951698,51.7231372]}},{"type":"Feature","id":"node/12945059927","properties":{"highway":"street_lamp","lamp_mount":"bent_mast","lamp_type":"electric","support":"pole","id":"node/12945059927"},"geometry":{"type":"Point","coordinates":[5.295245,51.7234035]}},{"type":"Feature","id":"node/12945059928","properties":{"highway":"street_lamp","lamp_mount":"bent_mast","lamp_type":"electric","support":"pole","id":"node/12945059928"},"geometry":{"type":"Point","coordinates":[5.2953137,51.7236636]}},{"type":"Feature","id":"node/12945059929","properties":{"highway":"street_lamp","lamp_mount":"bent_mastpter2-dutch_cattle_pangenome/pangenome/pggb/pggb$_sacct_-j_58599486_--format=jobid,jobname,elapsed,avecpu,totalcpu,alloccpus,state_jobid_jobname_elapsed_avecpu_totalcpu_alloccpus","lamp_type":"electric","support":"pole","id":"node/12945059929"},"geometry":{"type":"Point","coordinates":[5.2954001,51.7239329]}},{"type":"Feature","id":"node/12945059930","properties":{"highway":"street_lamp","lamp_mount":"bent_mast","lamp_type":"electric","support":"pole","id":"node/12945059930"},"geometry":{"type":"Point","coordinates":[5.2954672,51.7241918]}},{"type":"Feature","id":"node/12945059931","properties":{"highway":"street_lamp","lamp_mount":"bent_mast","lamp_type":"electric","support":"pole","id":"node/12945059931"},"geometry":{"type":"Point","coordinates":[5.2956233,51.7242362]}},{"type":"Feature","id":"node/12945059932","properties":{"highway":"street_lamp","lamp_mount":"straight_mast","lamp_type":"electric","support":"pole","id":"node/12945059932"},"geometry":{"type":"Point","coordinates":[5.299987,51.7239958]}},{"type":"Feature","id":"node/12945059933","properties":{"highway":"street_lamp","lamp_mount":"straight_mast","lamp_type":"electric","support":"pole","id":"node/12945059933"},"geometry":{"type":"Point","coordinates":[5.3003786,51.7239945]}},{"type":"Feature","id":"node/12945059934","properties":{"highway":"street_lamp","lamp_mount":"straight_mast","lamp_type":"electric","support":"pole","id":"node/12945059934"},"geometry":{"type":"Point","coordinates":[5.3012054,51.7239933]}},{"type":"Feature","id":"node/12945059935","properties":{"highway":"street_lamp","lamp_mount":"straight_mast","lamp_type":"electric","support":"pole","id":"node/12945059935"},"geometry":{"type":"Point","coordinates":[5.3015983,51.7240402]}},{"type":"Feature","id":"node/12945059936","properties":{"highway":"street_lamp","lamp_mount":"straight_mast","lamp_type":"electric","support":"pole","id":"node/12945059936"},"geometry":{"type":"Point","coordinates":[5.3021831,51.724267]}},{"type":"Feature","id":"node/12945059937","properties":{"highway":"street_lamp","lamp_mount":"straight_mast","lamp_type":"electric","support":"pole","id":"node/12945059937"},"geometry":{"type":"Point","coordinates":[5.2970692,51.7236382]}},{"type":"Feature","id":"node/12945059938","properties":{"highway":"street_lamp","lamp_mount":"straight_mast","lamp_type":"electric","support":"pole","id":"node/12945059938"},"geometry":{"type":"Point","coordinates":[5.2965414,51.723792]}},{"type":"Feature","id":"node/12945059939","properties":{"highway":"street_lamp","lamp_mount":"straight_mast","lamp_type":"electric","support":"pole","id":"node/12945059939"},"geometry":{"type":"Point","coordinates":[5.2963466,51.7240242]}},{"type":"Feature","id":"node/12945059940","properties":{"highway":"street_lamp","lamp_mount":"straight_mast","lamp_type":"electric","support":"pole","id":"node/12945059940"},"geometry":{"type":"Point","coordinates":[5.3024977,51.7243662]}},{"type":"Feature","id":"node/12945059941","properties":{"highway":"street_lamp","lamp_mount":"straight_mast","lamp_type":"electric","support":"pole","id":"node/12945059941"},"geometry":{"type":"Point","coordinates":[5.2979702,51.7245827]}},{"type":"Feature","id":"node/12945059942","properties":{"highway":"street_lamp","lamp_mount":"straight_mast","lamp_type":"electric","support":"pole","id":"node/12945059942"},"geometry":{"type":"Point","coordinates":[5.2972133,51.7246013]}},{"type":"Feature","id":"node/12945059943","properties":{"highway":"street_lamp","lamp_mount":"straight_mast","lamp_type":"electric","support":"pole","id":"node/12945059943"},"geometry":{"type":"Point","coordinates":[5.2983407,51.724571]}},{"type":"Feature","id":"node/12945059944","properties":{"highway":"street_lamp","lamp_mount":"straight_mast","lamp_type":"electric","support":"pole","id":"node/12945059944"},"geometry":{"type":"Point","coordinates":[5.298601,51.7246666]}},{"type":"Feature","id":"node/12945059945","properties":{"highway":"street_lamp","lamp_mount":"straight_mast","lamp_type":"electric","support":"pole","id":"node/12945059945"},"geometry":{"type":"Point","coordinates":[5.2983831,51.7248815]}},{"type":"Feature","id":"node/12945059946","properties":{"highway":"street_lamp","lamp_mount":"straight_mast","lamp_type":"electric","support":"pole","id":"node/12945059946"},"geometry":{"type":"Point","coordinates":[5.2982814,51.725095]}},{"type":"Feature","id":"node/12945128337","properties":{"highway":"street_lamp","id":"node/12945128337"},"geometry":{"type":"Point","coordinates":[5.3174181,51.6779325]}},{"type":"Feature","id":"node/12946604953","properties":{"highway":"street_lamp","lamp_type":"electric","support":"pole","id":"node/12946604953"},"geometry":{"type":"Point","coordinates":[5.2899888,51.7152066]}},{"type":"Feature","id":"node/12946604954","properties":{"highway":"street_lamp","lamp_type":"electric","support":"pole","id":"node/12946604954"},"geometry":{"type":"Point","coordinates":[5.2898473,51.7151492]}},{"type":"Feature","id":"node/12946604955","properties":{"highway":"street_lamp","lamp_type":"electric","support":"pole","id":"node/12946604955"},"geometry":{"type":"Point","coordinates":[5.2902125,51.7149864]}},{"type":"Feature","id":"node/12946604956","properties":{"highway":"street_lamp","lamp_type":"electric","support":"pole","id":"node/12946604956"},"geometry":{"type":"Point","coordinates":[5.2898783,51.7150183]}},{"type":"Feature","id":"node/12946604957","properties":{"highway":"street_lamp","lamp_type":"electric","support":"pole","id":"node/12946604957"},"geometry":{"type":"Point","coordinates":[5.2896422,51.7153876]}},{"type":"Feature","id":"node/12946604958","properties":{"highway":"street_lamp","lamp_type":"electric","support":"pole","id":"node/12946604958"},"geometry":{"type":"Point","coordinates":[5.2898013,51.7153593]}},{"type":"Feature","id":"node/12946604959","properties":{"highway":"street_lamp","lamp_type":"electric","support":"pole","id":"node/12946604959"},"geometry":{"type":"Point","coordinates":[5.2896856,51.715544]}},{"type":"Feature","id":"node/12946604960","properties":{"highway":"street_lamp","lamp_type":"electric","support":"pole","id":"node/12946604960"},"geometry":{"type":"Point","coordinates":[5.2894892,51.7156943]}},{"type":"Feature","id":"node/12946604961","properties":{"highway":"street_lamp","lamp_type":"electric","support":"pole","id":"node/12946604961"},"geometry":{"type":"Point","coordinates":[5.2893963,51.7158792]}},{"type":"Feature","id":"node/12946604962","properties":{"highway":"street_lamp","lamp_type":"electric","support":"pole","id":"node/12946604962"},"geometry":{"type":"Point","coordinates":[5.2892058,51.7160334]}},{"type":"Feature","id":"node/12946604963","properties":{"highway":"street_lamp","lamp_type":"electric","support":"pole","id":"node/12946604963"},"geometry":{"type":"Point","coordinates":[5.2886994,51.7165209]}},{"type":"Feature","id":"node/12946604964","properties":{"highway":"street_lamp","lamp_type":"electric","support":"pole","id":"node/12946604964"},"geometry":{"type":"Point","coordinates":[5.288911,51.7168367]}},{"type":"Feature","id":"node/12946604965","properties":{"highway":"street_lamp","lamp_type":"electric","support":"pole","id":"node/12946604965"},"geometry":{"type":"Point","coordinates":[5.2880968,51.7170789]}},{"type":"Feature","id":"node/12946604966","properties":{"highway":"street_lamp","lamp_type":"electric","support":"pole","id":"node/12946604966"},"geometry":{"type":"Point","coordinates":[5.2881506,51.717161]}},{"type":"Feature","id":"node/12946604967","properties":{"highway":"street_lamp","lamp_type":"electric","support":"pole","id":"node/12946604967"},"geometry":{"type":"Point","coordinates":[5.287981,51.7173634]}},{"type":"Feature","id":"node/12946604968","properties":{"highway":"street_lamp","lamp_type":"electric","support":"pole","id":"node/12946604968"},"geometry":{"type":"Point","coordinates":[5.2878913,51.7173212]}},{"type":"Feature","id":"node/12946604969","properties":{"highway":"street_lamp","lamp_type":"electric","support":"pole","id":"node/12946604969"},"geometry":{"type":"Point","coordinates":[5.2878375,51.7175464]}},{"type":"Feature","id":"node/12946604970","properties":{"highway":"street_lamp","lamp_type":"electric","support":"pole","id":"node/12946604970"},"geometry":{"type":"Point","coordinates":[5.2881903,51.717597]}},{"type":"Feature","id":"node/12946604971","properties":{"highway":"street_lamp","lamp_type":"electric","support":"pole","id":"node/12946604971"},"geometry":{"type":"Point","coordinates":[5.2876839,51.7175489]}},{"type":"Feature","id":"node/12946604972","properties":{"highway":"street_lamp","lamp_type":"electric","support":"pole","id":"node/12946604972"},"geometry":{"type":"Point","coordinates":[5.2873943,51.7178477]}},{"type":"Feature","id":"node/12946604973","properties":{"highway":"street_lamp","lamp_type":"electric","support":"pole","id":"node/12946604973"},"geometry":{"type":"Point","coordinates":[5.2874357,51.7179539]}},{"type":"Feature","id":"node/12946604974","properties":{"highway":"street_lamp","lamp_type":"electric","support":"pole","id":"node/12946604974"},"geometry":{"type":"Point","coordinates":[5.2872404,51.7181509]}},{"type":"Feature","id":"node/12946604975","properties":{"highway":"street_lamp","lamp_type":"electric","support":"pole","id":"node/12946604975"},"geometry":{"type":"Point","coordinates":[5.2871621,51.7180944]}},{"type":"Feature","id":"node/12946605001","properties":{"highway":"street_lamp","lamp_type":"electric","support":"pole","id":"node/12946605001"},"geometry":{"type":"Point","coordinates":[5.2897413,51.7147837]}},{"type":"Feature","id":"node/12946605126","properties":{"highway":"street_lamp","lamp_type":"electric","support":"pole","id":"node/12946605126"},"geometry":{"type":"Point","coordinates":[5.2849878,51.720719]}},{"type":"Feature","id":"node/12946605127","properties":{"highway":"street_lamp","lamp_type":"electric","support":"pole","id":"node/12946605127"},"geometry":{"type":"Point","coordinates":[5.2849939,51.7208581]}},{"type":"Feature","id":"node/12946605128","properties":{"highway":"street_lamp","lamp_type":"electric","support":"pole","id":"node/12946605128"},"geometry":{"type":"Point","coordinates":[5.2847269,51.7210685]}},{"type":"Feature","id":"node/12946605129","properties":{"highway":"street_lamp","lamp_type":"electric","support":"pole","id":"node/12946605129"},"geometry":{"type":"Point","coordinates":[5.2847879,51.7211178]}},{"type":"Feature","id":"node/12946605131","properties":{"highway":"street_lamp","lamp_type":"electric","support":"pole","id":"node/12946605131"},"geometry":{"type":"Point","coordinates":[5.2844321,51.7208899]}},{"type":"Feature","id":"node/12947103205","properties":{"highway":"street_lamp","lamp_type":"electric","support":"pole","id":"node/12947103205"},"geometry":{"type":"Point","coordinates":[5.2974988,51.7251225]}},{"type":"Feature","id":"node/12947103209","properties":{"highway":"street_lamp","lamp_mount":"straight_mast","lamp_type":"electric","support":"pole","id":"node/12947103209"},"geometry":{"type":"Point","coordinates":[5.3013551,51.7266051]}},{"type":"Feature","id":"node/12947103210","properties":{"highway":"street_lamp","lamp_mount":"straight_mast","lamp_type":"electric","support":"pole","id":"node/12947103210"},"geometry":{"type":"Point","coordinates":[5.3016924,51.7266344]}},{"type":"Feature","id":"node/12947103211","properties":{"highway":"street_lamp","lamp_mount":"straight_mast","lamp_type":"electric","support":"pole","id":"node/12947103211"},"geometry":{"type":"Point","coordinates":[5.3019385,51.7266699]}},{"type":"Feature","id":"node/12947103212","properties":{"highway":"street_lamp","lamp_mount":"straight_mast","lamp_type":"electric","support":"pole","id":"node/12947103212"},"geometry":{"type":"Point","coordinates":[5.3021695,51.7267085]}},{"type":"Feature","id":"node/12947103213","properties":{"highway":"street_lamp","lamp_mount":"straight_mast","lamp_type":"electric","support":"pole","id":"node/12947103213"},"geometry":{"type":"Point","coordinates":[5.3026053,51.7267096]}},{"type":"Feature","id":"node/12947103218","properties":{"highway":"street_lamp","lamp_mount":"straight_mast","lamp_type":"electric","support":"pole","id":"node/12947103218"},"geometry":{"type":"Point","coordinates":[5.3024055,51.7265426]}},{"type":"Feature","id":"node/12947103219","properties":{"highway":"street_lamp","lamp_mount":"straight_mast","lamp_type":"electric","support":"pole","id":"node/12947103219"},"geometry":{"type":"Point","coordinates":[5.3024759,51.7263468]}},{"type":"Feature","id":"node/12947103220","properties":{"highway":"street_lamp","lamp_mount":"straight_mast","lamp_type":"electric","support":"pole","id":"node/12947103220"},"geometry":{"type":"Point","coordinates":[5.3026425,51.726304]}},{"type":"Feature","id":"node/12947103221","properties":{"highway":"street_lamp","lamp_mount":"straight_mast","lamp_type":"electric","support":"pole","id":"node/12947103221"},"geometry":{"type":"Point","coordinates":[5.3026908,51.7265885]}},{"type":"Feature","id":"node/12947103223","properties":{"highway":"street_lamp","lamp_mount":"straight_mast","lamp_type":"electric","support":"pole","id":"node/12947103223"},"geometry":{"type":"Point","coordinates":[5.3025494,51.7261378]}},{"type":"Feature","id":"node/12947103224","properties":{"highway":"street_lamp","lamp_mount":"straight_mast","lamp_type":"electric","support":"pole","id":"node/12947103224"},"geometry":{"type":"Point","coordinates":[5.3022212,51.7260101]}},{"type":"Feature","id":"node/12947103225","properties":{"highway":"street_lamp","lamp_mount":"straight_mast","lamp_type":"electric","support":"pole","id":"node/12947103225"},"geometry":{"type":"Point","coordinates":[5.3026403,51.7259239]}},{"type":"Feature","id":"node/12947103226","properties":{"highway":"street_lamp","lamp_mount":"straight_mast","lamp_type":"electric","support":"pole","id":"node/12947103226"},"geometry":{"type":"Point","coordinates":[5.302534,51.725927]}},{"type":"Feature","id":"node/12947103227","properties":{"highway":"street_lamp","lamp_mount":"straight_mast","lamp_type":"electric","support":"pole","id":"node/12947103227"},"geometry":{"type":"Point","coordinates":[5.3019013,51.7260247]}},{"type":"Feature","id":"node/12947103228","properties":{"highway":"street_lamp","lamp_mount":"straight_mast","lamp_type":"electric","support":"pole","id":"node/12947103228"},"geometry":{"type":"Point","coordinates":[5.3015272,51.7260028]}},{"type":"Feature","id":"node/12947103229","properties":{"highway":"street_lamp","lamp_mount":"straight_mast","lamp_type":"electric","support":"pole","id":"node/12947103229"},"geometry":{"type":"Point","coordinates":[5.3011681,51.7259252]}},{"type":"Feature","id":"node/12947103230","properties":{"highway":"street_lamp","lamp_mount":"straight_mast","lamp_type":"electric","support":"pole","id":"node/12947103230"},"geometry":{"type":"Point","coordinates":[5.3006256,51.7258006]}},{"type":"Feature","id":"node/12947103231","properties":{"highway":"street_lamp","lamp_mount":"straight_mast","lamp_type":"electric","support":"pole","id":"node/12947103231"},"geometry":{"type":"Point","coordinates":[5.3004251,51.7258114]}},{"type":"Feature","id":"node/12947103232","properties":{"highway":"street_lamp","lamp_mount":"straight_mast","lamp_type":"electric","support":"pole","id":"node/12947103232"},"geometry":{"type":"Point","coordinates":[5.3003255,51.725725]}},{"type":"Feature","id":"node/12947103233","properties":{"highway":"street_lamp","lamp_mount":"straight_mast","lamp_type":"electric","support":"pole","id":"node/12947103233"},"geometry":{"type":"Point","coordinates":[5.3007463,51.7259667]}},{"type":"Feature","id":"node/12947103234","properties":{"highway":"street_lamp","lamp_mount":"straight_mast","lamp_type":"electric","support":"pole","id":"node/12947103234"},"geometry":{"type":"Point","coordinates":[5.3004164,51.7260143]}},{"type":"Feature","id":"node/12947103243","properties":{"highway":"street_lamp","lamp_mount":"straight_mast","lamp_type":"electric","support":"pole","id":"node/12947103243"},"geometry":{"type":"Point","coordinates":[5.3004781,51.7255609]}},{"type":"Feature","id":"node/12947103244","properties":{"highway":"street_lamp","lamp_mount":"straight_mast","lamp_type":"electric","support":"pole","id":"node/12947103244"},"geometry":{"type":"Point","coordinates":[5.3008841,51.7255918]}},{"type":"Feature","id":"node/12947103253","properties":{"highway":"street_lamp","lamp_mount":"straight_mast","lamp_type":"electric","support":"pole","id":"node/12947103253"},"geometry":{"type":"Point","coordinates":[5.3008982,51.7254172]}},{"type":"Feature","id":"node/12947103254","properties":{"highway":"street_lamp","lamp_mount":"straight_mast","lamp_type":"electric","support":"pole","id":"node/12947103254"},"geometry":{"type":"Point","coordinates":[5.3005803,51.7253632]}},{"type":"Feature","id":"node/12947103255","properties":{"highway":"street_lamp","lamp_mount":"straight_mast","lamp_type":"electric","support":"pole","id":"node/12947103255"},"geometry":{"type":"Point","coordinates":[5.3006648,51.725195]}},{"type":"Feature","id":"node/12947103256","properties":{"highway":"street_lamp","lamp_mount":"straight_mast","lamp_type":"electric","support":"pole","id":"node/12947103256"},"geometry":{"type":"Point","coordinates":[5.3009148,51.7252046]}},{"type":"Feature","id":"node/12947103257","properties":{"highway":"street_lamp","lamp_mount":"straight_mast","lamp_type":"electric","support":"pole","id":"node/12947103257"},"geometry":{"type":"Point","coordinates":[5.3011435,51.7251302]}},{"type":"Feature","id":"node/12947103258","properties":{"highway":"street_lamp","lamp_mount":"straight_mast","lamp_type":"electric","support":"pole","id":"node/12947103258"},"geometry":{"type":"Point","coordinates":[5.3007255,51.725049]}},{"type":"Feature","id":"node/12947103260","properties":{"highway":"street_lamp","lamp_mount":"straight_mast","lamp_type":"electric","support":"pole","id":"node/12947103260"},"geometry":{"type":"Point","coordinates":[5.3015211,51.7250483]}},{"type":"Feature","id":"node/12947103261","properties":{"highway":"street_lamp","lamp_mount":"straight_mast","lamp_type":"electric","support":"pole","id":"node/12947103261"},"geometry":{"type":"Point","coordinates":[5.3000399,51.7256688]}},{"type":"Feature","id":"node/12947103262","properties":{"highway":"street_lamp","lamp_mount":"straight_mast","lamp_type":"electric","support":"pole","id":"node/12947103262"},"geometry":{"type":"Point","coordinates":[5.2997556,51.7256123]}},{"type":"Feature","id":"node/12947103263","properties":{"highway":"street_lamp","lamp_mount":"straight_mast","lamp_type":"electric","support":"pole","id":"node/12947103263"},"geometry":{"type":"Point","coordinates":[5.2994434,51.7255525]}},{"type":"Feature","id":"node/12947103264","properties":{"highway":"street_lamp","lamp_mount":"straight_mast","lamp_type":"electric","support":"pole","id":"node/12947103264"},"geometry":{"type":"Point","coordinates":[5.2995854,51.7253906]}},{"type":"Feature","id":"node/12947103265","properties":{"highway":"street_lamp","lamp_mount":"straight_mast","lamp_type":"electric","support":"pole","id":"node/12947103265"},"geometry":{"type":"Point","coordinates":[5.2996872,51.7251891]}},{"type":"Feature","id":"node/12947103266","properties":{"highway":"street_lamp","lamp_mount":"straight_mast","lamp_type":"electric","support":"pole","id":"node/12947103266"},"geometry":{"type":"Point","coordinates":[5.2997739,51.7250194]}},{"type":"Feature","id":"node/12947103267","properties":{"highway":"street_lamp","lamp_mount":"straight_mast","lamp_type":"electric","support":"pole","id":"node/12947103267"},"geometry":{"type":"Point","coordinates":[5.2998852,51.7248043]}},{"type":"Feature","id":"node/12947103268","properties":{"highway":"street_lamp","lamp_mount":"straight_mast","lamp_type":"electric","support":"pole","id":"node/12947103268"},"geometry":{"type":"Point","coordinates":[5.2999697,51.7246705]}},{"type":"Feature","id":"node/12947103269","properties":{"highway":"street_lamp","lamp_mount":"straight_mast","lamp_type":"electric","support":"pole","id":"node/12947103269"},"geometry":{"type":"Point","coordinates":[5.3003043,51.7246427]}},{"type":"Feature","id":"node/12947103270","properties":{"highway":"street_lamp","lamp_mount":"straight_mast","lamp_type":"electric","support":"pole","id":"node/12947103270"},"geometry":{"type":"Point","coordinates":[5.3005705,51.7246925]}},{"type":"Feature","id":"node/12947103271","properties":{"highway":"street_lamp","lamp_mount":"straight_mast","lamp_type":"electric","support":"pole","id":"node/12947103271"},"geometry":{"type":"Point","coordinates":[5.2989993,51.7250267]}},{"type":"Feature","id":"node/12947103272","properties":{"highway":"street_lamp","lamp_mount":"straight_mast","lamp_type":"electric","support":"pole","id":"node/12947103272"},"geometry":{"type":"Point","coordinates":[5.2991,51.7248098]}},{"type":"Feature","id":"node/12947103273","properties":{"highway":"street_lamp","lamp_mount":"straight_mast","lamp_type":"electric","support":"pole","id":"node/12947103273"},"geometry":{"type":"Point","coordinates":[5.2995702,51.7240423]}},{"type":"Feature","id":"node/12947103274","properties":{"highway":"street_lamp","lamp_mount":"straight_mast","lamp_type":"electric","support":"pole","id":"node/12947103274"},"geometry":{"type":"Point","coordinates":[5.2992282,51.7241562]}},{"type":"Feature","id":"node/12947103275","properties":{"highway":"street_lamp","lamp_mount":"straight_mast","lamp_type":"electric","support":"pole","id":"node/12947103275"},"geometry":{"type":"Point","coordinates":[5.2990243,51.7241587]}},{"type":"Feature","id":"node/12947103276","properties":{"highway":"street_lamp","lamp_mount":"straight_mast","lamp_type":"electric","support":"pole","id":"node/12947103276"},"geometry":{"type":"Point","coordinates":[5.2985885,51.7241703]}},{"type":"Feature","id":"node/12947103277","properties":{"highway":"street_lamp","lamp_mount":"straight_mast","lamp_type":"electric","support":"pole","id":"node/12947103277"},"geometry":{"type":"Point","coordinates":[5.2983693,51.7240723]}},{"type":"Feature","id":"node/12947103278","properties":{"highway":"street_lamp","lamp_mount":"straight_mast","lamp_type":"electric","support":"pole","id":"node/12947103278"},"geometry":{"type":"Point","coordinates":[5.2981613,51.7241854]}},{"type":"Feature","id":"node/12947103279","properties":{"highway":"street_lamp","lamp_mount":"straight_mast","lamp_type":"electric","support":"pole","id":"node/12947103279"},"geometry":{"type":"Point","coordinates":[5.2979314,51.7240796]}},{"type":"Feature","id":"node/12947103280","properties":{"highway":"street_lamp","lamp_mount":"straight_mast","lamp_type":"electric","support":"pole","id":"node/12947103280"},"geometry":{"type":"Point","coordinates":[5.295535,51.7239944]}},{"type":"Feature","id":"node/12947103281","properties":{"highway":"street_lamp","lamp_mount":"straight_mast","lamp_type":"electric","support":"pole","id":"node/12947103281"},"geometry":{"type":"Point","coordinates":[5.2958616,51.7242058]}},{"type":"Feature","id":"node/12947103282","properties":{"highway":"street_lamp","lamp_mount":"straight_mast","lamp_type":"electric","support":"pole","id":"node/12947103282"},"geometry":{"type":"Point","coordinates":[5.295999,51.7243425]}},{"type":"Feature","id":"node/12947103283","properties":{"highway":"street_lamp","lamp_mount":"straight_mast","lamp_type":"electric","support":"pole","id":"node/12947103283"},"geometry":{"type":"Point","coordinates":[5.2957885,51.7240675]}},{"type":"Feature","id":"node/12947103284","properties":{"highway":"street_lamp","lamp_mount":"straight_mast","lamp_type":"electric","support":"pole","id":"node/12947103284"},"geometry":{"type":"Point","coordinates":[5.2956604,51.7238955]}},{"type":"Feature","id":"node/12947103285","properties":{"highway":"street_lamp","lamp_mount":"straight_mast","lamp_type":"electric","support":"pole","id":"node/12947103285"},"geometry":{"type":"Point","coordinates":[5.295812,51.7237663]}},{"type":"Feature","id":"node/12947103286","properties":{"highway":"street_lamp","lamp_mount":"straight_mast","lamp_type":"electric","support":"pole","id":"node/12947103286"},"geometry":{"type":"Point","coordinates":[5.2960829,51.7235358]}},{"type":"Feature","id":"node/12947103287","properties":{"highway":"street_lamp","lamp_mount":"straight_mast","lamp_type":"electric","support":"pole","id":"node/12947103287"},"geometry":{"type":"Point","coordinates":[5.295822,51.7236068]}},{"type":"Feature","id":"node/12947103288","properties":{"highway":"street_lamp","lamp_mount":"straight_mast","lamp_type":"electric","support":"pole","id":"node/12947103288"},"geometry":{"type":"Point","coordinates":[5.2960406,51.7232056]}},{"type":"Feature","id":"node/12947103289","properties":{"highway":"street_lamp","lamp_mount":"straight_mast","lamp_type":"electric","support":"pole","id":"node/12947103289"},"geometry":{"type":"Point","coordinates":[5.2968181,51.7234299]}},{"type":"Feature","id":"node/12947103290","properties":{"highway":"street_lamp","lamp_mount":"straight_mast","lamp_type":"electric","support":"pole","id":"node/12947103290"},"geometry":{"type":"Point","coordinates":[5.3019005,51.724136]}},{"type":"Feature","id":"node/12947103291","properties":{"highway":"street_lamp","lamp_mount":"straight_mast","lamp_type":"electric","support":"pole","id":"node/12947103291"},"geometry":{"type":"Point","coordinates":[5.3025789,51.7248834]}},{"type":"Feature","id":"node/12947103292","properties":{"highway":"street_lamp","lamp_mount":"straight_mast","lamp_type":"electric","support":"pole","id":"node/12947103292"},"geometry":{"type":"Point","coordinates":[5.3026981,51.7246206]}},{"type":"Feature","id":"node/12947103293","properties":{"highway":"street_lamp","lamp_mount":"straight_mast","lamp_type":"electric","support":"pole","id":"node/12947103293"},"geometry":{"type":"Point","coordinates":[5.3026053,51.7251527]}},{"type":"Feature","id":"node/12947103294","properties":{"highway":"street_lamp","lamp_mount":"straight_mast","lamp_type":"electric","support":"pole","id":"node/12947103294"},"geometry":{"type":"Point","coordinates":[5.3029798,51.7251386]}},{"type":"Feature","id":"node/12947103295","properties":{"highway":"street_lamp","lamp_mount":"straight_mast","lamp_type":"electric","support":"pole","id":"node/12947103295"},"geometry":{"type":"Point","coordinates":[5.3021091,51.7251803]}},{"type":"Feature","id":"node/12947103296","properties":{"highway":"street_lamp","lamp_mount":"straight_mast","lamp_type":"electric","support":"pole","id":"node/12947103296"},"geometry":{"type":"Point","coordinates":[5.3024678,51.7253016]}},{"type":"Feature","id":"node/12947103297","properties":{"highway":"street_lamp","lamp_mount":"straight_mast","lamp_type":"electric","support":"pole","id":"node/12947103297"},"geometry":{"type":"Point","coordinates":[5.301807,51.7252103]}},{"type":"Feature","id":"node/12947103298","properties":{"highway":"street_lamp","lamp_mount":"straight_mast","lamp_type":"electric","support":"pole","id":"node/12947103298"},"geometry":{"type":"Point","coordinates":[5.3018744,51.7250451]}},{"type":"Feature","id":"node/12947103299","properties":{"highway":"street_lamp","lamp_mount":"straight_mast","lamp_type":"electric","support":"pole","id":"node/12947103299"},"geometry":{"type":"Point","coordinates":[5.3018535,51.7248415]}},{"type":"Feature","id":"node/12947103300","properties":{"highway":"street_lamp","lamp_mount":"straight_mast","lamp_type":"electric","support":"pole","id":"node/12947103300"},"geometry":{"type":"Point","coordinates":[5.3018664,51.7246644]}},{"type":"Feature","id":"node/12947107701","properties":{"highway":"street_lamp","lamp_mount":"straight_mast","lamp_type":"electric","support":"pole","id":"node/12947107701"},"geometry":{"type":"Point","coordinates":[5.3018255,51.7254193]}},{"type":"Feature","id":"node/12947107702","properties":{"highway":"street_lamp","lamp_mount":"straight_mast","lamp_type":"electric","support":"pole","id":"node/12947107702"},"geometry":{"type":"Point","coordinates":[5.3019312,51.7256576]}},{"type":"Feature","id":"node/12947107703","properties":{"highway":"street_lamp","lamp_mount":"straight_mast","lamp_type":"electric","support":"pole","id":"node/12947107703"},"geometry":{"type":"Point","coordinates":[5.3028912,51.7260008]}},{"type":"Feature","id":"node/12947107704","properties":{"highway":"street_lamp","lamp_mount":"straight_mast","lamp_type":"electric","support":"pole","id":"node/12947107704"},"geometry":{"type":"Point","coordinates":[5.3032312,51.7258962]}},{"type":"Feature","id":"node/12947107705","properties":{"highway":"street_lamp","lamp_mount":"straight_mast","lamp_type":"electric","support":"pole","id":"node/12947107705"},"geometry":{"type":"Point","coordinates":[5.3028104,51.726209]}},{"type":"Feature","id":"node/12947107706","properties":{"highway":"street_lamp","lamp_mount":"straight_mast","lamp_type":"electric","support":"pole","id":"node/12947107706"},"geometry":{"type":"Point","coordinates":[5.3029302,51.7264253]}},{"type":"Feature","id":"node/12947107707","properties":{"highway":"street_lamp","lamp_mount":"straight_mast","lamp_type":"electric","support":"pole","id":"node/12947107707"},"geometry":{"type":"Point","coordinates":[5.3028872,51.7266838]}},{"type":"Feature","id":"node/12947107708","properties":{"highway":"street_lamp","lamp_mount":"straight_mast","lamp_type":"electric","support":"pole","id":"node/12947107708"},"geometry":{"type":"Point","coordinates":[5.3034826,51.7265688]}},{"type":"Feature","id":"node/12947107709","properties":{"highway":"street_lamp","lamp_mount":"straight_mast","lamp_type":"electric","support":"pole","id":"node/12947107709"},"geometry":{"type":"Point","coordinates":[5.3038612,51.7265025]}},{"type":"Feature","id":"node/12947107710","properties":{"highway":"street_lamp","lamp_mount":"straight_mast","lamp_type":"electric","support":"pole","id":"node/12947107710"},"geometry":{"type":"Point","coordinates":[5.3043456,51.7264446]}},{"type":"Feature","id":"node/12947107711","properties":{"highway":"street_lamp","lamp_mount":"straight_mast","lamp_type":"electric","support":"pole","id":"node/12947107711"},"geometry":{"type":"Point","coordinates":[5.3047694,51.7263658]}},{"type":"Feature","id":"node/12947107712","properties":{"highway":"street_lamp","lamp_mount":"straight_mast","lamp_type":"electric","support":"pole","id":"node/12947107712"},"geometry":{"type":"Point","coordinates":[5.305624,51.7260555]}},{"type":"Feature","id":"node/12947107713","properties":{"highway":"street_lamp","lamp_mount":"straight_mast","lamp_type":"electric","support":"pole","id":"node/12947107713"},"geometry":{"type":"Point","coordinates":[5.3053849,51.7259364]}},{"type":"Feature","id":"node/12947107714","properties":{"highway":"street_lamp","lamp_mount":"straight_mast","lamp_type":"electric","support":"pole","id":"node/12947107714"},"geometry":{"type":"Point","coordinates":[5.3056934,51.7257706]}},{"type":"Feature","id":"node/12947107715","properties":{"highway":"street_lamp","lamp_mount":"straight_mast","lamp_type":"electric","support":"pole","id":"node/12947107715"},"geometry":{"type":"Point","coordinates":[5.3041534,51.7262326]}},{"type":"Feature","id":"node/12947107716","properties":{"highway":"street_lamp","lamp_mount":"straight_mast","lamp_type":"electric","support":"pole","id":"node/12947107716"},"geometry":{"type":"Point","coordinates":[5.3040591,51.7259962]}},{"type":"Feature","id":"node/12947107717","properties":{"highway":"street_lamp","lamp_mount":"straight_mast","lamp_type":"electric","support":"pole","id":"node/12947107717"},"geometry":{"type":"Point","coordinates":[5.3035708,51.7259457]}},{"type":"Feature","id":"node/12947107718","properties":{"highway":"street_lamp","lamp_mount":"straight_mast","lamp_type":"electric","support":"pole","id":"node/12947107718"},"geometry":{"type":"Point","coordinates":[5.3040946,51.7257196]}},{"type":"Feature","id":"node/12947107719","properties":{"highway":"street_lamp","lamp_mount":"straight_mast","lamp_type":"electric","support":"pole","id":"node/12947107719"},"geometry":{"type":"Point","coordinates":[5.3044873,51.7256484]}},{"type":"Feature","id":"node/12947107720","properties":{"highway":"street_lamp","lamp_mount":"straight_mast","lamp_type":"electric","support":"pole","id":"node/12947107720"},"geometry":{"type":"Point","coordinates":[5.303748,51.7253837]}},{"type":"Feature","id":"node/12947107721","properties":{"highway":"street_lamp","lamp_mount":"straight_mast","lamp_type":"electric","support":"pole","id":"node/12947107721"},"geometry":{"type":"Point","coordinates":[5.3040218,51.7251695]}},{"type":"Feature","id":"node/12947107722","properties":{"highway":"street_lamp","lamp_mount":"straight_mast","lamp_type":"electric","support":"pole","id":"node/12947107722"},"geometry":{"type":"Point","coordinates":[5.3033277,51.7251271]}},{"type":"Feature","id":"node/12947107723","properties":{"highway":"street_lamp","lamp_mount":"straight_mast","lamp_type":"electric","support":"pole","id":"node/12947107723"},"geometry":{"type":"Point","coordinates":[5.3024897,51.725561]}},{"type":"Feature","id":"node/12947107724","properties":{"highway":"street_lamp","lamp_mount":"straight_mast","lamp_type":"electric","support":"pole","id":"node/12947107724"},"geometry":{"type":"Point","coordinates":[5.3025397,51.7257628]}},{"type":"Feature","id":"node/12969273761","properties":{"highway":"street_lamp","id":"node/12969273761"},"geometry":{"type":"Point","coordinates":[5.3049033,51.7234178]}},{"type":"Feature","id":"node/12969273762","properties":{"highway":"street_lamp","id":"node/12969273762"},"geometry":{"type":"Point","coordinates":[5.3045965,51.7236333]}},{"type":"Feature","id":"node/12969273763","properties":{"highway":"street_lamp","id":"node/12969273763"},"geometry":{"type":"Point","coordinates":[5.3049742,51.7235929]}},{"type":"Feature","id":"node/12976867737","properties":{"highway":"street_lamp","lamp_mount":"straight_mast","lamp_type":"electric","support":"pole","id":"node/12976867737"},"geometry":{"type":"Point","coordinates":[5.3026396,51.7254241]}},{"type":"Feature","id":"node/12976867738","properties":{"highway":"street_lamp","lamp_mount":"straight_mast","lamp_type":"electric","support":"pole","id":"node/12976867738"},"geometry":{"type":"Point","coordinates":[5.3026659,51.7257157]}},{"type":"Feature","id":"node/12976867766","properties":{"highway":"street_lamp","lamp_mount":"straight_mast","lamp_type":"electric","support":"pole","id":"node/12976867766"},"geometry":{"type":"Point","coordinates":[5.3006174,51.7249106]}},{"type":"Feature","id":"node/13149236648","properties":{"highway":"street_lamp","lamp_mount":"angled_mast","support":"pole","id":"node/13149236648"},"geometry":{"type":"Point","coordinates":[5.2884085,51.7267237]}},{"type":"Feature","id":"node/13149236649","properties":{"highway":"street_lamp","lamp_mount":"angled_mast","support":"pole","id":"node/13149236649"},"geometry":{"type":"Point","coordinates":[5.2880993,51.7266162]}},{"type":"Feature","id":"node/13247646622","properties":{"highway":"street_lamp","id":"node/13247646622"},"geometry":{"type":"Point","coordinates":[5.3562385,51.7361267]}},{"type":"Feature","id":"node/13247646623","properties":{"highway":"street_lamp","id":"node/13247646623"},"geometry":{"type":"Point","coordinates":[5.3560328,51.7360722]}},{"type":"Feature","id":"node/13247646624","properties":{"highway":"street_lamp","id":"node/13247646624"},"geometry":{"type":"Point","coordinates":[5.3558018,51.7360092]}},{"type":"Feature","id":"node/13247646625","properties":{"highway":"street_lamp","id":"node/13247646625"},"geometry":{"type":"Point","coordinates":[5.355598,51.7359561]}},{"type":"Feature","id":"node/13247646626","properties":{"highway":"street_lamp","id":"node/13247646626"},"geometry":{"type":"Point","coordinates":[5.3552509,51.7358596]}},{"type":"Feature","id":"node/13247646627","properties":{"highway":"street_lamp","id":"node/13247646627"},"geometry":{"type":"Point","coordinates":[5.355046,51.7358043]}},{"type":"Feature","id":"node/13247646628","properties":{"highway":"street_lamp","id":"node/13247646628"},"geometry":{"type":"Point","coordinates":[5.3548433,51.7357451]}},{"type":"Feature","id":"node/13247646629","properties":{"highway":"street_lamp","id":"node/13247646629"},"geometry":{"type":"Point","coordinates":[5.3546322,51.7356908]}},{"type":"Feature","id":"node/13247646630","properties":{"highway":"street_lamp","id":"node/13247646630"},"geometry":{"type":"Point","coordinates":[5.3544398,51.7356363]}},{"type":"Feature","id":"node/13247646631","properties":{"highway":"street_lamp","id":"node/13247646631"},"geometry":{"type":"Point","coordinates":[5.354226,51.7355824]}},{"type":"Feature","id":"node/13249580975","properties":{"highway":"street_lamp","lamp_mount":"bent_mast","lamp_type":"led","support":"pole","id":"node/13249580975"},"geometry":{"type":"Point","coordinates":[5.3574243,51.7399732]}},{"type":"Feature","id":"node/13249580976","properties":{"highway":"street_lamp","lamp_mount":"bent_mast","lamp_type":"led","support":"pole","id":"node/13249580976"},"geometry":{"type":"Point","coordinates":[5.3580041,51.7392403]}},{"type":"Feature","id":"node/13249580977","properties":{"highway":"street_lamp","lamp_mount":"bent_mast","lamp_type":"led","support":"pole","id":"node/13249580977"},"geometry":{"type":"Point","coordinates":[5.3578289,51.7395337]}},{"type":"Feature","id":"node/13249623021","properties":{"highway":"street_lamp","lamp_mount":"bent_mast","lamp_type":"led","support":"pole","id":"node/13249623021"},"geometry":{"type":"Point","coordinates":[5.3571001,51.7381054]}},{"type":"Feature","id":"node/13249623023","properties":{"highway":"street_lamp","lamp_mount":"bent_mast","lamp_type":"led","support":"pole","id":"node/13249623023"},"geometry":{"type":"Point","coordinates":[5.3570355,51.738298]}},{"type":"Feature","id":"node/13249623024","properties":{"highway":"street_lamp","lamp_mount":"bent_mast","lamp_type":"led","support":"pole","id":"node/13249623024"},"geometry":{"type":"Point","coordinates":[5.3569936,51.7384286]}},{"type":"Feature","id":"node/13249623025","properties":{"highway":"street_lamp","lamp_mount":"straight_mast","lamp_type":"led","support":"pole","id":"node/13249623025"},"geometry":{"type":"Point","coordinates":[5.356379,51.7385986]}},{"type":"Feature","id":"node/13249623026","properties":{"highway":"street_lamp","lamp_mount":"straight_mast","lamp_type":"led","support":"pole","id":"node/13249623026"},"geometry":{"type":"Point","coordinates":[5.3557957,51.7385566]}},{"type":"Feature","id":"node/13249623027","properties":{"highway":"street_lamp","lamp_mount":"straight_mast","lamp_type":"led","support":"pole","id":"node/13249623027"},"geometry":{"type":"Point","coordinates":[5.3560433,51.7385739]}},{"type":"Feature","id":"node/13249627143","properties":{"highway":"street_lamp","lamp_mount":"bent_mast","lamp_type":"led","support":"pole","id":"node/13249627143"},"geometry":{"type":"Point","coordinates":[5.3575649,51.7371585]}},{"type":"Feature","id":"node/13249632256","properties":{"highway":"street_lamp","lamp_mount":"bent_mast","lamp_type":"led","support":"pole","id":"node/13249632256"},"geometry":{"type":"Point","coordinates":[5.3562728,51.7408165]}},{"type":"Feature","id":"node/13249632257","properties":{"highway":"street_lamp","lamp_mount":"bent_mast","lamp_type":"led","support":"pole","id":"node/13249632257"},"geometry":{"type":"Point","coordinates":[5.3559676,51.7407162]}},{"type":"Feature","id":"node/13249632258","properties":{"highway":"street_lamp","lamp_mount":"bent_mast","lamp_type":"led","support":"pole","id":"node/13249632258"},"geometry":{"type":"Point","coordinates":[5.3555923,51.7405801]}},{"type":"Feature","id":"node/13249632259","properties":{"highway":"street_lamp","lamp_mount":"bent_mast","lamp_type":"led","support":"pole","id":"node/13249632259"},"geometry":{"type":"Point","coordinates":[5.3553253,51.74048]}},{"type":"Feature","id":"node/13249632262","properties":{"highway":"street_lamp","lamp_mount":"bent_mast","lamp_type":"led","support":"pole","id":"node/13249632262"},"geometry":{"type":"Point","coordinates":[5.3549219,51.7403375]}},{"type":"Feature","id":"node/13249632263","properties":{"highway":"street_lamp","lamp_mount":"bent_mast","lamp_type":"led","support":"pole","id":"node/13249632263"},"geometry":{"type":"Point","coordinates":[5.3545778,51.7402063]}},{"type":"Feature","id":"node/13249632266","properties":{"highway":"street_lamp","lamp_mount":"bent_mast","lamp_type":"led","support":"pole","id":"node/13249632266"},"geometry":{"type":"Point","coordinates":[5.354183,51.7400656]}},{"type":"Feature","id":"node/13249632267","properties":{"highway":"street_lamp","lamp_mount":"bent_mast","lamp_type":"led","support":"pole","id":"node/13249632267"},"geometry":{"type":"Point","coordinates":[5.3538717,51.7399505]}},{"type":"Feature","id":"node/13249716596","properties":{"highway":"street_lamp","lamp_mount":"straight_mast","lamp_type":"led","support":"pole","id":"node/13249716596"},"geometry":{"type":"Point","coordinates":[5.3580122,51.7362923]}},{"type":"Feature","id":"node/13249716599","properties":{"highway":"street_lamp","lamp_mount":"bent_mast","lamp_type":"led","support":"pole","id":"node/13249716599"},"geometry":{"type":"Point","coordinates":[5.3578512,51.7369162]}},{"type":"Feature","id":"node/13249720428","properties":{"highway":"street_lamp","lamp_mount":"bent_mast","lamp_type":"led","support":"pole","id":"node/13249720428"},"geometry":{"type":"Point","coordinates":[5.356695,51.7362989]}},{"type":"Feature","id":"node/13249720429","properties":{"highway":"street_lamp","lamp_mount":"bent_mast","lamp_type":"led","support":"pole","id":"node/13249720429"},"geometry":{"type":"Point","coordinates":[5.3565247,51.7362501]}},{"type":"Feature","id":"node/13249721001","properties":{"highway":"street_lamp","lamp_mount":"bent_mast","lamp_type":"led","support":"pole","id":"node/13249721001"},"geometry":{"type":"Point","coordinates":[5.3579922,51.737216]}},{"type":"Feature","id":"node/13249721002","properties":{"highway":"street_lamp","lamp_mount":"bent_mast","lamp_type":"led","support":"pole","id":"node/13249721002"},"geometry":{"type":"Point","coordinates":[5.3582627,51.7372498]}},{"type":"Feature","id":"node/13249721003","properties":{"highway":"street_lamp","lamp_mount":"bent_mast","lamp_type":"led","support":"pole","id":"node/13249721003"},"geometry":{"type":"Point","coordinates":[5.3585179,51.7372872]}},{"type":"Feature","id":"node/13249721004","properties":{"highway":"street_lamp","lamp_mount":"bent_mast","lamp_type":"led","support":"pole","id":"node/13249721004"},"geometry":{"type":"Point","coordinates":[5.358769,51.7372964]}},{"type":"Feature","id":"node/13249721006","properties":{"highway":"street_lamp","lamp_mount":"bent_mast","lamp_type":"led","support":"pole","id":"node/13249721006"},"geometry":{"type":"Point","coordinates":[5.3588232,51.7371225]}},{"type":"Feature","id":"node/13249721007","properties":{"highway":"street_lamp","lamp_mount":"bent_mast","lamp_type":"led","support":"pole","id":"node/13249721007"},"geometry":{"type":"Point","coordinates":[5.3588452,51.7369918]}},{"type":"Feature","id":"node/13249721008","properties":{"highway":"street_lamp","lamp_mount":"bent_mast","lamp_type":"led","support":"pole","id":"node/13249721008"},"geometry":{"type":"Point","coordinates":[5.3588411,51.7367828]}},{"type":"Feature","id":"node/13249721009","properties":{"highway":"street_lamp","lamp_mount":"bent_mast","lamp_type":"led","support":"pole","id":"node/13249721009"},"geometry":{"type":"Point","coordinates":[5.3588365,51.736627]}},{"type":"Feature","id":"node/13249721012","properties":{"highway":"street_lamp","lamp_mount":"straight_mast","lamp_type":"led","support":"pole","id":"node/13249721012"},"geometry":{"type":"Point","coordinates":[5.3586822,51.7364475]}},{"type":"Feature","id":"node/13249721013","properties":{"highway":"street_lamp","lamp_mount":"straight_mast","lamp_type":"led","support":"pole","id":"node/13249721013"},"geometry":{"type":"Point","coordinates":[5.3588293,51.7362739]}},{"type":"Feature","id":"node/13249721014","properties":{"highway":"street_lamp","lamp_mount":"straight_mast","lamp_type":"led","support":"pole","id":"node/13249721014"},"geometry":{"type":"Point","coordinates":[5.3589121,51.7359712]}},{"type":"Feature","id":"node/13249721015","properties":{"highway":"street_lamp","lamp_mount":"straight_mast","lamp_type":"led","support":"pole","id":"node/13249721015"},"geometry":{"type":"Point","coordinates":[5.3585721,51.7360598]}},{"type":"Feature","id":"node/13249721016","properties":{"highway":"street_lamp","lamp_mount":"straight_mast","lamp_type":"led","support":"pole","id":"node/13249721016"},"geometry":{"type":"Point","coordinates":[5.3582914,51.7362134]}},{"type":"Feature","id":"node/13249721017","properties":{"highway":"street_lamp","lamp_mount":"bent_mast","lamp_type":"led","support":"pole","id":"node/13249721017"},"geometry":{"type":"Point","coordinates":[5.3578542,51.7369889]}},{"type":"Feature","id":"node/13249721020","properties":{"highway":"street_lamp","lamp_mount":"straight_mast","lamp_type":"led","support":"pole","id":"node/13249721020"},"geometry":{"type":"Point","coordinates":[5.3586365,51.735841]}},{"type":"Feature","id":"node/13249721021","properties":{"highway":"street_lamp","lamp_mount":"straight_mast","lamp_type":"led","support":"pole","id":"node/13249721021"},"geometry":{"type":"Point","coordinates":[5.3584192,51.735771]}},{"type":"Feature","id":"node/13249721023","properties":{"highway":"street_lamp","lamp_mount":"bent_mast","lamp_type":"led","support":"pole","id":"node/13249721023"},"geometry":{"type":"Point","coordinates":[5.3581395,51.7356953]}},{"type":"Feature","id":"node/13249721024","properties":{"highway":"street_lamp","lamp_mount":"bent_mast","lamp_type":"led","support":"pole","id":"node/13249721024"},"geometry":{"type":"Point","coordinates":[5.3579312,51.7356321]}},{"type":"Feature","id":"node/13249721025","properties":{"highway":"street_lamp","lamp_mount":"bent_mast","lamp_type":"led","support":"pole","id":"node/13249721025"},"geometry":{"type":"Point","coordinates":[5.3576374,51.7355423]}},{"type":"Feature","id":"node/13249721026","properties":{"highway":"street_lamp","lamp_mount":"bent_mast","lamp_type":"led","support":"pole","id":"node/13249721026"},"geometry":{"type":"Point","coordinates":[5.3574332,51.7354797]}},{"type":"Feature","id":"node/13249721028","properties":{"highway":"street_lamp","lamp_mount":"bent_mast","lamp_type":"led","support":"pole","id":"node/13249721028"},"geometry":{"type":"Point","coordinates":[5.3570999,51.7354163]}},{"type":"Feature","id":"node/13249721029","properties":{"highway":"street_lamp","lamp_mount":"bent_mast","lamp_type":"led","support":"pole","id":"node/13249721029"},"geometry":{"type":"Point","coordinates":[5.3568003,51.7354258]}},{"type":"Feature","id":"node/13249721030","properties":{"highway":"street_lamp","lamp_mount":"bent_mast","lamp_type":"led","support":"pole","id":"node/13249721030"},"geometry":{"type":"Point","coordinates":[5.3565313,51.7354771]}},{"type":"Feature","id":"node/13249721031","properties":{"highway":"street_lamp","lamp_mount":"bent_mast","lamp_type":"led","support":"pole","id":"node/13249721031"},"geometry":{"type":"Point","coordinates":[5.3562813,51.7355715]}},{"type":"Feature","id":"node/13249721032","properties":{"highway":"street_lamp","lamp_mount":"bent_mast","lamp_type":"led","support":"pole","id":"node/13249721032"},"geometry":{"type":"Point","coordinates":[5.3559607,51.7356485]}},{"type":"Feature","id":"node/13249721033","properties":{"highway":"street_lamp","lamp_mount":"bent_mast","lamp_type":"led","support":"pole","id":"node/13249721033"},"geometry":{"type":"Point","coordinates":[5.3555721,51.7356425]}},{"type":"Feature","id":"node/13249721034","properties":{"highway":"street_lamp","lamp_mount":"bent_mast","lamp_type":"led","support":"pole","id":"node/13249721034"},"geometry":{"type":"Point","coordinates":[5.3557587,51.7358005]}},{"type":"Feature","id":"node/13249721035","properties":{"highway":"street_lamp","lamp_mount":"bent_mast","lamp_type":"led","support":"pole","id":"node/13249721035"},"geometry":{"type":"Point","coordinates":[5.3555178,51.7358065]}},{"type":"Feature","id":"node/13249721036","properties":{"highway":"street_lamp","lamp_mount":"bent_mast","lamp_type":"led","support":"pole","id":"node/13249721036"},"geometry":{"type":"Point","coordinates":[5.3554826,51.7358635]}},{"type":"Feature","id":"node/13249721037","properties":{"highway":"street_lamp","lamp_mount":"bent_mast","lamp_type":"led","support":"pole","id":"node/13249721037"},"geometry":{"type":"Point","coordinates":[5.3560244,51.7357554]}},{"type":"Feature","id":"node/13249721038","properties":{"highway":"street_lamp","lamp_mount":"bent_mast","lamp_type":"led","support":"pole","id":"node/13249721038"},"geometry":{"type":"Point","coordinates":[5.3562258,51.7358131]}},{"type":"Feature","id":"node/13249721040","properties":{"highway":"street_lamp","lamp_mount":"bent_mast","lamp_type":"led","support":"pole","id":"node/13249721040"},"geometry":{"type":"Point","coordinates":[5.3568944,51.736018]}},{"type":"Feature","id":"node/13249721045","properties":{"highway":"street_lamp","id":"node/13249721045"},"geometry":{"type":"Point","coordinates":[5.3572539,51.7361209]}},{"type":"Feature","id":"node/13249721046","properties":{"highway":"street_lamp","id":"node/13249721046"},"geometry":{"type":"Point","coordinates":[5.3574405,51.7361779]}},{"type":"Feature","id":"node/13249721054","properties":{"highway":"street_lamp","lamp_mount":"straight_mast","lamp_type":"led","support":"pole","id":"node/13249721054"},"geometry":{"type":"Point","coordinates":[5.3577861,51.7364247]}},{"type":"Feature","id":"node/13249721058","properties":{"highway":"street_lamp","lamp_mount":"bent_mast","lamp_type":"led","support":"pole","id":"node/13249721058"},"geometry":{"type":"Point","coordinates":[5.3578751,51.7366526]}},{"type":"Feature","id":"node/13249721060","properties":{"highway":"street_lamp","lamp_mount":"bent_mast","lamp_type":"led","support":"pole","id":"node/13249721060"},"geometry":{"type":"Point","coordinates":[5.3578537,51.7367872]}},{"type":"Feature","id":"node/13249721061","properties":{"highway":"street_lamp","lamp_mount":"bent_mast","lamp_type":"led","support":"pole","id":"node/13249721061"},"geometry":{"type":"Point","coordinates":[5.3567021,51.7359487]}},{"type":"Feature","id":"node/13249728093","properties":{"highway":"street_lamp","lamp_mount":"bent_mast","lamp_type":"led","support":"pole","id":"node/13249728093"},"geometry":{"type":"Point","coordinates":[5.3576224,51.7397732]}},{"type":"Feature","id":"node/13249728094","properties":{"highway":"street_lamp","lamp_mount":"bent_mast","lamp_type":"led","support":"pole","id":"node/13249728094"},"geometry":{"type":"Point","coordinates":[5.3564435,51.7358711]}},{"type":"Feature","id":"node/13527328028","properties":{"highway":"street_lamp","id":"node/13527328028"},"geometry":{"type":"Point","coordinates":[5.2638781,51.6925183]}},{"type":"Feature","id":"node/13527328029","properties":{"highway":"street_lamp","id":"node/13527328029"},"geometry":{"type":"Point","coordinates":[5.2636205,51.6926343]}},{"type":"Feature","id":"node/13527328030","properties":{"highway":"street_lamp","id":"node/13527328030"},"geometry":{"type":"Point","coordinates":[5.263346,51.6927456]}},{"type":"Feature","id":"node/13527328031","properties":{"highway":"street_lamp","id":"node/13527328031"},"geometry":{"type":"Point","coordinates":[5.2626516,51.692984]}},{"type":"Feature","id":"node/13527328032","properties":{"highway":"street_lamp","id":"node/13527328032"},"geometry":{"type":"Point","coordinates":[5.2623399,51.6930731]}},{"type":"Feature","id":"node/13527328033","properties":{"highway":"street_lamp","id":"node/13527328033"},"geometry":{"type":"Point","coordinates":[5.2630567,51.6928523]}},{"type":"Feature","id":"node/13527328034","properties":{"highway":"street_lamp","id":"node/13527328034"},"geometry":{"type":"Point","coordinates":[5.2627987,51.6928719]}},{"type":"Feature","id":"node/13527328035","properties":{"highway":"street_lamp","id":"node/13527328035"},"geometry":{"type":"Point","coordinates":[5.2628869,51.6930056]}},{"type":"Feature","id":"node/13527328036","properties":{"highway":"street_lamp","id":"node/13527328036"},"geometry":{"type":"Point","coordinates":[5.2630781,51.6932119]}},{"type":"Feature","id":"node/13527328037","properties":{"highway":"street_lamp","id":"node/13527328037"},"geometry":{"type":"Point","coordinates":[5.2635046,51.6935462]}},{"type":"Feature","id":"node/13527328038","properties":{"highway":"street_lamp","id":"node/13527328038"},"geometry":{"type":"Point","coordinates":[5.2637332,51.6937244]}},{"type":"Feature","id":"node/13527328039","properties":{"highway":"street_lamp","id":"node/13527328039"},"geometry":{"type":"Point","coordinates":[5.2632822,51.6933793]}},{"type":"Feature","id":"node/13527328040","properties":{"highway":"street_lamp","id":"node/13527328040"},"geometry":{"type":"Point","coordinates":[5.2635781,51.6933092]}},{"type":"Feature","id":"node/13527328041","properties":{"highway":"street_lamp","id":"node/13527328041"},"geometry":{"type":"Point","coordinates":[5.2638718,51.6931545]}},{"type":"Feature","id":"node/13527328042","properties":{"highway":"street_lamp","id":"node/13527328042"},"geometry":{"type":"Point","coordinates":[5.2641013,51.6930332]}},{"type":"Feature","id":"node/13527328043","properties":{"highway":"street_lamp","id":"node/13527328043"},"geometry":{"type":"Point","coordinates":[5.2643763,51.6928854]}},{"type":"Feature","id":"node/13527328044","properties":{"highway":"street_lamp","id":"node/13527328044"},"geometry":{"type":"Point","coordinates":[5.2649164,51.6930542]}},{"type":"Feature","id":"node/13527328045","properties":{"highway":"street_lamp","id":"node/13527328045"},"geometry":{"type":"Point","coordinates":[5.2647355,51.6929147]}},{"type":"Feature","id":"node/13527328046","properties":{"highway":"street_lamp","id":"node/13527328046"},"geometry":{"type":"Point","coordinates":[5.2644966,51.6927326]}},{"type":"Feature","id":"node/13527328047","properties":{"highway":"street_lamp","id":"node/13527328047"},"geometry":{"type":"Point","coordinates":[5.2642827,51.6925617]}},{"type":"Feature","id":"node/13527328048","properties":{"highway":"street_lamp","id":"node/13527328048"},"geometry":{"type":"Point","coordinates":[5.2640675,51.6923976]}},{"type":"Feature","id":"node/13527328049","properties":{"highway":"street_lamp","id":"node/13527328049"},"geometry":{"type":"Point","coordinates":[5.2638496,51.6922304]}},{"type":"Feature","id":"node/13527328050","properties":{"highway":"street_lamp","id":"node/13527328050"},"geometry":{"type":"Point","coordinates":[5.2636241,51.6920569]}},{"type":"Feature","id":"node/13527328051","properties":{"highway":"street_lamp","id":"node/13527328051"},"geometry":{"type":"Point","coordinates":[5.2634458,51.6921774]}},{"type":"Feature","id":"node/13527328052","properties":{"highway":"street_lamp","id":"node/13527328052"},"geometry":{"type":"Point","coordinates":[5.2631922,51.6922882]}},{"type":"Feature","id":"node/13527328053","properties":{"highway":"street_lamp","id":"node/13527328053"},"geometry":{"type":"Point","coordinates":[5.2628999,51.6924103]}},{"type":"Feature","id":"node/13527328054","properties":{"highway":"street_lamp","id":"node/13527328054"},"geometry":{"type":"Point","coordinates":[5.2625995,51.6925158]}},{"type":"Feature","id":"node/13527328055","properties":{"highway":"street_lamp","id":"node/13527328055"},"geometry":{"type":"Point","coordinates":[5.2622782,51.6926152]}},{"type":"Feature","id":"node/13527328056","properties":{"highway":"street_lamp","id":"node/13527328056"},"geometry":{"type":"Point","coordinates":[5.2619765,51.6927003]}},{"type":"Feature","id":"node/13527328057","properties":{"highway":"street_lamp","id":"node/13527328057"},"geometry":{"type":"Point","coordinates":[5.2617782,51.6927277]}},{"type":"Feature","id":"node/13527328058","properties":{"highway":"street_lamp","id":"node/13527328058"},"geometry":{"type":"Point","coordinates":[5.2618954,51.6929205]}},{"type":"Feature","id":"node/13527328059","properties":{"highway":"street_lamp","id":"node/13527328059"},"geometry":{"type":"Point","coordinates":[5.2620184,51.6931115]}},{"type":"Feature","id":"node/13527328060","properties":{"highway":"street_lamp","id":"node/13527328060"},"geometry":{"type":"Point","coordinates":[5.26237,51.6935155]}},{"type":"Feature","id":"node/13527328061","properties":{"highway":"street_lamp","id":"node/13527328061"},"geometry":{"type":"Point","coordinates":[5.2621797,51.6933249]}},{"type":"Feature","id":"node/13527328062","properties":{"highway":"street_lamp","id":"node/13527328062"},"geometry":{"type":"Point","coordinates":[5.262587,51.693689]}},{"type":"Feature","id":"node/13527328063","properties":{"highway":"street_lamp","id":"node/13527328063"},"geometry":{"type":"Point","coordinates":[5.2628237,51.6938669]}},{"type":"Feature","id":"node/13527328064","properties":{"highway":"street_lamp","id":"node/13527328064"},"geometry":{"type":"Point","coordinates":[5.2630563,51.6940495]}},{"type":"Feature","id":"node/13527328065","properties":{"highway":"street_lamp","id":"node/13527328065"},"geometry":{"type":"Point","coordinates":[5.2626147,51.6945382]}},{"type":"Feature","id":"node/13527328066","properties":{"highway":"street_lamp","id":"node/13527328066"},"geometry":{"type":"Point","coordinates":[5.2624885,51.6944561]}},{"type":"Feature","id":"node/13527328067","properties":{"highway":"street_lamp","light:count":"2","id":"node/13527328067"},"geometry":{"type":"Point","coordinates":[5.2625538,51.6942733]}},{"type":"Feature","id":"node/13527328068","properties":{"highway":"street_lamp","light:count":"2","id":"node/13527328068"},"geometry":{"type":"Point","coordinates":[5.262923,51.6945281]}},{"type":"Feature","id":"node/13527328069","properties":{"highway":"street_lamp","id":"node/13527328069"},"geometry":{"type":"Point","coordinates":[5.2629828,51.6943594]}},{"type":"Feature","id":"node/13527328070","properties":{"highway":"street_lamp","id":"node/13527328070"},"geometry":{"type":"Point","coordinates":[5.2653572,51.6929476]}},{"type":"Feature","id":"node/13527328071","properties":{"highway":"street_lamp","id":"node/13527328071"},"geometry":{"type":"Point","coordinates":[5.2650693,51.6930998]}},{"type":"Feature","id":"node/13527328072","properties":{"highway":"street_lamp","id":"node/13527328072"},"geometry":{"type":"Point","coordinates":[5.2647885,51.6932514]}},{"type":"Feature","id":"node/13527328073","properties":{"highway":"street_lamp","id":"node/13527328073"},"geometry":{"type":"Point","coordinates":[5.2645238,51.6933909]}},{"type":"Feature","id":"node/13527328074","properties":{"highway":"street_lamp","id":"node/13527328074"},"geometry":{"type":"Point","coordinates":[5.2642087,51.6935581]}},{"type":"Feature","id":"node/13527328075","properties":{"highway":"street_lamp","id":"node/13527328075"},"geometry":{"type":"Point","coordinates":[5.2639298,51.693707]}},{"type":"Feature","id":"node/13527328076","properties":{"highway":"street_lamp","id":"node/13527328076"},"geometry":{"type":"Point","coordinates":[5.2636281,51.6938669]}},{"type":"Feature","id":"node/13527328077","properties":{"highway":"street_lamp","id":"node/13527328077"},"geometry":{"type":"Point","coordinates":[5.2633629,51.6940081]}},{"type":"Feature","id":"node/13527328078","properties":{"highway":"street_lamp","id":"node/13527328078"},"geometry":{"type":"Point","coordinates":[5.2630777,51.69416]}},{"type":"Feature","id":"node/13527328079","properties":{"highway":"street_lamp","id":"node/13527328079"},"geometry":{"type":"Point","coordinates":[5.2628856,51.6942565]}},{"type":"Feature","id":"node/13527354837","properties":{"highway":"street_lamp","id":"node/13527354837"},"geometry":{"type":"Point","coordinates":[5.2665915,51.6933703]}},{"type":"Feature","id":"node/13527354838","properties":{"highway":"street_lamp","id":"node/13527354838"},"geometry":{"type":"Point","coordinates":[5.2667474,51.6931288]}},{"type":"Feature","id":"node/13527354839","properties":{"highway":"street_lamp","id":"node/13527354839"},"geometry":{"type":"Point","coordinates":[5.266786,51.6929761]}},{"type":"Feature","id":"node/13527354840","properties":{"highway":"street_lamp","id":"node/13527354840"},"geometry":{"type":"Point","coordinates":[5.2670294,51.6928522]}},{"type":"Feature","id":"node/13527354841","properties":{"highway":"street_lamp","id":"node/13527354841"},"geometry":{"type":"Point","coordinates":[5.2672734,51.6927273]}},{"type":"Feature","id":"node/13527354842","properties":{"highway":"street_lamp","id":"node/13527354842"},"geometry":{"type":"Point","coordinates":[5.2675202,51.6929318]}},{"type":"Feature","id":"node/13527354843","properties":{"highway":"street_lamp","id":"node/13527354843"},"geometry":{"type":"Point","coordinates":[5.2673234,51.6930314]}},{"type":"Feature","id":"node/13527354844","properties":{"highway":"street_lamp","id":"node/13527354844"},"geometry":{"type":"Point","coordinates":[5.267133,51.6931282]}},{"type":"Feature","id":"node/13527354845","properties":{"highway":"street_lamp","id":"node/13527354845"},"geometry":{"type":"Point","coordinates":[5.2668413,51.6932499]}},{"type":"Feature","id":"node/13527354846","properties":{"highway":"street_lamp","id":"node/13527354846"},"geometry":{"type":"Point","coordinates":[5.2666066,51.6921182]}},{"type":"Feature","id":"node/13527354847","properties":{"highway":"street_lamp","id":"node/13527354847"},"geometry":{"type":"Point","coordinates":[5.2667836,51.6922591]}},{"type":"Feature","id":"node/13527354848","properties":{"highway":"street_lamp","id":"node/13527354848"},"geometry":{"type":"Point","coordinates":[5.2664088,51.6922665]}},{"type":"Feature","id":"node/13527354849","properties":{"highway":"street_lamp","id":"node/13527354849"},"geometry":{"type":"Point","coordinates":[5.2665117,51.6923499]}},{"type":"Feature","id":"node/13527354850","properties":{"highway":"street_lamp","id":"node/13527354850"},"geometry":{"type":"Point","coordinates":[5.2662713,51.6924698]}},{"type":"Feature","id":"node/13527354851","properties":{"highway":"street_lamp","id":"node/13527354851"},"geometry":{"type":"Point","coordinates":[5.266167,51.6923877]}},{"type":"Feature","id":"node/13527354852","properties":{"highway":"street_lamp","id":"node/13527354852"},"geometry":{"type":"Point","coordinates":[5.2656893,51.6922474]}},{"type":"Feature","id":"node/13527354853","properties":{"highway":"street_lamp","id":"node/13527354853"},"geometry":{"type":"Point","coordinates":[5.2658784,51.692481]}},{"type":"Feature","id":"node/13527354854","properties":{"highway":"street_lamp","id":"node/13527354854"},"geometry":{"type":"Point","coordinates":[5.2660581,51.6926174]}},{"type":"Feature","id":"node/13527354855","properties":{"highway":"street_lamp","id":"node/13527354855"},"geometry":{"type":"Point","coordinates":[5.2663806,51.6927863]}},{"type":"Feature","id":"node/13527354856","properties":{"highway":"street_lamp","id":"node/13527354856"},"geometry":{"type":"Point","coordinates":[5.2661808,51.6914373]}},{"type":"Feature","id":"node/13527354857","properties":{"highway":"street_lamp","id":"node/13527354857"},"geometry":{"type":"Point","coordinates":[5.2659146,51.6915693]}},{"type":"Feature","id":"node/13527354858","properties":{"highway":"street_lamp","id":"node/13527354858"},"geometry":{"type":"Point","coordinates":[5.2656494,51.6917023]}},{"type":"Feature","id":"node/13527354859","properties":{"highway":"street_lamp","id":"node/13527354859"},"geometry":{"type":"Point","coordinates":[5.2653791,51.6918376]}},{"type":"Feature","id":"node/13527354860","properties":{"highway":"street_lamp","id":"node/13527354860"},"geometry":{"type":"Point","coordinates":[5.2651069,51.6919687]}},{"type":"Feature","id":"node/13527354861","properties":{"highway":"street_lamp","id":"node/13527354861"},"geometry":{"type":"Point","coordinates":[5.2648465,51.6921053]}},{"type":"Feature","id":"node/13527354862","properties":{"highway":"street_lamp","id":"node/13527354862"},"geometry":{"type":"Point","coordinates":[5.2647868,51.6922227]}},{"type":"Feature","id":"node/13527354863","properties":{"highway":"street_lamp","id":"node/13527354863"},"geometry":{"type":"Point","coordinates":[5.2654071,51.6927219]}},{"type":"Feature","id":"node/13527354864","properties":{"highway":"street_lamp","id":"node/13527354864"},"geometry":{"type":"Point","coordinates":[5.2650422,51.6924389]}},{"type":"Feature","id":"node/13527354865","properties":{"highway":"street_lamp","id":"node/13527354865"},"geometry":{"type":"Point","coordinates":[5.2652304,51.6925826]}},{"type":"Feature","id":"node/13527354866","properties":{"highway":"street_lamp","id":"node/13527354866"},"geometry":{"type":"Point","coordinates":[5.2657676,51.6930031]}},{"type":"Feature","id":"node/13527354867","properties":{"highway":"street_lamp","id":"node/13527354867"},"geometry":{"type":"Point","coordinates":[5.2661255,51.6932813]}},{"type":"Feature","id":"node/13527354868","properties":{"highway":"street_lamp","id":"node/13527354868"},"geometry":{"type":"Point","coordinates":[5.2664873,51.6935583]}},{"type":"Feature","id":"node/13527354869","properties":{"highway":"street_lamp","id":"node/13527354869"},"geometry":{"type":"Point","coordinates":[5.2668461,51.6938401]}},{"type":"Feature","id":"node/13527354870","properties":{"highway":"street_lamp","id":"node/13527354870"},"geometry":{"type":"Point","coordinates":[5.2671494,51.6939126]}},{"type":"Feature","id":"node/13527354871","properties":{"highway":"street_lamp","id":"node/13527354871"},"geometry":{"type":"Point","coordinates":[5.2667899,51.6936368]}},{"type":"Feature","id":"node/13527354872","properties":{"highway":"street_lamp","id":"node/13527354872"},"geometry":{"type":"Point","coordinates":[5.2664042,51.6933318]}},{"type":"Feature","id":"node/13527354873","properties":{"highway":"street_lamp","id":"node/13527354873"},"geometry":{"type":"Point","coordinates":[5.2660738,51.6930813]}},{"type":"Feature","id":"node/13527354874","properties":{"highway":"street_lamp","light:count":"2","id":"node/13527354874"},"geometry":{"type":"Point","coordinates":[5.2607973,51.6922209]}},{"type":"Feature","id":"node/13527354875","properties":{"highway":"street_lamp","light:count":"2","id":"node/13527354875"},"geometry":{"type":"Point","coordinates":[5.2610789,51.6927643]}},{"type":"Feature","id":"node/13527354876","properties":{"highway":"street_lamp","light:count":"2","id":"node/13527354876"},"geometry":{"type":"Point","coordinates":[5.2612318,51.69301]}},{"type":"Feature","id":"node/13527354877","properties":{"highway":"street_lamp","id":"node/13527354877"},"geometry":{"type":"Point","coordinates":[5.261411,51.6932429]}},{"type":"Feature","id":"node/13527354878","properties":{"highway":"street_lamp","id":"node/13527354878"},"geometry":{"type":"Point","coordinates":[5.2616099,51.6934777]}},{"type":"Feature","id":"node/13527354879","properties":{"highway":"street_lamp","light:count":"2","id":"node/13527354879"},"geometry":{"type":"Point","coordinates":[5.2618308,51.6937064]}},{"type":"Feature","id":"node/13527354880","properties":{"highway":"street_lamp","light:count":"2","id":"node/13527354880"},"geometry":{"type":"Point","coordinates":[5.2620821,51.6939095]}},{"type":"Feature","id":"node/13527354881","properties":{"highway":"street_lamp","light:count":"2","id":"node/13527354881"},"geometry":{"type":"Point","coordinates":[5.2623468,51.6941153]}},{"type":"Feature","id":"node/13627009853","properties":{"highway":"street_lamp","id":"node/13627009853"},"geometry":{"type":"Point","coordinates":[5.2650513,51.6936875]}},{"type":"Feature","id":"node/13627009854","properties":{"highway":"street_lamp","id":"node/13627009854"},"geometry":{"type":"Point","coordinates":[5.2652261,51.6935939]}},{"type":"Feature","id":"node/13627009855","properties":{"highway":"street_lamp","id":"node/13627009855"},"geometry":{"type":"Point","coordinates":[5.2654198,51.6934901]}},{"type":"Feature","id":"node/13627009856","properties":{"highway":"street_lamp","id":"node/13627009856"},"geometry":{"type":"Point","coordinates":[5.2656123,51.693387]}},{"type":"Feature","id":"node/13627009857","properties":{"highway":"street_lamp","id":"node/13627009857"},"geometry":{"type":"Point","coordinates":[5.265856,51.6943946]}},{"type":"Feature","id":"node/13627009858","properties":{"highway":"street_lamp","id":"node/13627009858"},"geometry":{"type":"Point","coordinates":[5.265369,51.6941934]}},{"type":"Feature","id":"node/13627009859","properties":{"highway":"street_lamp","id":"node/13627009859"},"geometry":{"type":"Point","coordinates":[5.2648975,51.6940676]}},{"type":"Feature","id":"node/13627009868","properties":{"highway":"street_lamp","id":"node/13627009868"},"geometry":{"type":"Point","coordinates":[5.2657647,51.6950382]}},{"type":"Feature","id":"node/13627009869","properties":{"highway":"street_lamp","id":"node/13627009869"},"geometry":{"type":"Point","coordinates":[5.2655493,51.6948934]}},{"type":"Feature","id":"node/13627009870","properties":{"highway":"street_lamp","id":"node/13627009870"},"geometry":{"type":"Point","coordinates":[5.2653117,51.6947176]}},{"type":"Feature","id":"node/13627009871","properties":{"highway":"street_lamp","id":"node/13627009871"},"geometry":{"type":"Point","coordinates":[5.2641992,51.695104]}},{"type":"Feature","id":"node/13627009872","properties":{"highway":"street_lamp","id":"node/13627009872"},"geometry":{"type":"Point","coordinates":[5.2640569,51.695087]}},{"type":"Feature","id":"node/13627009873","properties":{"highway":"street_lamp","id":"node/13627009873"},"geometry":{"type":"Point","coordinates":[5.2642982,51.6949588]}},{"type":"Feature","id":"node/13627009874","properties":{"highway":"street_lamp","id":"node/13627009874"},"geometry":{"type":"Point","coordinates":[5.26455,51.694825]}},{"type":"Feature","id":"node/13627009875","properties":{"highway":"street_lamp","id":"node/13627009875"},"geometry":{"type":"Point","coordinates":[5.2647972,51.6946936]}},{"type":"Feature","id":"node/13627009876","properties":{"highway":"street_lamp","id":"node/13627009876"},"geometry":{"type":"Point","coordinates":[5.2650512,51.6945559]}},{"type":"Feature","id":"node/13627009880","properties":{"highway":"street_lamp","id":"node/13627009880"},"geometry":{"type":"Point","coordinates":[5.2647931,51.6945602]}},{"type":"Feature","id":"node/13627009881","properties":{"highway":"street_lamp","id":"node/13627009881"},"geometry":{"type":"Point","coordinates":[5.2645072,51.6943447]}},{"type":"Feature","id":"node/13627009882","properties":{"highway":"street_lamp","id":"node/13627009882"},"geometry":{"type":"Point","coordinates":[5.26445,51.6941038]}},{"type":"Feature","id":"node/13627009884","properties":{"highway":"street_lamp","id":"node/13627009884"},"geometry":{"type":"Point","coordinates":[5.2642418,51.6939572]}},{"type":"Feature","id":"node/13627009885","properties":{"highway":"street_lamp","id":"node/13627009885"},"geometry":{"type":"Point","coordinates":[5.2640358,51.6938122]}}]}