{"type":"FeatureCollection","features":[{"type":"Feature","id":"way/5095775","properties":{"amenity":"place_of_worship","building":"church","check_date":"2026-02-07","denomination":"protestant","name":"De Regenboog","phone":"+31 40 283 7240","ref:bag":"0820100000019659","religion":"christian","source":"BAG","source:date":"2017-04-21","start_date":"1998","id":"way/5095775"},"geometry":{"type":"Point","coordinates":[5.5505601,51.4718632]}},{"type":"Feature","id":"way/5095776","properties":{"amenity":"place_of_worship","building":"church","check_date":"2026-03-14","denomination":"roman_catholic","heritage":"2","heritage:operator":"rce","name":"Heilige Clemenskerk","operator":"Parochie Heilig Kruis","ref:bag":"0820100000003149","ref:rce":"517999","religion":"christian","source":"BAG;nuenen_ai","source:date":"2014-08-03","start_date":"1872","wikidata":"Q2180058","wikimedia_commons":"Category:Sint Clemenskerk, Nuenen (1871)","wikipedia":"nl:Heilige Clemenskerk (Nuenen)","id":"way/5095776"},"geometry":{"type":"Point","coordinates":[5.5501973,51.4735317]}},{"type":"Feature","id":"way/5095779","properties":{"amenity":"place_of_worship","building":"church","denomination":"protestant","heritage":"2","heritage:operator":"rce","name":"Van Goghkerkje","ref:bag":"0820100000003606","ref:rce":"30821","religion":"christian","source":"BAG","source:date":"2014-08-03","start_date":"1824","tourism":"attraction","website":"https://www.vangoghkerkje.nl/","wikidata":"Q2517726","wikimedia_commons":"Category:Van Gogh church, Nuenen","id":"way/5095779"},"geometry":{"type":"Point","coordinates":[5.5531961,51.4777284]}},{"type":"Feature","id":"way/5132246","properties":{"amenity":"place_of_worship","building":"church","denomination":"roman_catholic","heritage":"2","heritage:operator":"rce","name":"Heilige Lambertuskerk","operator":"Parochie Heilig Kruis","ref:bag":"0820100000004020","ref:rce":"512455","religion":"christian","source":"BAG","source:date":"2014-08-03","start_date":"1894","wikidata":"Q17463812","wikimedia_commons":"Category:Sint-Lambertuskerk, Nederwetten","wikipedia":"nl:Sint-Lambertuskerk (Nederwetten)","id":"way/5132246"},"geometry":{"type":"Point","coordinates":[5.520774,51.4919827]}},{"type":"Feature","id":"way/12284205","properties":{"addr:city":"Nuenen","addr:housenumber":"21","addr:postcode":"5674RR","addr:street":"Heuvel","amenity":"place_of_worship","building":"church","denomination":"roman_catholic","heritage":"2","heritage:operator":"rce","name":"Oude Sint-Clemenskerk","name:fr":"Église Saint-Clément","operator":"FSSPX","ref:bag":"0820100000005871","ref:rce":"30824","religion":"christian","service_times":"Mo,Tu,Th 18:30; We,Fr 07:15; Su,PH 10:30","source":"BAG","source:date":"2014-08-03","start_date":"1880","wikidata":"Q50808016","wikimedia_commons":"Category:Sint Clemenskerk, Gerwen","wikipedia":"nl:Oude Sint-Clemenskerk (Gerwen)","id":"way/12284205"},"geometry":{"type":"Point","coordinates":[5.5647577,51.4890164]}},{"type":"Feature","id":"way/18914975","properties":{"amenity":"place_of_worship","building":"chapel","denomination":"roman_catholic","heritage":"8","heritage:operator":"Gemeente Nuenen, Gerwen en Nederwetten","name":"Heilige Kruiskapel","ref:bag":"0820100000002519","ref:heritage":"0820/WN012","religion":"christian","source":"BAG","source:date":"2023-06-26","start_date":"1954","url":"http://www.erfgoedgeowiki.nl/index.php/Kapel_Hooidonk","id":"way/18914975"},"geometry":{"type":"Point","coordinates":[5.5111526,51.4983874]}},{"type":"Feature","id":"way/23977963","properties":{"amenity":"place_of_worship","building":"church","denomination":"roman_catholic","name":"Sint-Clemenskerk","operator":"Parochie Heilig Kruis","ref:bag":"0820100000005876","religion":"christian","source":"BAG","source:date":"2025-08-15","start_date":"1967","website":"https://www.parochienuenen.nl/","id":"way/23977963"},"geometry":{"type":"Point","coordinates":[5.5645099,51.4896005]}},{"type":"Feature","id":"node/26306623","properties":{"amenity":"police","name":"Politiesteunpunt Nuenen","id":"node/26306623"},"geometry":{"type":"Point","coordinates":[5.5530577,51.4792268]}},{"type":"Feature","id":"node/30217240","properties":{"addr:city":"Nuenen","addr:housenumber":"2","addr:postcode":"5671CK","addr:street":"Jan van Schijnveltlaan","amenity":"townhall","name":"Gemeentehuis Nuenen","opening_hours":"Mo-Fr 08:30-12:30; We 08:30-12:30,14:30-19:00; PH off","operator":"Gemeente Nuenen","phone":"+31 40 263 1631","website":"https://www.nuenen.nl/","id":"node/30217240"},"geometry":{"type":"Point","coordinates":[5.5530658,51.4793175]}},{"type":"Feature","id":"node/32535642","properties":{"amenity":"fuel","created_by":"JOSM","name":"Kerkhoff's","id":"node/32535642"},"geometry":{"type":"Point","coordinates":[5.5502445,51.4793131]}},{"type":"Feature","id":"node/34044508","properties":{"addr:city":"Nuenen","addr:housenumber":"22","addr:postcode":"5671GG","addr:street":"Parkstraat","brand":"Albert Heijn","brand:wikidata":"Q1653985","brand:wikipedia":"nl:Albert Heijn (supermarkt)","description":"AH [Nuenen] Parkstraat 22","name":"Albert Heijn","opening_hours":"Mo-Sa 08:00-21:00; Su 09:00-20:00","phone":"+31 40 283 2012","ref":"1256","shop":"supermarket","source":"BAG","source:date":"2014-08-02","website":"https://www.ah.nl/winkel/1256","id":"node/34044508"},"geometry":{"type":"Point","coordinates":[5.5457385,51.4722828]}},{"type":"Feature","id":"node/34044537","properties":{"addr:city":"Nuenen","addr:housenumber":"8","addr:postcode":"5672GL","addr:street":"Hoge Brake","brand":"Lidl","brand:website":"https://www.lidl.nl","brand:wikidata":"Q151954","brand:wikipedia":"nl:Lidl","name":"Lidl","opening_hours":"Mo-Sa 08:00-21:00; Su 09:00-18:00","operator":"Lidl Nederland GmbH","shop":"supermarket","source":"BAG","source:date":"2014-08-02","website":"https://www.lidl.nl/s/nl-NL/filialen/nuenen/hoge-brake-8/","id":"node/34044537"},"geometry":{"type":"Point","coordinates":[5.5495891,51.4646645]}},{"type":"Feature","id":"node/34045545","properties":{"addr:city":"Nuenen","addr:housenumber":"1","addr:postcode":"5671EW","addr:street":"De Smidse","branch":"Nuenen","brand":"Jumbo","brand:website":"https://www.jumbo.com","brand:wikidata":"Q2262314","brand:wikipedia":"nl:Jumbo Supermarkten","name":"Jumbo Ton Grimberg","opening_hours":"Mo-Su 07:00-21:00","phone":"+31 40 2635930","shop":"supermarket","website":"https://www.jumbo.com/winkel/nuenen/jumbo-nuenen-ton-grimberg","id":"node/34045545"},"geometry":{"type":"Point","coordinates":[5.5469046,51.4740257]}},{"type":"Feature","id":"node/34045967","properties":{"addr:city":"Nuenen","addr:country":"NL","addr:housenumber":"36","addr:postcode":"5672GL","addr:street":"Hoge Brake","branch":"Nuenen Kernkwartier","brand":"Jumbo","brand:website":"https://www.jumbo.com","brand:wikidata":"Q2262314","brand:wikipedia":"nl:Jumbo Supermarkten","name":"Jumbo","opening_hours":"Mo-Sa 08:00-21:00; Su 09:00-20:00","phone":"+31 40 295 2650","ref":"3246","shop":"supermarket","source":"BAG","source:date":"2018-03-08","website":"https://www.jumbo.com/winkel/nuenen/jumbo-nuenen-kernkwartier","id":"node/34045967"},"geometry":{"type":"Point","coordinates":[5.5506216,51.4645752]}},{"type":"Feature","id":"node/39557960","properties":{"amenity":"fast_food","name":"Snackbar City","id":"node/39557960"},"geometry":{"type":"Point","coordinates":[5.5671237,51.4727658]}},{"type":"Feature","id":"node/39557968","properties":{"addr:city":"Nuenen","addr:housenumber":"2","addr:postcode":"5671GG","addr:street":"Parkstraat","amenity":"restaurant","name":"Bravoy","opening_hours":"Tu-Sa 17:00-00:00","phone":"+31 40 283 7763","source":"BAG","source:date":"2014-08-02","website":"https://www.bravoy.nl","website:menu":"https://www.bravoy.nl/menu","id":"node/39557968"},"geometry":{"type":"Point","coordinates":[5.5472772,51.4736513]}},{"type":"Feature","id":"node/39557973","properties":{"addr:city":"Nuenen","addr:housenumber":"99","addr:postcode":"5671DV","addr:street":"Vincent van Goghplein","amenity":"restaurant","check_date":"2025-07-30","cuisine":"chinese","email":"seasidethemesstudio@gmail.com","name":"New Oriental","opening_hours":"Tu-Fr 16:00-21:00; Sa-Su 13:30-21:00","phone":"+31 40 284 0333","source":"BAG","source:date":"2014-08-03","website":"https://neworiental.nl","id":"node/39557973"},"geometry":{"type":"Point","coordinates":[5.5527185,51.4742557]}},{"type":"Feature","id":"node/39557975","properties":{"addr:city":"Nuenen","addr:housenumber":"90","addr:postcode":"5671GZ","addr:street":"Vincent van Goghstraat","amenity":"restaurant","name":"Beyond","opening_hours":"Mo,We,Th 09:00-16:00; Fr-Su 09:00-18:00","source":"BAG","source:date":"2014-08-03","website":"https://www.beyondnuenen.nl/","id":"node/39557975"},"geometry":{"type":"Point","coordinates":[5.5525361,51.4739978]}},{"type":"Feature","id":"node/39570893","properties":{"addr:city":"Nuenen","addr:housenumber":"37","addr:postcode":"5671GW","addr:street":"Vincent van Goghstraat","branch":"Nuenen (Vincent van Goghstraat)","brand":"Albert Heijn","brand:website":"https://www.ah.nl","brand:wikidata":"Q1653985","description":"Albert Heijn met Jan Linders als franchisenemer","name":"Albert Heijn Jan Linders","opening_hours":"Mo-Sa 08:00-21:00; Su 09:00-20:00","operator":"Jan Linders","operator:website":"https://www.janlinders.nl","operator:wikidata":"Q2200982","phone":"+31 40 290 6421","ref":"4143","shop":"supermarket","source":"BAG","source:date":"2014-08-03","url":"https://www.ah.nl/winkel/4143","website":"https://www.janlinders.nl/vincent-van-goghstraat-nuenen","id":"node/39570893"},"geometry":{"type":"Point","coordinates":[5.5511787,51.4749676]}},{"type":"Feature","id":"node/45077101","properties":{"addr:city":"Nuenen","addr:housenumber":"1","addr:postcode":"5671GD","addr:street":"Parkstraat","amenity":"cafe","check_date":"2025-07-30","email":"info@cafeonsdorp.nl","name":"Café Ons Dorp","opening_hours":"Mo 13:00-22:00; Th 15:00-23:00; Fr 15:00-00:00; Sa 00:00-01:00, 15:00-00:00; Su 00:00-01:00","phone":"+31 40 842 2275","source":"BAG","source:date":"2014-08-03","website":"https://cafeonsdorp.nl","id":"node/45077101"},"geometry":{"type":"Point","coordinates":[5.5477154,51.4737183]}},{"type":"Feature","id":"node/45077103","properties":{"addr:city":"Nuenen","addr:housenumber":"95","addr:postcode":"5671DV","addr:street":"Vincent van Goghplein","amenity":"restaurant","email":"nuenen@debengel.com","name":"Restaurant de Bengel Nuenen","phone":"+31 40 284 2540","source":"BAG","source:date":"2014-08-03","website":"https://www.debengel.com/restaurants/nuenen","id":"node/45077103"},"geometry":{"type":"Point","coordinates":[5.5528143,51.4746573]}},{"type":"Feature","id":"node/52037629","properties":{"addr:city":"Nuenen","addr:housenumber":"61","addr:postcode":"5671GC","addr:street":"Park","amenity":"cafe","check_date:opening_hours":"2026-03-09","name":"Café Goesting","old_name":"Staminé deNep, Neptunus","opening_hours:signed":"no","source":"BAG","source:date":"2014-08-03","id":"node/52037629"},"geometry":{"type":"Point","coordinates":[5.5490237,51.473312]}},{"type":"Feature","id":"node/52037631","properties":{"addr:city":"Nuenen","addr:housenumber":"35","addr:postcode":"5671GB","addr:street":"Park","amenity":"cafe","name":"Schafrath","opening_hours":"Tu-Sa 14:30-18:00+; Su 11:00-18:00+","source":"BAG","source:date":"2014-08-03","id":"node/52037631"},"geometry":{"type":"Point","coordinates":[5.5496171,51.474228]}},{"type":"Feature","id":"node/54683344","properties":{"addr:city":"Nuenen","addr:housenumber":"45","addr:postcode":"5671GB","addr:street":"Park","amenity":"restaurant","check_date:opening_hours":"2026-03-09","cuisine":"chinese","name":"Tong Ah","opening_hours":"Mo-Su 16:00-21:30","phone":"+31 40 283 3774","source":"BAG","source:date":"2014-08-03","website":"https://tongah-nuenen.nl/","id":"node/54683344"},"geometry":{"type":"Point","coordinates":[5.5496308,51.4740302]}},{"type":"Feature","id":"node/60107191","properties":{"addr:city":"Nuenen","addr:housenumber":"8","addr:postcode":"5671GG","addr:street":"Parkstraat","amenity":"restaurant","check_date":"2026-02-01","check_date:opening_hours":"2026-02-01","cuisine":"greek;mediterranean","indoor_seating":"yes","name":"Elpida","opening_hours":"Mo,We-Fr 16:00-22:00; Sa,Su 14:00-22:00","outdoor_seating":"yes","phone":"+31 40 298 8913","source":"BAG","source:date":"2014-08-02","website":"https://restaurant-elpida.nl","id":"node/60107191"},"geometry":{"type":"Point","coordinates":[5.5468797,51.473398]}},{"type":"Feature","id":"node/60267639","properties":{"addr:city":"Nuenen","addr:housenumber":"10","addr:postcode":"5671CC","addr:street":"Berg","name":"De Concurrent","opening_hours":"Tu-Fr 08:30-18:00; Sa 08:30-17:00","shop":"bicycle","source":"BAG","source:date":"2014-08-03","id":"node/60267639"},"geometry":{"type":"Point","coordinates":[5.5501977,51.4755845]}},{"type":"Feature","id":"node/61102659","properties":{"amenity":"cafe","name":"Café-Zaal Berkenbosch","id":"node/61102659"},"geometry":{"type":"Point","coordinates":[5.5371987,51.4644784]}},{"type":"Feature","id":"node/61774322","properties":{"addr:city":"Nuenen","addr:housenumber":"56","addr:postcode":"5672AJ","addr:street":"Opwettenseweg","branch":"Nuenen","brand":"Bakkerij Bekkers","brand:website":"https://bakkerijbekkers.nl","brand:wikidata":"Q139380496","email":"info@bakkerijbekkers.nl","name":"Bakkerij Bekkers","opening_hours":"Mo,We-Fr 08:00-17:00; Tu 08:00-13:30; Sa 08:00-16:00","phone":"+31 40 2831216","shop":"bakery","source":"BAG","source:date":"2014-08-02","website":"https://bakkerijbekkers.nl","id":"node/61774322"},"geometry":{"type":"Point","coordinates":[5.5399375,51.4678052]}},{"type":"Feature","id":"node/61774324","properties":{"addr:city":"Nuenen","addr:housenumber":"12","addr:postcode":"5671GG","addr:street":"Parkstraat","check_date":"2025-07-30","email":"info@rinyvankessel.nl","name":"Riny van Kessel Groente & Fruit","opening_hours":"Mo-Fr 08:30-18:00; Sa 08:00-17:00","phone":"+31 40 284 0408","shop":"greengrocer","source":"BAG","source:date":"2014-08-02","website":"https://www.rinyvankessel.nl/","id":"node/61774324"},"geometry":{"type":"Point","coordinates":[5.5461725,51.4729204]}},{"type":"Feature","id":"node/111318478","properties":{"addr:city":"Nuenen","addr:housenumber":"3","addr:postcode":"5671GD","addr:street":"Parkstraat","amenity":"cafe","check_date":"2026-02-01","check_date:opening_hours":"2026-02-01","name":"Café René","opening_hours:signed":"no","source":"BAG","source:date":"2014-08-03","website":"https://caferene-nuenen.nl","id":"node/111318478"},"geometry":{"type":"Point","coordinates":[5.5475999,51.4736375]}},{"type":"Feature","id":"node/232979048","properties":{"addr:city":"Nuenen","addr:housenumber":"25","addr:postcode":"5671GB","addr:street":"Park","amenity":"restaurant","description":"Buffet-like; South-American style","name":"Comigo","opening_hours":"Tu 09:00-17:00, We,Th 09:00-22:30, Fr,Sa 09:00-24:00, Su 09:00-22:30","source":"BAG","source:date":"2014-08-03","website":"https://www.comigo.nl/","id":"node/232979048"},"geometry":{"type":"Point","coordinates":[5.5496042,51.4746594]}},{"type":"Feature","id":"node/232979078","properties":{"addr:city":"Nuenen","addr:housenumber":"86","addr:postcode":"5671GZ","addr:street":"Vincent van Goghstraat","amenity":"restaurant","cuisine":"greek","name":"De Griek","source":"BAG","source:date":"2014-08-03","website":"https://de-griek-in-nuenen.nl/","id":"node/232979078"},"geometry":{"type":"Point","coordinates":[5.5523918,51.4740328]}},{"type":"Feature","id":"node/232980004","properties":{"addr:city":"Nuenen","addr:housenumber":"63","addr:postcode":"5671GC","addr:street":"Park","amenity":"restaurant","check_date:opening_hours":"2026-03-09","name":"Balthazar","opening_hours:signed":"no","source":"BAG","source:date":"2014-08-03","id":"node/232980004"},"geometry":{"type":"Point","coordinates":[5.5488828,51.4734089]}},{"type":"Feature","id":"node/235140026","properties":{"addr:city":"Nuenen","addr:housenumber":"1A","addr:postcode":"5671GD","addr:street":"Parkstraat","amenity":"fast_food","check_date":"2026-02-01","check_date:opening_hours":"2026-02-01","cuisine":"kebab","name":"Adana Kebabhuis","opening_hours:signed":"no","source":"BAG","source:date":"2014-08-03","id":"node/235140026"},"geometry":{"type":"Point","coordinates":[5.5476864,51.4736733]}},{"type":"Feature","id":"node/235140031","properties":{"addr:city":"Nuenen","addr:housenumber":"63A","addr:postcode":"5671GC","addr:street":"Park","amenity":"pub","check_date:opening_hours":"2026-03-09","name":"Bar van Gogh","opening_hours:signed":"no","source":"BAG","source:date":"2014-08-03","id":"node/235140031"},"geometry":{"type":"Point","coordinates":[5.548751,51.4735191]}},{"type":"Feature","id":"node/235149545","properties":{"addr:city":"Nuenen","addr:housenumber":"88","addr:postcode":"5671GZ","addr:street":"Vincent van Goghstraat","amenity":"restaurant","cuisine":"pizza","name":"De Specialist","opening_hours":"Mo-Th 15:00-00:00; Fr-Sa 15:00-01:00, Su 15:00-22:30","phone":"+31 40 2835753","source":"BAG","source:date":"2014-08-03","website":"https://pizzeria-grillroom-de-specialist.nl","id":"node/235149545"},"geometry":{"type":"Point","coordinates":[5.5524665,51.4740146]}},{"type":"Feature","id":"way/295491532","properties":{"amenity":"place_of_worship","building":"chapel","denomination":"roman_catholic","name":"Sint Antoniuskapel","ref:bag":"0820100000011433","religion":"christian","source":"BAG","source:date":"2014-08-02","start_date":"1987","wheelchair":"yes","id":"way/295491532"},"geometry":{"type":"Point","coordinates":[5.5437231,51.4496397]}},{"type":"Feature","id":"node/302783014","properties":{"addr:city":"Nuenen","addr:housenumber":"69","addr:postcode":"5671GC","addr:street":"Park","alt_name":"Parkhotel","check_date":"2026-02-01","name":"Auberge Vincent","source":"BAG","source:date":"2014-08-03","tourism":"hotel","id":"node/302783014"},"geometry":{"type":"Point","coordinates":[5.5484247,51.4736547]}},{"type":"Feature","id":"node/398940628","properties":{"addr:city":"Nuenen","addr:housenumber":"22A","addr:postcode":"5671CC","addr:street":"Berg","alt_name":"Service Apotheek aan de Berg","amenity":"pharmacy","brand":"Service Apotheek","brand:wikidata":"Q124129179","check_date:opening_hours":"2026-02-06","dispensing":"yes","email":"info@apotheekaandeberg.nl","healthcare":"pharmacy","name":"Apotheek aan de Berg","opening_hours":"Mo-Fr 08:00-17:30; PH off","phone":"+31 40 290 6030","source":"BAG","source:date":"2014-08-03","website":"https://www.serviceapotheek.nl/aandeberg","id":"node/398940628"},"geometry":{"type":"Point","coordinates":[5.5507012,51.4761416]}},{"type":"Feature","id":"node/405274318","properties":{"addr:city":"Nuenen","addr:housenumber":"3","addr:postcode":"5671EW","addr:street":"De Smidse","branch":"Nuenen","brand":"HEMA","brand:website":"https://www.hema.nl","brand:wikidata":"Q903805","brand:wikipedia":"nl:HEMA","name":"HEMA","opening_hours":"Mo-Fr 09:00-18:00; Sa 09:00-17:00; Su 12:00-17:00","phone":"+31 40 290 6565","ref":"304","ref_1":"99-5579","shop":"department_store","source":"BAG","source:date":"2014-08-03","website":"https://winkels.hema.nl/nl/nuenen/hema-nuenen","id":"node/405274318"},"geometry":{"type":"Point","coordinates":[5.5466357,51.4741898]}},{"type":"Feature","id":"node/438083542","properties":{"name":"Sparta","opening_hours":"Mo-Fr 09:00-18:00; Sa 09:00-17:00","service:bicycle:repair":"yes","shop":"bicycle","id":"node/438083542"},"geometry":{"type":"Point","coordinates":[5.5434819,51.4752771]}},{"type":"Feature","id":"node/467096126","properties":{"addr:city":"Nuenen","addr:housenumber":"20A","addr:postcode":"5671GG","addr:street":"Parkstraat","brand":"Etos","brand:website":"https://www.etos.nl/","brand:wikidata":"Q2609459","brand:wikipedia":"nl:Etos","name":"Etos","opening_hours":"Mo-Fr 08:30-18:00; Sa 08:30-17:00","ref":"8431","shop":"chemist","source":"BAG","source:date":"2014-08-02","website":"https://www.etos.nl/winkels/nuenen/parkstraat-20-ab-8431/","id":"node/467096126"},"geometry":{"type":"Point","coordinates":[5.5458762,51.4724563]}},{"type":"Feature","id":"node/1803872339","properties":{"addr:city":"Nuenen","addr:country":"NL","addr:housenumber":"62","addr:postcode":"5672GM","addr:street":"Hoge Brake","branch":"Nuenen","brand":"Action","brand:website":"https://www.action.nl","brand:wikidata":"Q2634111","brand:wikipedia":"nl:Action (winkel)","name":"Action","opening_hours":"Mo-Fr 08:30-20:00; Sa 08:30-18:00; Su 10:00-18:00","operator":"Action","ref":"13178","shop":"variety_store","source":"BAG","source:date":"2014-08-02","website":"https://www.action.com/nl-nl/winkels/nuenen-hoge-brake/","id":"node/1803872339"},"geometry":{"type":"Point","coordinates":[5.5501862,51.4645664]}},{"type":"Feature","id":"node/2992225591","properties":{"addr:city":"Nuenen","addr:housenumber":"24","addr:postcode":"5674VK","addr:street":"Collse Hoefdijk","amenity":"restaurant","name":"De Collse Hoeve","source":"BAG","source:date":"2014-08-02","id":"node/2992225591"},"geometry":{"type":"Point","coordinates":[5.5522392,51.4461998]}},{"type":"Feature","id":"node/2992269252","properties":{"addr:city":"Nuenen","addr:housenumber":"7","addr:postcode":"5674VL","addr:street":"Collse Hoefdijk","branch":"Nuenen","brand":"Intratuin","brand:website":"https://www.intratuin.nl","brand:wikidata":"Q2927176","email":"info@nuenen.intratuin.nl","name":"Intratuin","opening_hours":"Mo-Fr 09:30-18:00; Sa 09:00-18:00; Su 10:00-17:00","payment:cash":"yes","phone":"+31 40 283 1291","shop":"garden_centre","source":"BAG","source:date":"2014-08-02","website":"https://www.intratuin.nl/intratuin-nuenen","id":"node/2992269252"},"geometry":{"type":"Point","coordinates":[5.5526743,51.4531226]}},{"type":"Feature","id":"node/2992269277","properties":{"addr:city":"Nuenen","addr:housenumber":"9A","addr:postcode":"5674VL","addr:street":"Collse Hoefdijk","amenity":"fuel","branch":"Nuenen Collse Hoefdijk","brand":"AVIA","brand:website":"https://avia.nl","brand:wikidata":"Q300147","fuel:diesel":"yes","fuel:e10":"yes","fuel:lpg":"yes","fuel:octane_95":"yes","fuel:octane_98":"yes","name":"AVIA","opening_hours":"Mo-Fr 06:00-21:00; Sa 07:00-21:00; Su 08:00-21:00","operator":"Vollenhoven","operator:website":"https://aviavollenhoven.nl","operator:wikidata":"Q125451808","phone":"+31 40 2845401","source":"BAG","source:date":"2014-08-02","website":"https://avia.nl/tankstations/avia-nuenen-collse-hoefdijk","id":"node/2992269277"},"geometry":{"type":"Point","coordinates":[5.5517071,51.4520509]}},{"type":"Feature","id":"node/2992399500","properties":{"addr:city":"Nuenen","addr:housenumber":"4","addr:postcode":"5672AD","addr:street":"Duivendijk","brand":"Goossens","brand:wikidata":"Q124760045","name":"Goossens XL","shop":"furniture","source":"BAG","source:date":"2014-08-02","website":"https://www.goossenswonen.nl/winkels/goossens-woonwinkel-nuenen","id":"node/2992399500"},"geometry":{"type":"Point","coordinates":[5.5363057,51.4679603]}},{"type":"Feature","id":"node/2992402755","properties":{"addr:city":"Nuenen","addr:housenumber":"1","addr:postcode":"5672AD","addr:street":"Duivendijk","name":"BoerenBond","opening_hours":"Mo-Fr 09:30-18:00; Sa 09:00-17:00; Su 11:00-17:00","shop":"garden_centre","source":"BAG","source:date":"2014-08-02","id":"node/2992402755"},"geometry":{"type":"Point","coordinates":[5.5382429,51.4682165]}},{"type":"Feature","id":"node/2992404852","properties":{"addr:city":"Nuenen","addr:housenumber":"1B","addr:postcode":"5672AD","addr:street":"Duivendijk","branch":"Nuenen","brand":"Praxis","brand:website":"https://www.praxis.nl/","brand:wikidata":"Q2741995","brand:wikipedia":"nl:Praxis (winkel)","name":"Praxis","opening_hours":"Mo-Fr 09:00-20:00; Sa 09:00-17:00; Su 10:00-17:00","operator":"Praxis","phone":"+31 40 290 7070","praxis:id":"97","shop":"doityourself","source":"BAG","source:date":"2014-08-02","id":"node/2992404852"},"geometry":{"type":"Point","coordinates":[5.5384909,51.4676749]}},{"type":"Feature","id":"node/2992404862","properties":{"addr:city":"Nuenen","addr:housenumber":"2","addr:postcode":"5674CA","addr:street":"Europalaan","name":"Van den Wildenberg","shop":"car_repair","source":"BAG","source:date":"2014-08-02","id":"node/2992404862"},"geometry":{"type":"Point","coordinates":[5.5323142,51.4672945]}},{"type":"Feature","id":"node/2992404882","properties":{"addr:city":"Nuenen","addr:housenumber":"203","addr:postcode":"5674AC","addr:street":"Opwettenseweg","amenity":"restaurant","name":"De Watermolen van Opwetten","opening_hours":"Tu-Fr 11:00-21:00; Sa,Su 11:00-21:30","source":"BAG","source:date":"2021-04-06","website":"https://www.dewatermolenvanopwetten.nl","id":"node/2992404882"},"geometry":{"type":"Point","coordinates":[5.5294236,51.4594259]}},{"type":"Feature","id":"node/2992406799","properties":{"addr:city":"Nuenen","addr:housenumber":"81","addr:postcode":"5672AG","addr:street":"Opwettenseweg","name":"Slaapstudio Stijn","opening_hours":"Tu-Fr 09:30-17:30, Sa 09:00-17:00","shop":"bed","source":"BAG","source:date":"2014-08-02","website":"https://slaapstudiostijn.nl/","id":"node/2992406799"},"geometry":{"type":"Point","coordinates":[5.5401511,51.4671217]}},{"type":"Feature","id":"node/2992717287","properties":{"addr:city":"Nuenen","addr:housenumber":"16a","addr:postcode":"5672GL","addr:street":"Hoge Brake","email":"info@kapsalon-evi.nl","name":"Kapsalon Evi","opening_hours":"Tu-Th 08:30-17:30; Fr 08:00-17:30; Sa 08:00-13:00","phone":"+31 40 283 4423","shop":"hairdresser","source":"BAG","source:date":"2014-08-02","website":"http://www.kapsalon-evi.nl","id":"node/2992717287"},"geometry":{"type":"Point","coordinates":[5.5497399,51.4645617]}},{"type":"Feature","id":"node/2992717637","properties":{"addr:city":"Nuenen","addr:housenumber":"16","addr:postcode":"5672GL","addr:street":"Hoge Brake","brand":"Kruidvat","brand:website":"https://www.kruidvat.nl","brand:wikidata":"Q2226366","brand:wikipedia":"nl:Kruidvat","name":"Kruidvat","opening_hours":"Mo-Th 09:00-19:00; Fr 09:00-20:00; Sa 09:00-18:00; Su 12:00-17:00; PH off","operator":"Kruidvat","ref":"6273","shop":"chemist","source":"BAG","source:date":"2014-08-02","website":"https://www.kruidvat.nl/store/drogisterij-kruidvat-6273","wheelchair":"yes","id":"node/2992717637"},"geometry":{"type":"Point","coordinates":[5.5499422,51.4645656]}},{"type":"Feature","id":"node/2992719251","properties":{"addr:city":"Nuenen","addr:housenumber":"46","addr:postcode":"5672GM","addr:street":"Hoge Brake","brand":"Keurslager","brand:wikidata":"Q114637402","email":"info@vogels.keurslager.nl","name":"Chris Vogels keurslager","opening_hours":"Mo 10:00-18:00; Tu-Fr 09:00-18:00; Sa 08:30-17:00","phone":"+31 40 283 4564","shop":"butcher","source":"BAG","source:date":"2014-08-02;2021-04-06","website":"https://vogels.keurslager.nl","id":"node/2992719251"},"geometry":{"type":"Point","coordinates":[5.5504229,51.4649498]}},{"type":"Feature","id":"node/2992719262","properties":{"addr:city":"Nuenen","addr:housenumber":"48","addr:postcode":"5672GM","addr:street":"Hoge Brake","branch":"Nuenen","brand":"De Echte Bakker","brand:website":"https://echtebakker.nl","brand:wikidata":"Q16920716","name":"Bakkerij Vedder, De Echte Bakker","opening_hours":"Mo-Fr 08:30-18:00; Sa 08:00-16:00","phone":"+31 40 2987703","shop":"bakery","source":"local knowledge;BAG","source:date":"2014-08-02","website":"https://bakkerijvedder.nl","id":"node/2992719262"},"geometry":{"type":"Point","coordinates":[5.5502864,51.4649541]}},{"type":"Feature","id":"node/2992719472","properties":{"addr:city":"Nuenen","addr:housenumber":"70","addr:postcode":"5672GM","addr:street":"Hoge Brake","name":"Fleur-inn Bloemsierkunst","opening_hours":"Mo 10:00-18:00; Tu-Th 09:00-18:00; Fr 09:00-20:00; Sa 09:00-17:00","phone":"+31 40 2834568","shop":"florist","source":"BAG;local knowledge","source:date":"2014-08-02","id":"node/2992719472"},"geometry":{"type":"Point","coordinates":[5.5504216,51.4648891]}},{"type":"Feature","id":"node/2992719779","properties":{"addr:city":"Nuenen","addr:housenumber":"6","addr:postcode":"5672GL","addr:street":"Hoge Brake","name":"Schoenservice Eef Imming","shop":"shoe_repair","source":"BAG;local knowledge","source:date":"2014-08-02","id":"node/2992719779"},"geometry":{"type":"Point","coordinates":[5.5502281,51.4649169]}},{"type":"Feature","id":"node/2992719820","properties":{"addr:city":"Nuenen","addr:housenumber":"66","addr:postcode":"5672GM","addr:street":"Hoge Brake","brand":"Primera","brand:website":"https://www.primera.nl","brand:wikidata":"Q2176149","name":"Primera","shop":"newsagent","source":"BAG","source:date":"2014-08-02","website":"https://www.primera.nl/primera-risjamo","id":"node/2992719820"},"geometry":{"type":"Point","coordinates":[5.5503959,51.4646661]}},{"type":"Feature","id":"node/2992796481","properties":{"addr:city":"Nuenen","addr:housenumber":"1002","addr:postcode":"5672VK","addr:street":"Smits van Oyenlaan","amenity":"fuel","brand":"Esso","brand:wikidata":"Q867662","brand:wikipedia":"nl:Esso","compressed_air":"yes","name":"Esso Nuenen","opening_hours":"Mo-Fr 06:00-21:00; Sa 07:00-21:00; Su 08:00-21:00","operator":"EG Group","operator:wikidata":"Q30638435","phone":"+31 40 7984212","source":"BAG","source:date":"2014-08-02","website":"https://www.esso.nl/nl-nl/find-station/esso-nuenen-essonuenen-100359743","id":"node/2992796481"},"geometry":{"type":"Point","coordinates":[5.5580224,51.468088]}},{"type":"Feature","id":"node/2992908496","properties":{"addr:city":"Nuenen","addr:housenumber":"12","addr:postcode":"5673TD","addr:street":"Pastoorsmast","amenity":"community_centre","club":"scout","community_centre":"scout_centre","description":"Clubgebouw","name":"Scouting Panta Rhei","ref:scoutingnl":"1544","source":"BAG","source:date":"2014-08-02","website":"https://www.scoutingpantarhei.nl/","id":"node/2992908496"},"geometry":{"type":"Point","coordinates":[5.5634598,51.4633056]}},{"type":"Feature","id":"node/2992908646","properties":{"addr:city":"Nuenen","addr:housenumber":"14","addr:postcode":"5673TD","addr:street":"Pastoorsmast","amenity":"community_centre","community_centre":"club_home","name":"RKSV Nuenen","source":"BAG","source:date":"2014-08-02","website":"https://rksvnuenen.nl","id":"node/2992908646"},"geometry":{"type":"Point","coordinates":[5.5661371,51.4648191]}},{"type":"Feature","id":"node/2992909286","properties":{"addr:city":"Nuenen","addr:housenumber":"6","addr:postcode":"5673TD","addr:street":"Pastoorsmast","amenity":"community_centre","community_centre":"club_home","name":"Sint Annagilde Nuenen-Dorp","source":"BAG","source:date":"2014-08-02","website":"http://www.st-annagilde-nuenen.nl","id":"node/2992909286"},"geometry":{"type":"Point","coordinates":[5.5689131,51.4642829]}},{"type":"Feature","id":"node/2993009071","properties":{"addr:city":"Nuenen","addr:housenumber":"1","addr:postcode":"5671EX","addr:street":"Parkhof","clothes":"underwear","name":"Raquel","opening_hours":"Mo 13:00-17:00; Tu-Sa 10:00-17:00","shop":"clothes","source":"BAG","source:date":"2017-01-02","website":"https://raquellingerie.nl/","id":"node/2993009071"},"geometry":{"type":"Point","coordinates":[5.5463895,51.4731438]}},{"type":"Feature","id":"node/2993009238","properties":{"addr:city":"Nuenen","addr:housenumber":"12","addr:postcode":"5671EX","addr:street":"Parkhof","name":"Lekkernij","opening_hours":"Mo-Th 09:00-18:00; Fr 08:30-19:00; Sa 08:30-17:00","shop":"cheese","source":"BAG","source:date":"2014-08-02","website":"https://lekkernijbongers.nl","id":"node/2993009238"},"geometry":{"type":"Point","coordinates":[5.5462746,51.4733069]}},{"type":"Feature","id":"node/2993009252","properties":{"addr:city":"Nuenen","addr:housenumber":"12A","addr:postcode":"5671GG","addr:street":"Parkstraat","branch":"Nuenen","brand":"De Echte Bakker","brand:website":"https://echtebakker.nl","brand:wikidata":"Q16920716","name":"Godfried de Vocht De Echte Bakker","opening_hours":"Mo-Fr 08:00-17:30; Sa 08:00-17:00","operator":"Bakkerij Godfried de Vocht","operator:website":"https://bakkerijdevocht.nl","phone":"+31 40 2831393","shop":"bakery","source":"BAG","source:date":"2014-08-02","website":"https://bakkerijdevocht.nl/winkels/parkstraat-nuenen/","id":"node/2993009252"},"geometry":{"type":"Point","coordinates":[5.5461291,51.4728575]}},{"type":"Feature","id":"node/2993009253","properties":{"addr:city":"Nuenen","addr:housenumber":"12B","addr:postcode":"5671GG","addr:street":"Parkstraat","brand":"Keurslager","brand:wikidata":"Q114637402","check_date:opening_hours":"2026-02-01","name":"E. Tebak keurslager","opening_hours:signed":"no","phone":"+31 40 284 2311","shop":"butcher","source":"BAG","source:date":"2014-08-02","website":"https://tebak.keurslager.nl","id":"node/2993009253"},"geometry":{"type":"Point","coordinates":[5.5460713,51.4727857]}},{"type":"Feature","id":"node/2993009265","properties":{"addr:city":"Nuenen","addr:housenumber":"13","addr:postcode":"5671EX","addr:street":"Parkhof","brand":"ALDI","brand:wikidata":"Q41171373","brand:wikipedia":"nl:Aldi","check_date":"2025-07-30","description":"Nuenen,Parkhof 13","name":"ALDI","note":"ODBL clean: geen disclaimer/copyright aangetroffen op winkelgegevens Aldi (stand: juni 2012)","opening_hours":"Mo-Sa 08:00-20:00; Su 09:00-18:00","shop":"supermarket","source":"BAG","source:date":"2014-08-02","website":"https://www.aldi.nl/supermarkt/nuenen/parkhof-13/3187606.html","id":"node/2993009265"},"geometry":{"type":"Point","coordinates":[5.5455565,51.4732131]}},{"type":"Feature","id":"node/2993009334","properties":{"addr:city":"Nuenen","addr:housenumber":"16A","addr:postcode":"5671GG","addr:street":"Parkstraat","name":"Schijvens","opening_hours":"Mo 13:00-18:00; Tu-Th 09:30-18:00; Fr 09:30-20:00; Sa 09:30-17:00","shop":"clothes","source":"BAG","source:date":"2014-08-02","website":"https://www.schijvensmode.nl/winkels/schijvens-mode-nuenen/","id":"node/2993009334"},"geometry":{"type":"Point","coordinates":[5.5460239,51.4726818]}},{"type":"Feature","id":"node/2993009427","properties":{"addr:city":"Nuenen","addr:housenumber":"20","addr:postcode":"5671EX","addr:street":"Parkhof","name":"Clean Factory","opening_hours":"Mo 13:00-18:00; Tu-Fr 09:00-18:00; Sa 09:00-17:00","shop":"dry_cleaning","source":"BAG","source:date":"2014-08-02","id":"node/2993009427"},"geometry":{"type":"Point","coordinates":[5.5458972,51.4733356]}},{"type":"Feature","id":"node/2993009428","properties":{"addr:city":"Nuenen","addr:housenumber":"20","addr:postcode":"5671GG","addr:street":"Parkstraat","name":"Bonbisou","opening_hours":"We-Fr 09:30-17:30; Sa 09:00-17:00","shop":"chocolate","source":"BAG","source:date":"2014-08-02","website":"https://bonbisou.nl/onze-winkels/nuenen","id":"node/2993009428"},"geometry":{"type":"Point","coordinates":[5.5459554,51.4725881]}},{"type":"Feature","id":"node/2993009658","properties":{"addr:city":"Nuenen","addr:housenumber":"2C","addr:postcode":"5671HC","addr:street":"Voirt","brand":"Expert","brand:wikidata":"Q680990","name":"Expert","opening_hours":"Mo 12:00-18:00; Tu-Th 09:30-18:00; Fr 09:30-20:00; Sa 09:30-17:00","shop":"electronics","source":"BAG","source:date":"2014-08-02","website":"https://www.expert.nl","id":"node/2993009658"},"geometry":{"type":"Point","coordinates":[5.544973,51.472116]}},{"type":"Feature","id":"node/2993009681","properties":{"addr:city":"Nuenen","addr:housenumber":"3","addr:postcode":"5674NH","addr:street":"Soeterbeek","check_date":"2024-06-16","name":"Tuinbouwbedrijf De Haas","opening_hours":"Mo-Fr 09:00-18:00; Sa 09:00-17:00; Su 10:00-13:00","organic":"yes","payment:cash":"yes","payment:debit_cards":"yes","phone":"+31 40 283 1601","shop":"farm","source":"BAG","source:date":"2014-08-02","website":"https://www.tuinbouwbedrijfdehaas.nl","wheelchair":"yes","id":"node/2993009681"},"geometry":{"type":"Point","coordinates":[5.5128587,51.4699408]}},{"type":"Feature","id":"node/2993009746","properties":{"addr:city":"Nuenen","addr:housenumber":"4","addr:postcode":"5671EX","addr:street":"Parkhof","brand":"Kruidvat","brand:website":"https://www.kruidvat.nl","brand:wikidata":"Q2226366","brand:wikipedia":"nl:Kruidvat","name":"Kruidvat","opening_hours":"Mo-Th,Sa 08:30-18:00; Fr 08:30-20:00; Su 10:00-17:00; PH off","operator":"AS Watson Health & Beauty Benelux","ref":"3247","shop":"chemist","source":"BAG","source:date":"2017-09-24","website":"https://www.kruidvat.nl/store/drogisterij-kruidvat-3247","wheelchair":"yes","id":"node/2993009746"},"geometry":{"type":"Point","coordinates":[5.546566,51.4733363]}},{"type":"Feature","id":"node/2993825513","properties":{"addr:city":"Nuenen","addr:housenumber":"6","addr:postcode":"5671BS","addr:street":"Lissevoort","amenity":"community_centre","community_centre":"club_home","name":"Honkbal en Softball Club Nuenen","source":"BAG","source:date":"2014-08-03","website":"https://www.hscn.nl","id":"node/2993825513"},"geometry":{"type":"Point","coordinates":[5.5432665,51.4800996]}},{"type":"Feature","id":"node/2993827393","properties":{"addr:city":"Nuenen","addr:housenumber":"10","addr:postcode":"5671BS","addr:street":"Lissevoort","amenity":"community_centre","community_centre":"club_home","name":"TPV De Lissevoort","source":"BAG","source:date":"2014-08-03","sport":"tennis;padel","website":"https://www.tpvdelissevoort.nl/","id":"node/2993827393"},"geometry":{"type":"Point","coordinates":[5.5413953,51.4801151]}},{"type":"Feature","id":"node/2993828161","properties":{"addr:city":"Nuenen","addr:housenumber":"2A","addr:postcode":"5671AS","addr:street":"Boordseweg","male":"yes","name":"Kapsalon Cocho","opening_hours":"Mo 12:00-17:00; Tu-Th,Sa 09:00-18:00; Fr 09:00-19:00","phone":"+31 6 424 79 520","shop":"hairdresser","source":"BAG","source:date":"2014-08-03","id":"node/2993828161"},"geometry":{"type":"Point","coordinates":[5.5473132,51.4738805]}},{"type":"Feature","id":"node/2993828211","properties":{"addr:city":"Nuenen","addr:housenumber":"30","addr:postcode":"5671GA","addr:street":"Park","brand":"Oogwereld","brand:wikidata":"Q110066228","check_date":"2025-07-30","name":"Oogwereld Ton Lips","opening_hours":"Tu-Th 09:00-18:00; Fr 09:00-20:00; Sa 09:00-17:00","shop":"optician","source":"BAG","source:date":"2014-08-03","website":"https://www.oogwereld.nl","id":"node/2993828211"},"geometry":{"type":"Point","coordinates":[5.547705,51.4739816]}},{"type":"Feature","id":"node/2993828355","properties":{"addr:city":"Nuenen","addr:housenumber":"35","addr:postcode":"5671CA","addr:street":"Berg","amenity":"restaurant","check_date:opening_hours":"2026-03-09","name":"Tweede thuis","opening_hours:signed":"no","source":"BAG","source:date":"2014-08-03","id":"node/2993828355"},"geometry":{"type":"Point","coordinates":[5.5510857,51.477202]}},{"type":"Feature","id":"node/2993829472","properties":{"addr:city":"Nuenen","addr:housenumber":"8","addr:postcode":"5671BS","addr:street":"Lissevoort","amenity":"community_centre","community_centre":"club_home","name":"Hockeyclub Nuenen","source":"BAG","source:date":"2014-08-03","website":"https://www.hcnuenen.nl","id":"node/2993829472"},"geometry":{"type":"Point","coordinates":[5.5421242,51.4802516]}},{"type":"Feature","id":"node/2994048989","properties":{"addr:city":"Nuenen","addr:housenumber":"11","addr:postcode":"5671GW","addr:street":"Vincent van Goghstraat","amenity":"restaurant","description":"Italienische Feinkost und Speisen","name":"I Fratelli","opening_hours":"Tu-Fr 10:00-20:00; Sa 10:00-19:00; Su 16:00-20:00","phone":"+31 40 283 1771","source":"BAG","source:date":"2014-08-03","website":"https://www.ifratelli.nl","id":"node/2994048989"},"geometry":{"type":"Point","coordinates":[5.5503962,51.4748834]}},{"type":"Feature","id":"node/2994049031","properties":{"addr:city":"Nuenen","addr:housenumber":"12","addr:postcode":"5671GX","addr:street":"Vincent van Goghstraat","check_date":"2023-01-29","check_date:currency:XBT":"2024-01-01","currency:XBT":"yes","name":"Downtown Tattoo","payment:lightning":"yes","payment:lightning_contactless":"no","payment:onchain":"no","shop":"tattoo","source":"BAG","source:date":"2014-08-03","survey:date":"2024-02-18","website":"https://www.downtowntattoo.nl","id":"node/2994049031"},"geometry":{"type":"Point","coordinates":[5.5505539,51.4745772]}},{"type":"Feature","id":"node/2994049865","properties":{"addr:city":"Nuenen","addr:housenumber":"1","addr:postcode":"5671GW","addr:street":"Vincent van Goghstraat","name":"Linc","opening_hours":"We-Sa 10:00-17:00","shop":"clothes","source":"BAG","source:date":"2014-08-03","website":"https://lincshop.nl","id":"node/2994049865"},"geometry":{"type":"Point","coordinates":[5.5498142,51.4749034]}},{"type":"Feature","id":"node/2994050461","properties":{"addr:city":"Nuenen","addr:housenumber":"18","addr:postcode":"5671CC","addr:street":"Berg","name":"Linc","opening_hours":"We-Sa 10:00-17:00","shop":"clothes","source":"BAG","source:date":"2014-08-03","id":"node/2994050461"},"geometry":{"type":"Point","coordinates":[5.5505157,51.4759525]}},{"type":"Feature","id":"node/2994050494","properties":{"addr:city":"Nuenen","addr:housenumber":"19","addr:postcode":"5671GW","addr:street":"Vincent van Goghstraat","email":"info@saardamesmode.nl","name":"Saar Damesmode","opening_hours":"We-Fr 10:00-17:30; Sa 10:00-17:00","shop":"clothes","source":"BAG","source:date":"2014-08-03","website":"https://www.saardamesmode.nl","id":"node/2994050494"},"geometry":{"type":"Point","coordinates":[5.5507477,51.4748547]}},{"type":"Feature","id":"node/2994050508","properties":{"addr:city":"Nuenen","addr:housenumber":"2","addr:postcode":"5671CT","addr:street":"Beekstraat","amenity":"restaurant","check_date:opening_hours":"2026-03-09","name":"Onsz","opening_hours:signed":"no","source":"BAG","source:date":"2014-08-03","id":"node/2994050508"},"geometry":{"type":"Point","coordinates":[5.5521119,51.4772175]}},{"type":"Feature","id":"node/2994051159","properties":{"addr:city":"Nuenen","addr:housenumber":"13","addr:postcode":"5671GD","addr:street":"Parkstraat","brand":"Bruna","brand:website":"https://www.bruna.nl/","brand:wikidata":"Q3317555","brand:wikipedia":"nl:Bruna (winkelketen)","check_date":"2025-07-30","name":"Bruna","opening_hours":"Mo-Fr 09:00-18:00; Sa 09:00-17:00","post_office":"yes","post_office:type":"post_partner","shop":"books","source":"BAG","source:date":"2014-08-03","website":"https://www.bruna.nl/winkels/nuenen/8263","id":"node/2994051159"},"geometry":{"type":"Point","coordinates":[5.5469026,51.4730842]}},{"type":"Feature","id":"node/2994051760","properties":{"addr:city":"Nuenen","addr:housenumber":"16","addr:postcode":"5671CC","addr:street":"Berg","amenity":"restaurant","check_date:opening_hours":"2026-02-06","name":"Le Souris","opening_hours:signed":"no","source":"BAG","source:date":"2014-08-03","id":"node/2994051760"},"geometry":{"type":"Point","coordinates":[5.5504256,51.4758803]}},{"type":"Feature","id":"node/2994052334","properties":{"addr:city":"Nuenen","addr:housenumber":"2","addr:postcode":"5671GX","addr:street":"Vincent van Goghstraat","check_date:opening_hours":"2026-03-09","name":"Puur Diana","opening_hours:signed":"no","shop":"beauty","source":"BAG","source:date":"2014-08-03","website":"https://puurdiana.nl/","id":"node/2994052334"},"geometry":{"type":"Point","coordinates":[5.5499352,51.474632]}},{"type":"Feature","id":"node/2994052353","properties":{"addr:city":"Nuenen","addr:housenumber":"20","addr:postcode":"5671GT","addr:street":"Dwerspad","amenity":"fire_station","name":"Brandweerpost Nuenen","operator":"Veiligheidsregio Brabant-Zuidoost","operator:website":"https://www.vrbzo.nl","operator:wikidata":"Q1811925","phone":"+31 40 2203 203","ref":"22-37","source":"BAG","source:date":"2014-08-03","website":"https://www.brandweer.nl/kazerne/nuenen/","id":"node/2994052353"},"geometry":{"type":"Point","coordinates":[5.5522751,51.4737953]}},{"type":"Feature","id":"node/2994053011","properties":{"addr:city":"Nuenen","addr:housenumber":"25A","addr:postcode":"5671GD","addr:street":"Parkstraat","amenity":"restaurant","email":"info@dejavu-nuenen.nl","indoor_seating":"yes","name":"Dejavu","opening_hours":"Tu-Su 17:00-22:00","outdoor_seating":"no","phone":"+31 40 7856340","source":"BAG","source:date":"2014-08-03","website":"https://dejavu-nuenen.nl","id":"node/2994053011"},"geometry":{"type":"Point","coordinates":[5.5462735,51.4724435]}},{"type":"Feature","id":"node/2994053549","properties":{"addr:city":"Nuenen","addr:housenumber":"27","addr:postcode":"5671GD","addr:street":"Parkstraat","branch":"Nuenen","brand":"Shoeby","brand:website":"https://www.shoeby.nl","brand:wikidata":"Q109186138","name":"Shoeby","opening_hours":"Mo 13:00-18:00; Tu-Fr 10:00-18:00; Sa 10:00-17:00","phone":"+31 40 2906510","shop":"clothes","source":"BAG","source:date":"2014-08-03","website":"https://www.shoeby.nl/winkels/nuenen","id":"node/2994053549"},"geometry":{"type":"Point","coordinates":[5.5462256,51.4723836]}},{"type":"Feature","id":"node/2994053567","properties":{"addr:city":"Nuenen","addr:housenumber":"28B","addr:postcode":"5671CC","addr:street":"Berg","branch":"Nuenen","brand":"Wereldwinkel","brand:website":"https://wereldwinkels.nl","brand:wikidata":"Q136703550","name":"Wereldwinkel","opening_hours":"Mo 13:00-16:00; Tu-Sa 11:00-17:00","phone":"+31 40 2839195","shop":"gift","source":"BAG","source:date":"2014-08-03","website":"https://wereldwinkelnuenen.nl","id":"node/2994053567"},"geometry":{"type":"Point","coordinates":[5.5512207,51.4767757]}},{"type":"Feature","id":"node/2994053583","properties":{"addr:city":"Nuenen","addr:housenumber":"2A","addr:postcode":"5671GX","addr:street":"Vincent van Goghstraat","check_date:opening_hours":"2026-03-09","name":"Happy Skin","opening_hours:signed":"no","phone":"+31 6 45 28 85 56","shop":"beauty","source":"BAG","source:date":"2014-08-03","website":"https://www.happyskin.nl","id":"node/2994053583"},"geometry":{"type":"Point","coordinates":[5.5500216,51.4746319]}},{"type":"Feature","id":"node/2994053586","properties":{"addr:city":"Nuenen","addr:housenumber":"2B","addr:postcode":"5671GX","addr:street":"Vincent van Goghstraat","email":"bikehomeservice@hotmail.com","name":"Bike Home Service","opening_hours":"Tu,We,Fr 09:00-18:00; Su 09:00-16:00","phone":"+31 6 5752 5040","shop":"bicycle","source":"BAG","source:date":"2014-08-03","website":"https://www.bikehomeservice.nl","id":"node/2994053586"},"geometry":{"type":"Point","coordinates":[5.5500935,51.4746228]}},{"type":"Feature","id":"node/2994053588","properties":{"addr:city":"Nuenen","addr:housenumber":"2C","addr:postcode":"5671GX","addr:street":"Vincent van Goghstraat","name":"Pearle","opening_hours":"Mo; Tu,We,Th 09:30-17:30; Fr 09:30-20:00; Sa 09:30-17:00","phone":"+31 40 2836614","shop":"optician","source":"BAG","source:date":"2014-08-03","website":"https://www.pearle.nl/opticien/nuenen/vincent-van-goghstraat-2","id":"node/2994053588"},"geometry":{"type":"Point","coordinates":[5.5501798,51.4746137]}},{"type":"Feature","id":"node/2994053627","properties":{"addr:city":"Nuenen","addr:housenumber":"30","addr:postcode":"5671CC","addr:street":"Berg","amenity":"fast_food","cuisine":"friture","name":"De Aardappeleters","opening_hours":"We-Su 12:00-21:00; Tu 16:00-21:00","source":"BAG","source:date":"2014-08-03","id":"node/2994053627"},"geometry":{"type":"Point","coordinates":[5.5512673,51.4768234]}},{"type":"Feature","id":"node/2994054524","properties":{"addr:city":"Nuenen","addr:housenumber":"3F","addr:postcode":"5671GD","addr:street":"Parkstraat","branch":"Nuenen","brand":"Vintage Kappers","brand:website":"https://www.vintagekappers.nl","brand:wikidata":"Q135397295","email":"nuenen@vintagekappers.nl","female":"yes","male":"yes","name":"Vintage Kappers","opening_hours":"Tu,Th,Fr 09:00-18:00; We 09:00-20:00; Sa 09:00-14:00","phone":"+31 40 7200 166","shop":"hairdresser","source":"BAG","source:date":"2014-08-03","website":"https://www.vintagekappers.nl/kapperszaken/nuenen/","id":"node/2994054524"},"geometry":{"type":"Point","coordinates":[5.5475372,51.4735703]}},{"type":"Feature","id":"node/2994056447","properties":{"addr:city":"Nuenen","addr:housenumber":"7","addr:postcode":"5671GD","addr:street":"Parkstraat","name":"Cuypers","opening_hours":"Mo 13:00-18:00; Tu-Th 09:30-18:00; Fr 09:30-20:00; Sa 09:30-17:00","shop":"clothes","source":"BAG","source:date":"2014-08-03","website":"https://cuypersmode.nl","id":"node/2994056447"},"geometry":{"type":"Point","coordinates":[5.547239,51.4733324]}},{"type":"Feature","id":"node/2994057090","properties":{"addr:city":"Nuenen","addr:housenumber":"9","addr:postcode":"5671GD","addr:street":"Parkstraat","name":"Smolders","opening_hours":"Mo 13:00-18:00; Tu-Fr 09:30-18:00; Sa 09:30-17:00","phone":"+31 40 2831553","shop":"shoes","source":"BAG","source:date":"2014-08-03","website":"https://smoldersschoenen.nl","id":"node/2994057090"},"geometry":{"type":"Point","coordinates":[5.5471176,51.4732766]}},{"type":"Feature","id":"node/2994057124","properties":{"addr:city":"Nuenen","addr:housenumber":"9B","addr:postcode":"5671GD","addr:street":"Parkstraat","branch":"Nuenen","brand":"Suitable","brand:website":"https://www.suitableshop.nl","brand:wikidata":"Q137484870","clothes":"suits;men","email":"nuenen@suitable.nl","name":"Suitable","opening_hours":"Mo 12:00-18:00; Tu-Fr 10:00-18:00; Sa 09:30-17:00","phone":"+31 40 283 1412","shop":"clothes","source":"BAG","source:date":"2014-08-03","website":"https://www.suitableshop.nl/suitable-nuenen/","id":"node/2994057124"},"geometry":{"type":"Point","coordinates":[5.5470568,51.4732417]}},{"type":"Feature","id":"node/2994408178","properties":{"addr:city":"Nuenen","addr:housenumber":"3","addr:postcode":"5674ST","addr:street":"De Polder","amenity":"community_centre","community_centre":"club_home","name":"Tennisvereniging De Goudhoek","source":"BAG","source:date":"2014-08-03","website":"https://www.goudhoek.nl/","id":"node/2994408178"},"geometry":{"type":"Point","coordinates":[5.5686903,51.4863293]}},{"type":"Feature","id":"node/2994409013","properties":{"addr:city":"Nuenen","addr:housenumber":"1","addr:postcode":"5674ST","addr:street":"De Polder","amenity":"community_centre","community_centre":"club_home","name":"RKGSV","source":"BAG","source:date":"2014-08-03","website":"https://www.rkgsv.nl","id":"node/2994409013"},"geometry":{"type":"Point","coordinates":[5.5676661,51.4859705]}},{"type":"Feature","id":"node/2994409020","properties":{"addr:city":"Nuenen","addr:housenumber":"1","addr:postcode":"5674RR","addr:street":"Heuvel","amenity":"restaurant","name":"Olijf","source":"BAG","source:date":"2014-08-03","id":"node/2994409020"},"geometry":{"type":"Point","coordinates":[5.5643808,51.4879771]}},{"type":"Feature","id":"node/2994410077","properties":{"addr:city":"Nuenen","addr:housenumber":"11","addr:postcode":"5674RR","addr:street":"Heuvel","amenity":"community_centre","community_centre":"village_hall","name":"D'n Heuvel","official_name":"Gemeenschapshuis D'n Heuvel","source":"BAG","source:date":"2014-08-03","website":"https://www.dnheuvelgerwen.nl/","id":"node/2994410077"},"geometry":{"type":"Point","coordinates":[5.5639816,51.4889845]}},{"type":"Feature","id":"node/2994410379","properties":{"addr:city":"Nuenen","addr:housenumber":"2","addr:postcode":"5674XC","addr:street":"Moorvensedijk","amenity":"restaurant","cuisine":"french","email":"info@restaurantolio.nl","name":"Olio","opening_hours":"Th-Mo 18:00-24:00","phone":"+31 40 283 1330","source":"BAG","source:date":"2014-08-03","website":"https://www.restaurantolio.nl","id":"node/2994410379"},"geometry":{"type":"Point","coordinates":[5.5657244,51.4891526]}},{"type":"Feature","id":"node/2994410564","properties":{"addr:city":"Nuenen","addr:housenumber":"24","addr:postcode":"5674SG","addr:street":"Gerwenseweg","email":"info@beterrijden.nl","name":"Autobedrijf Tonnie van der Heijden","opening_hours":"Mo-Fr 08:00-18:00; Sa 09:00-17:00","phone":"+31 40 299 0099","shop":"car","source":"BAG","source:date":"2014-08-03","website":"https://beterrijden.nl","id":"node/2994410564"},"geometry":{"type":"Point","coordinates":[5.5635664,51.485866]}},{"type":"Feature","id":"node/2994410637","properties":{"addr:city":"Nuenen","addr:housenumber":"38","addr:postcode":"5674SH","addr:street":"Gerwenseweg","amenity":"cafe","name":"De Stam","source":"BAG","source:date":"2014-08-03","website":"http://www.stamgerwen.nl","id":"node/2994410637"},"geometry":{"type":"Point","coordinates":[5.5643045,51.4868537]}},{"type":"Feature","id":"node/2994410869","properties":{"addr:city":"Nuenen","addr:housenumber":"6","addr:postcode":"5674RR","addr:street":"Heuvel","amenity":"fast_food","name":"Cafetaria Heuvelplein","source":"BAG","source:date":"2014-08-03","id":"node/2994410869"},"geometry":{"type":"Point","coordinates":[5.5652613,51.4885421]}},{"type":"Feature","id":"node/2994517764","properties":{"addr:city":"Nuenen","addr:housenumber":"1","addr:postcode":"5674NA","addr:street":"Koppeldreef","amenity":"community_centre","community_centre":"club_home","name":"Tennisvereniging Nederwetten","source":"BAG","source:date":"2014-08-03","website":"https://tvnederwetten.nl","id":"node/2994517764"},"geometry":{"type":"Point","coordinates":[5.5205431,51.4926476]}},{"type":"Feature","id":"node/2994518006","properties":{"addr:city":"Nuenen","addr:housenumber":"35","addr:postcode":"5674NN","addr:street":"Hoekstraat","amenity":"cafe","email":"info@slinders.nl","name":"Grillbar Slinders","phone":"+31 40 780 0590","source":"BAG","source:date":"2014-08-03","website":"https://slinders.nl","id":"node/2994518006"},"geometry":{"type":"Point","coordinates":[5.5223179,51.4915218]}},{"type":"Feature","id":"node/2994518190","properties":{"addr:city":"Nuenen","addr:housenumber":"2","addr:postcode":"5674NP","addr:street":"Hoekstraat","name":"F. Klomp Auto's","second_hand":"only","shop":"car","source":"BAG","source:date":"2014-08-03","website":"https://www.fklompautos.nl/","id":"node/2994518190"},"geometry":{"type":"Point","coordinates":[5.5286037,51.4931046]}},{"type":"Feature","id":"node/2994518194","properties":{"addr:city":"Nuenen","addr:housenumber":"2","addr:postcode":"5674NA","addr:street":"Koppeldreef","amenity":"community_centre","community_centre":"club_home","name":"RKVV Nederwetten","source":"BAG","source:date":"2014-08-03","website":"https://www.rkvvnederwetten.nl","id":"node/2994518194"},"geometry":{"type":"Point","coordinates":[5.5203401,51.4929166]}},{"type":"Feature","id":"node/2994519370","properties":{"addr:city":"Nuenen","addr:housenumber":"52","addr:postcode":"5674NP","addr:street":"Hoekstraat","amenity":"restaurant","email":"info@brasseriedekruik.nl","name":"Brasserie/Café de Kruik","opening_hours":"We-Sa 16:00-22:00; Su 12:00-22:00","phone":"+31 40 291 3337","source":"BAG","source:date":"2014-08-03","website":"https://www.brasseriedekruik.nl","id":"node/2994519370"},"geometry":{"type":"Point","coordinates":[5.5202769,51.4917751]}},{"type":"Feature","id":"node/2994519393","properties":{"addr:city":"Nuenen","addr:housenumber":"7","addr:postcode":"5674NW","addr:street":"De Koppel","amenity":"community_centre","community_centre":"village_hall","name":"De Koppelaar","source":"BAG","source:date":"2014-08-03","website":"https://dekoppelaar.nl/","id":"node/2994519393"},"geometry":{"type":"Point","coordinates":[5.5218005,51.4926763]}},{"type":"Feature","id":"node/2994608662","properties":{"addr:city":"Nuenen","addr:housenumber":"50","addr:postcode":"5674PJ","addr:street":"Olen","amenity":"social_facility","email":"info@krakenburg.nl","name":"Zorgboerderij Krakenburg","phone":"+31 499 477 162","social_facility":"workshop","social_facility:for":"mental_health","source":"BAG","source:date":"2014-08-03","website":"https://krakenburg.nl","id":"node/2994608662"},"geometry":{"type":"Point","coordinates":[5.5477196,51.5116217]}},{"type":"Feature","id":"node/3076570989","properties":{"addr:city":"Nuenen","addr:housenumber":"47A","addr:postcode":"5674TR","addr:street":"Collseweg","amenity":"restaurant","cuisine":"sandwich,_pancakes,_French","name":"D'n Kleine Dommel","opening_hours":"10:00-23:00, Mo closed","phone":"+31 40 844 2747","website":"https://www.denkleinedommel.nl","id":"node/3076570989"},"geometry":{"type":"Point","coordinates":[5.5399858,51.4456348]}},{"type":"Feature","id":"node/3235868861","properties":{"addr:city":"Nuenen","addr:housenumber":"18","addr:postcode":"5671CH","addr:street":"Jonkheer Hugo van Berckellaan","amenity":"library","brand":"de Bibliotheek","brand:wikidata":"Q121173765","email":"info@bibliotheekdommeldal.nl","name":"Bibliotheek Nuenen","operator":"Bibliotheek Dommeldal","operator:wikidata":"Q59962038","phone":"+31 40 283 3097","source":"BAG","source:date":"2017-01-01","website":"https://www.bibliotheekdommeldal.nl/","wikidata":"Q61785976","id":"node/3235868861"},"geometry":{"type":"Point","coordinates":[5.55362,51.479429]}},{"type":"Feature","id":"node/3354923237","properties":{"addr:city":"Nuenen","addr:housenumber":"100","addr:postcode":"5672GM","addr:street":"Hoge Brake","alt_name":"Service Apotheek Nuenen","amenity":"pharmacy","brand":"Service Apotheek","brand:website":"https://www.serviceapotheek.nl","brand:wikidata":"Q124129179","email":"info@apotheeknuenen.nl","healthcare":"pharmacy","name":"Apotheek Nuenen","opening_hours":"Mo-Fr 08:30-17:30; PH off","phone":"+31 40 283 3335","source":"BAG","source:date":"2014-08-02;2021-04-06","website":"https://www.serviceapotheek.nl/nuenen","id":"node/3354923237"},"geometry":{"type":"Point","coordinates":[5.5516531,51.4647275]}},{"type":"Feature","id":"node/3358684851","properties":{"addr:city":"Nuenen","addr:housenumber":"2","addr:postcode":"5674CA","addr:street":"Europalaan","amenity":"fuel","branch":"Nuenen Europalaan","brand":"AVIA","brand:website":"https://avia.nl","brand:wikidata":"Q300147","compressed_air":"yes","name":"AVIA","opening_hours":"24/7","operator":"Vollenhoven","operator:website":"https://aviavollenhoven.nl","operator:wikidata":"Q125451808","phone":"+31 40 2837325","website":"https://avia.nl/tankstations/avia-nuenen-europalaan","id":"node/3358684851"},"geometry":{"type":"Point","coordinates":[5.5322284,51.4674967]}},{"type":"Feature","id":"node/4585676723","properties":{"addr:city":"Nuenen","addr:housenumber":"3","addr:postcode":"5671EX","addr:street":"Parkhof","amenity":"fast_food","cuisine":"fried_food","diet:vegan":"yes","diet:vegetarian":"yes","name":"Frituur van Hoof","opening_hours":"We-Sa 12:00-20:00; Su 13:00-20:00","outdoor_seating":"yes","source":"BAG","source:date":"2017-01-02","takeaway":"yes","website":"https://www.frituurvanhoof.nl/","wikimedia_commons":"Category:Frituur van Hoof, Nuenen","id":"node/4585676723"},"geometry":{"type":"Point","coordinates":[5.5462886,51.4731709]}},{"type":"Feature","id":"node/4585676726","properties":{"addr:city":"Nuenen","addr:housenumber":"10A","addr:postcode":"5671GG","addr:street":"Parkstraat","name":"Infinity Dranken","opening_hours":"Tu-Fr 10:00-18:00; Sa 10:00-17:00","phone":"+31 6 5794 8000","service_times":"Mo, Tu, We, Su 16:00-02:00; Th-Sa 16:00-05:00","shop":"beverages","source":"BAG","source:date":"2017-01-02","website":"https://www.infinitydranken.nl","id":"node/4585676726"},"geometry":{"type":"Point","coordinates":[5.5462638,51.4730175]}},{"type":"Feature","id":"node/4585676727","properties":{"addr:city":"Nuenen","addr:housenumber":"5","addr:postcode":"5671EX","addr:street":"Parkhof","name":"BonMarie","opening_hours":"Tu,We,Th,Fr 09:00-18:00; Sa 09:00-17:00","shop":"tea","source":"BAG","source:date":"2017-01-02","website":"https://bonmarie.nl","id":"node/4585676727"},"geometry":{"type":"Point","coordinates":[5.5460871,51.4731902]}},{"type":"Feature","id":"node/5125967089","properties":{"addr:city":"Nuenen","addr:housenumber":"12","addr:postcode":"5674CC","addr:street":"De Pinckart","brand":"Het Goed","brand:wikidata":"Q56683074","name":"Het Goed","opening_hours":"Mo-Fr 10:00-18:00; Sa 09:00-17:00; Su 12:00-17:00","phone":"+31 40 303 8405","shop":"second_hand","source":"BAG","source:date":"2017-09-24","website":"https://www.hetgoed.nl/vestigingen/nuenen","id":"node/5125967089"},"geometry":{"type":"Point","coordinates":[5.5333655,51.4672521]}},{"type":"Feature","id":"node/5301928748","properties":{"addr:city":"Nuenen","addr:housenumber":"24","addr:postcode":"5674PJ","addr:street":"Olen","name":"Hof van Olen","phone":"+31 6 46200865","tourism":"hotel","website":"https://hofvanolen.nl","id":"node/5301928748"},"geometry":{"type":"Point","coordinates":[5.5377696,51.5268427]}},{"type":"Feature","id":"node/5438182060","properties":{"addr:city":"Nuenen","addr:housenumber":"5","addr:postcode":"5671CH","addr:street":"Jonkheer Hugo van Berckellaan","amenity":"cafe","email":"info@weverkeshof.nl","name":"Weverkeshof","outdoor_seating":"yes","phone":"+31 40 2838772","source":"BAG","source:date":"2021-04-06","website":"https://weverkeshof.nl","id":"node/5438182060"},"geometry":{"type":"Point","coordinates":[5.5539362,51.4809677]}},{"type":"Feature","id":"node/5827855559","properties":{"addr:city":"Nuenen","addr:housenumber":"8","addr:postcode":"5674AJ","addr:street":"Kapperdoesweg","branch":"Nuenen","brand":"Coppelmans","brand:website":"https://www.coppelmans.nl","brand:wikidata":"Q116679574","email":"nuenen@coppelmans.nl","name":"Coppelmans","opening_hours":"Mo-Th 09:30-18:00; Fr 09:30-20:00; Sa 09:00-17:30; Su 10:00-17:00","phone":"+31 40 290 6664","shop":"garden_centre","source":"BAG","source:date":"2018-08-08","website":"https://www.coppelmans.nl/coppelmans-nuenen","id":"node/5827855559"},"geometry":{"type":"Point","coordinates":[5.534095,51.4692399]}},{"type":"Feature","id":"node/6624660642","properties":{"addr:city":"Nuenen","addr:housenumber":"50","addr:postcode":"5674PJ","addr:street":"Olen","amenity":"cafe","description":"Fietscafé op een zorgboerderij","email":"info@krakenburg.nl","name":"Krakenburg","outdoor_seating":"yes","phone":"+31 499 477 162","website":"https://krakenburg.nl","id":"node/6624660642"},"geometry":{"type":"Point","coordinates":[5.547698,51.5119107]}},{"type":"Feature","id":"node/7773371820","properties":{"addr:city":"Nuenen","addr:housenumber":"100d","addr:postcode":"5672GM","addr:street":"Hoge Brake","amenity":"doctors","healthcare":"doctor","name":"Huisartsenpraktijk Van den Top","opening_hours":"Mo-Su 08:00-17:00","phone":"+31 40 283 7083","source":"BAG","source:date":"2025-03-14","website":"https://huisartsvandentop.praktijkinfo.nl","id":"node/7773371820"},"geometry":{"type":"Point","coordinates":[5.5517321,51.4647611]}},{"type":"Feature","id":"node/8794575652","properties":{"addr:city":"Nuenen","addr:housenumber":"70A","addr:postcode":"5672GM","addr:street":"Hoge Brake","brand":"Gall & Gall","brand:wikidata":"Q13639185","brand:wikipedia":"nl:Gall & Gall","name":"Gall & Gall","ref":"6964","shop":"alcohol","source":"BAG","source:date":"2014-08-02;2021-04-07","id":"node/8794575652"},"geometry":{"type":"Point","coordinates":[5.5504029,51.4647455]}},{"type":"Feature","id":"node/8794639649","properties":{"addr:city":"Nuenen","addr:housenumber":"12","addr:postcode":"5672GL","addr:street":"Hoge Brake","amenity":"fast_food","cuisine":"friture","name":"Cafetaria Vinnie's","source":"BAG","source:date":"2014-08-02","id":"node/8794639649"},"geometry":{"type":"Point","coordinates":[5.5495559,51.4645584]}},{"type":"Feature","id":"node/10591302801","properties":{"name":"Winkelcentrum Kernkwartier","shop":"mall","id":"node/10591302801"},"geometry":{"type":"Point","coordinates":[5.5500411,51.4647698]}},{"type":"Feature","id":"node/11365115540","properties":{"addr:city":"Nuenen","addr:housenumber":"1002","addr:postcode":"5672VK","addr:street":"Smits van Oyenlaan","branch":"Nuenen","brand":"SPAR express","brand:website":"https://www.spar.nl/express/","brand:wikidata":"Q12321004","name":"SPAR express","opening_hours":"Mo-Fr 06:00-21:00; Sa 07:00-21:00; Su 08:00-21:00","operator":"EG Group","operator:wikidata":"Q30638435","phone":"+31 40 7984212","shop":"convenience","website":"https://www.spar.nl/winkels/spar-express-nuenen-567/","id":"node/11365115540"},"geometry":{"type":"Point","coordinates":[5.557935,51.4679328]}},{"type":"Feature","id":"node/11613156198","properties":{"amenity":"fast_food","branch":"Nuenen","brand":"Bufkes","brand:wikidata":"Q124348748","cuisine":"sandwich","name":"Bufkes","opening_hours":"Mo-Fr 07:00-17:00; Sa 08:00-14:00","takeaway":"yes","website":"https://bufkes.nl/","id":"node/11613156198"},"geometry":{"type":"Point","coordinates":[5.5520294,51.4520721]}},{"type":"Feature","id":"node/12326016126","properties":{"addr:city":"Nuenen","addr:housenumber":"8","addr:postcode":"5672AD","addr:street":"Duivendijk","branch":"Eindhoven-Nuenen","brand":"Kvik","brand:website":"https://www.kvik.nl","brand:wikidata":"Q12323219","email":"eindhoven-nuenen@eindhoven-nuenen.kvik.nl","name":"Kvik","phone":"+31 40 3039185","shop":"kitchen","source":"BAG","source:date":"2024-11-08","website":"https://www.kvik.nl/winkel-zoeken/kvik-eindhoven-nuenen","id":"node/12326016126"},"geometry":{"type":"Point","coordinates":[5.5373077,51.4675558]}},{"type":"Feature","id":"node/12605225605","properties":{"addr:city":"Nuenen","addr:housenumber":"8","addr:postcode":"5674AJ","addr:street":"Kapperdoesweg","branch":"Nuenen","brand":"Maxi Zoo","brand:website":"https://www.maxizoo.nl","brand:wikidata":"Q108403242","check_date:opening_hours":"2026-02-01","email":"nuenen@maxizoo.nl","name":"Maxi Zoo","opening_hours:signed":"no","phone":"+31 40 2906664","shop":"pet","website":"https://www.maxizoo.nl/winkels/maxi-zoo-nuenen","id":"node/12605225605"},"geometry":{"type":"Point","coordinates":[5.5340302,51.4694029]}},{"type":"Feature","id":"node/12634542954","properties":{"addr:city":"Nuenen","addr:housenumber":"2","addr:postcode":"5674CA","addr:street":"Europalaan","brand":"AVIA shop","brand:wikidata":"Q128848383","name":"AVIA shop","opening_hours":"Mo-Fr 06:00-21:00; Sa 08:00-21:00; Su 09:00-21:00","operator":"Vollenhoven","operator:website":"https://aviavollenhoven.nl","operator:wikidata":"Q125451808","phone":"+31 40 2837325","shop":"convenience","website":"https://avia.nl/tankstations/avia-nuenen-europalaan","id":"node/12634542954"},"geometry":{"type":"Point","coordinates":[5.5325443,51.4675081]}},{"type":"Feature","id":"node/13013884599","properties":{"addr:city":"Nuenen","addr:housenumber":"2C","addr:postcode":"5671GG","addr:street":"Parkstraat","amenity":"cafe","cuisine":"dutch","diet:vegetarian":"yes","email":"lunchcafejanssen@gmail.com","name":"Lunchcafé Janssen","opening_hours":"We-Th 12:00-17:00; Fr 12:00-22:00; Sa 12:00-17:00","outdoor_seating":"yes","phone":"+31 6 51500246","website":"https://www.lunchcafejanssen.nl","id":"node/13013884599"},"geometry":{"type":"Point","coordinates":[5.547138,51.4735955]}},{"type":"Feature","id":"node/13037318628","properties":{"addr:city":"Nuenen","addr:housenumber":"8","addr:postcode":"5671EX","addr:street":"Parkhof","email":"info@vanvis.nl","name":"Van Vis","opening_hours":"Tu-Fr 09:00-18:00; Sa 08:30-17:00","phone":"+31 40 303 46 12","shop":"seafood","source":"BAG","source:date":"2025-09-11","id":"node/13037318628"},"geometry":{"type":"Point","coordinates":[5.5464185,51.4733102]}},{"type":"Feature","id":"node/13037318691","properties":{"name":"Jill & Juul","opening_hours":"Tu-Fr 09:30-17:30; Sa 09:00-17:00","shop":"clothes","id":"node/13037318691"},"geometry":{"type":"Point","coordinates":[5.5459335,51.4725526]}},{"type":"Feature","id":"node/13037326249","properties":{"name":"Bij Wendy","shop":"clothes","id":"node/13037326249"},"geometry":{"type":"Point","coordinates":[5.5499757,51.474904]}},{"type":"Feature","id":"node/13037377641","properties":{"name":"Outlet store","opening_hours":"Mo 12:00-17:30; Tu-Fr 09:00-17:30; Sa 09:00-17:00","shop":"clothes","id":"node/13037377641"},"geometry":{"type":"Point","coordinates":[5.547079,51.4735307]}},{"type":"Feature","id":"node/13037380465","properties":{"name":"Villa Blooom","opening_hours":"We-Fr 11:00-17:30; Sa 12:00-17:00","shop":"gift","website":"https://www.villablooom.nl/","id":"node/13037380465"},"geometry":{"type":"Point","coordinates":[5.5474202,51.4734558]}},{"type":"Feature","id":"node/13037432348","properties":{"email":"info@liefdevoorgoud.nl","name":"Goud Sieraden","opening_hours":"We-Sa 11:00-17:00","phone":"+31 40 2855725","shop":"jewelry","website":"https://www.goudsieraden.nl","id":"node/13037432348"},"geometry":{"type":"Point","coordinates":[5.5473452,51.4734134]}},{"type":"Feature","id":"node/13038099966","properties":{"name":"Kledingreparatie Oz","opening_hours":"Mo 12:00-18:00; Tu-Th 09:30-18:00; Fr 09:30-20:00; Sa 09:30-17:00","shop":"tailor","id":"node/13038099966"},"geometry":{"type":"Point","coordinates":[5.5502664,51.4746282]}},{"type":"Feature","id":"node/13138297982","properties":{"addr:city":"Nuenen","addr:housenumber":"1","addr:postcode":"5674BC","addr:street":"Kuilen","name":"Bloemkwekerij 't Schuurke","opening_hours":"Mo-Fr 09:00-18:00; Sa 09:00-17:00","shop":"florist","id":"node/13138297982"},"geometry":{"type":"Point","coordinates":[5.5376842,51.4750947]}},{"type":"Feature","id":"node/13411180136","properties":{"addr:city":"Nuenen","addr:housenumber":"72","addr:postcode":"5672GM","addr:street":"Hoge Brake","brand":"Wibra","brand:wikidata":"Q943405","name":"Wibra","opening_hours":"Mo-Th 09:00-18:00; Fr 09:00-20:00, Sa 09:00-17:00, Su 12:00-17:00","shop":"clothes","website":"https://www.wibra.nl","id":"node/13411180136"},"geometry":{"type":"Point","coordinates":[5.5504508,51.4643355]}}]}