{"type":"FeatureCollection","features":[{"type":"Feature","id":"way/3038902","properties":{"access":"designated","alt_name":"Alsancak Sevgi Yolu","bicycle":"yes","foot":"yes","highway":"pedestrian","motor_vehicle":"designated","name":"Ali Çetinkaya Bulvarı","surface":"paving_stones","id":"way/3038902"},"geometry":{"type":"LineString","coordinates":[[27.1406751,38.4350017],[27.1417442,38.4347446],[27.142082,38.4346645],[27.1421361,38.4346517],[27.1421594,38.43463],[27.1422379,38.4345552]]}},{"type":"Feature","id":"way/23615951","properties":{"highway":"residential","lane_markings":"no","name":"Yüzbaşı Şerafettin Bey Sokağı","oneway":"yes","surface":"paving_stones","id":"way/23615951"},"geometry":{"type":"LineString","coordinates":[[27.1475056,38.4378448],[27.1470537,38.437842],[27.1468147,38.4378425],[27.1458877,38.4378456],[27.145069,38.4378448],[27.1446334,38.4378533]]}},{"type":"Feature","id":"way/23615952","properties":{"alt_name":"Bornova Sokağı","highway":"pedestrian","name":"1469. Sokak","oneway:foot":"no","opening_hours:motor_vehicle":"0400-1000","surface":"paving_stones","id":"way/23615952"},"geometry":{"type":"LineString","coordinates":[[27.147026,38.439178],[27.1467829,38.439158],[27.1466366,38.4391485],[27.1462046,38.4391184],[27.145772,38.4391222],[27.1456734,38.4391223],[27.1455566,38.4391237],[27.1447067,38.4391476],[27.1445008,38.4391355],[27.1442651,38.4391245],[27.1437688,38.4391443],[27.1426291,38.4392856]]}},{"type":"Feature","id":"way/23615959","properties":{"highway":"primary","lanes":"2","oneway":"yes","surface":"asphalt","id":"way/23615959"},"geometry":{"type":"LineString","coordinates":[[27.1472532,38.4363963],[27.1473828,38.4365235],[27.1474399,38.4365896],[27.1475095,38.4366577],[27.1475529,38.4366958],[27.1475856,38.4367689],[27.1476006,38.4368536]]}},{"type":"Feature","id":"way/23615966","properties":{"highway":"residential","name":"1456. Sokak","oneway":"yes","id":"way/23615966"},"geometry":{"type":"LineString","coordinates":[[27.1451932,38.4421617],[27.1451105,38.4418399],[27.1450227,38.4413415],[27.1449785,38.4410103],[27.1448755,38.4403712],[27.1447842,38.4398654],[27.144752,38.4395492],[27.1447067,38.4391476],[27.1446867,38.4390084],[27.144678,38.4388582],[27.1446618,38.4383927]]}},{"type":"Feature","id":"way/23615967","properties":{"highway":"tertiary","lanes":"2","maxspeed":"30","name":"Atatürk Caddesi","oneway":"yes","surface":"asphalt","id":"way/23615967"},"geometry":{"type":"LineString","coordinates":[[27.1471621,38.4396742],[27.1471758,38.4396129],[27.1472381,38.4394298],[27.1473113,38.4392143]]}},{"type":"Feature","id":"way/37195180","properties":{"highway":"living_street","lane_markings":"no","name":"1460. Sokak","oneway":"yes","sidewalk":"no","surface":"asphalt","id":"way/37195180"},"geometry":{"type":"LineString","coordinates":[[27.1463945,38.4367818],[27.1462507,38.4370711],[27.1461862,38.4372056],[27.146144,38.4372979],[27.1460409,38.4375054],[27.1458877,38.4378456],[27.1457952,38.4380743],[27.1456726,38.4384261],[27.1455942,38.4387657],[27.1455818,38.4388508],[27.1455583,38.4390575],[27.1455566,38.4391237],[27.14556,38.4395346],[27.1455572,38.4398736],[27.1455218,38.4403494],[27.1455052,38.4409332]]}},{"type":"Feature","id":"way/37195800","properties":{"highway":"residential","name":"1479. Sokak","oneway":"yes","id":"way/37195800"},"geometry":{"type":"LineString","coordinates":[[27.1422393,38.4401637],[27.1423609,38.4401319],[27.1429044,38.4399899],[27.1438941,38.4399044]]}},{"type":"Feature","id":"way/42757221","properties":{"highway":"tertiary","lanes":"1","maxspeed":"30","name":"Atatürk Caddesi","oneway":"yes","surface":"asphalt","id":"way/42757221"},"geometry":{"type":"LineString","coordinates":[[27.1475969,38.4395145],[27.1474627,38.4395857],[27.147376,38.4396235],[27.1472774,38.4396798],[27.1471124,38.4398674]]}},{"type":"Feature","id":"way/51973151","properties":{"highway":"pedestrian","name":"1470. Sokak","surface":"asphalt","id":"way/51973151"},"geometry":{"type":"LineString","coordinates":[[27.1466635,38.4399295],[27.1467165,38.4395901],[27.1467829,38.439158]]}},{"type":"Feature","id":"way/51973152","properties":{"highway":"living_street","name":"1466. Sokak","id":"way/51973152"},"geometry":{"type":"LineString","coordinates":[[27.1451528,38.4383983],[27.1451074,38.4388555]]}},{"type":"Feature","id":"way/51973153","properties":{"highway":"living_street","lane_markings":"no","name":"1484. Sokak","oneway":"yes","sidewalk":"no","surface":"asphalt","id":"way/51973153"},"geometry":{"type":"LineString","coordinates":[[27.1442111,38.4369922],[27.1442346,38.4372717],[27.1442284,38.437844],[27.1442408,38.4384259]]}},{"type":"Feature","id":"way/51973154","properties":{"highway":"living_street","name":"1484. Sokak","oneway":"yes","surface":"asphalt","id":"way/51973154"},"geometry":{"type":"LineString","coordinates":[[27.1436188,38.438493],[27.1441723,38.4384342],[27.1442408,38.4384259],[27.1446618,38.4383927]]}},{"type":"Feature","id":"way/51973155","properties":{"highway":"living_street","name":"1454. Sokak","surface":"asphalt","id":"way/51973155"},"geometry":{"type":"LineString","coordinates":[[27.1457763,38.4370013],[27.1447987,38.4369841],[27.1446546,38.4369816]]}},{"type":"Feature","id":"way/51973157","properties":{"highway":"residential","lane_markings":"no","name":"1461. Sokak","surface":"asphalt","id":"way/51973157"},"geometry":{"type":"LineString","coordinates":[[27.1458036,38.4367474],[27.1457763,38.4370013],[27.1457561,38.4372549],[27.1457306,38.437485]]}},{"type":"Feature","id":"way/51973159","properties":{"highway":"residential","name":"1458. Sokak","oneway":"yes","id":"way/51973159"},"geometry":{"type":"LineString","coordinates":[[27.1468862,38.4372055],[27.1468792,38.4372833],[27.1468503,38.4376014],[27.1468147,38.4378425],[27.1468045,38.4379384],[27.146792,38.4380383],[27.1467814,38.4381191],[27.1467734,38.4381915],[27.1467254,38.438522],[27.1466786,38.4388415],[27.1466366,38.4391485]]}},{"type":"Feature","id":"way/51973707","properties":{"highway":"living_street","name":"1459. Sokak","surface":"asphalt","id":"way/51973707"},"geometry":{"type":"LineString","coordinates":[[27.1464468,38.4375621],[27.1464807,38.4373454],[27.1465042,38.4372343],[27.1465388,38.4370275],[27.1465603,38.4369272],[27.1465695,38.4368806],[27.1465851,38.4367912]]}},{"type":"Feature","id":"way/51973708","properties":{"highway":"pedestrian","name":"Prof. Dr. Nusret H. Fişek Caddesi","id":"way/51973708"},"geometry":{"type":"LineString","coordinates":[[27.1416169,38.4367178],[27.1424224,38.4366321],[27.1426865,38.436604],[27.143002,38.4365574]]}},{"type":"Feature","id":"way/51973709","properties":{"highway":"pedestrian","name":"Cumhuriyet Bulvari","surface":"paving_stones","id":"way/51973709"},"geometry":{"type":"LineString","coordinates":[[27.1406751,38.4350017],[27.1408955,38.4352343],[27.1410575,38.4353828],[27.1411951,38.435493]]}},{"type":"Feature","id":"way/51973710","properties":{"highway":"pedestrian","name":"1448. Sokak","id":"way/51973710"},"geometry":{"type":"LineString","coordinates":[[27.1412599,38.4359811],[27.1417084,38.43587],[27.1427018,38.4356132]]}},{"type":"Feature","id":"way/51973711","properties":{"highway":"pedestrian","name":"1440. Sokak","surface":"paving_stones","id":"way/51973711"},"geometry":{"type":"LineString","coordinates":[[27.1436063,38.4356883],[27.1434541,38.4356144],[27.1432644,38.4355409],[27.1429419,38.4354101],[27.1427044,38.4353099],[27.1425988,38.4352867]]}},{"type":"Feature","id":"way/51973713","properties":{"highway":"residential","name":"1439. Sokak","oneway":"yes","surface":"asphalt","id":"way/51973713"},"geometry":{"type":"LineString","coordinates":[[27.1439058,38.4352717],[27.1436063,38.4356883],[27.1435166,38.435835],[27.1434765,38.4360166],[27.1434694,38.4363811],[27.1434688,38.4366502]]}},{"type":"Feature","id":"way/51973714","properties":{"highway":"pedestrian","name":"1441. Sokak","surface":"paving_stones","id":"way/51973714"},"geometry":{"type":"LineString","coordinates":[[27.1435166,38.435835],[27.1431076,38.4357588],[27.1427276,38.4357015]]}},{"type":"Feature","id":"way/93191169","properties":{"highway":"living_street","name":"1464. Sokak","oneway":"yes","surface":"asphalt","id":"way/93191169"},"geometry":{"type":"LineString","coordinates":[[27.1446618,38.4383927],[27.1450228,38.4383899],[27.1451528,38.4383983],[27.1456726,38.4384261],[27.1462161,38.4384847],[27.1467254,38.438522],[27.1471148,38.4385763],[27.1470751,38.4387922],[27.1470695,38.438877],[27.147026,38.439178]]}},{"type":"Feature","id":"way/93191180","properties":{"highway":"residential","name":"1473. Sokak","oneway":"yes","id":"way/93191180"},"geometry":{"type":"LineString","coordinates":[[27.1462393,38.4403442],[27.1463743,38.4399126]]}},{"type":"Feature","id":"way/93200393","properties":{"highway":"unclassified","lane_markings":"no","name":"Cumbalı Sokagi","surface":"paving_stones","id":"way/93200393"},"geometry":{"type":"LineString","coordinates":[[27.1407014,38.4362055],[27.1412599,38.4359811]]}},{"type":"Feature","id":"way/93201274","properties":{"highway":"footway","surface":"paving_stones","id":"way/93201274"},"geometry":{"type":"LineString","coordinates":[[27.1398862,38.436542],[27.1399132,38.4365085],[27.1399561,38.4364553],[27.1402966,38.4363205],[27.1407014,38.4362055]]}},{"type":"Feature","id":"way/93201277","properties":{"highway":"footway","surface":"paving_stones","id":"way/93201277"},"geometry":{"type":"LineString","coordinates":[[27.1407111,38.4377336],[27.1407411,38.4377261],[27.1408006,38.4377111],[27.1409489,38.4376747],[27.1411376,38.4376265],[27.1412683,38.437612]]}},{"type":"Feature","id":"way/93201278","properties":{"check_date:surface":"2026-02-23","highway":"path","surface":"paved","id":"way/93201278"},"geometry":{"type":"LineString","coordinates":[[27.1423517,38.4418771],[27.142383,38.4418685],[27.1424542,38.4418489],[27.1426323,38.4417953],[27.142847,38.4416847]]}},{"type":"Feature","id":"way/93201279","properties":{"highway":"footway","surface":"paving_stones","id":"way/93201279"},"geometry":{"type":"LineString","coordinates":[[27.1409517,38.4389525],[27.1411207,38.4389223],[27.1411966,38.4389048],[27.1412712,38.4388877],[27.1413936,38.4388595],[27.1415824,38.4388161],[27.1417011,38.4387836]]}},{"type":"Feature","id":"way/93201280","properties":{"highway":"footway","surface":"paving_stones","id":"way/93201280"},"geometry":{"type":"LineString","coordinates":[[27.1416764,38.440245],[27.1417201,38.4402341],[27.1417844,38.4402162],[27.1418989,38.4401892],[27.1421306,38.4401358],[27.1421397,38.4401332],[27.1421608,38.4401802],[27.1422393,38.4401637]]}},{"type":"Feature","id":"way/93202723","properties":{"highway":"living_street","name":"1476. Sokak","oneway":"yes","id":"way/93202723"},"geometry":{"type":"LineString","coordinates":[[27.1451105,38.4418399],[27.1441536,38.4419872]]}},{"type":"Feature","id":"way/153706016","properties":{"highway":"living_street","name":"1483. Sokak","id":"way/153706016"},"geometry":{"type":"LineString","coordinates":[[27.1432411,38.4373183],[27.1435767,38.4372896],[27.1442346,38.4372717],[27.1446611,38.4372617]]}},{"type":"Feature","id":"way/153707875","properties":{"highway":"living_street","name":"1488. Sokak","oneway":"yes","id":"way/153707875"},"geometry":{"type":"LineString","coordinates":[[27.1441573,38.4359277],[27.1441204,38.4359946],[27.1441071,38.4360415],[27.1440692,38.4366758]]}},{"type":"Feature","id":"way/153707879","properties":{"highway":"living_street","name":"1455. Sokak","oneway":"yes","surface":"asphalt","id":"way/153707879"},"geometry":{"type":"LineString","coordinates":[[27.1436575,38.4370048],[27.143671,38.4366599]]}},{"type":"Feature","id":"way/153718753","properties":{"highway":"pedestrian","name":"1445. Sokak","id":"way/153718753"},"geometry":{"type":"LineString","coordinates":[[27.1410826,38.4356639],[27.1413358,38.4355957],[27.1418032,38.4354697]]}},{"type":"Feature","id":"way/153795382","properties":{"access":"delivery","bicycle":"yes","foot":"yes","highway":"pedestrian","motor_vehicle":"designated","name":"1447. Sokak","id":"way/153795382"},"geometry":{"type":"LineString","coordinates":[[27.1418755,38.4356338],[27.1426429,38.4354182]]}},{"type":"Feature","id":"way/153795414","properties":{"highway":"service","id":"way/153795414"},"geometry":{"type":"LineString","coordinates":[[27.1427138,38.4413617],[27.143069,38.4412698],[27.1431463,38.4412466],[27.14342,38.4411672]]}},{"type":"Feature","id":"way/153795415","properties":{"highway":"service","id":"way/153795415"},"geometry":{"type":"LineString","coordinates":[[27.1431463,38.4412466],[27.1430152,38.440939],[27.1429615,38.4408488],[27.1428922,38.4406721]]}},{"type":"Feature","id":"way/172790406","properties":{"highway":"living_street","name":"1475. Sokak","id":"way/172790406"},"geometry":{"type":"LineString","coordinates":[[27.1466222,38.4408406],[27.1460945,38.4408852],[27.1455052,38.4409332],[27.1449785,38.4410103]]}},{"type":"Feature","id":"way/172790407","properties":{"highway":"living_street","name":"1474. Sokak","oneway":"yes","id":"way/172790407"},"geometry":{"type":"LineString","coordinates":[[27.1468655,38.4403905],[27.146424,38.4403442],[27.1462393,38.4403442],[27.1455218,38.4403494],[27.1448755,38.4403712]]}},{"type":"Feature","id":"way/172790410","properties":{"highway":"pedestrian","name":"1473. Sokak","id":"way/172790410"},"geometry":{"type":"LineString","coordinates":[[27.1460945,38.4408852],[27.1462393,38.4403442]]}},{"type":"Feature","id":"way/172793075","properties":{"highway":"pedestrian","name":"1471. Sokak","surface":"paving_stones","id":"way/172793075"},"geometry":{"type":"LineString","coordinates":[[27.1471758,38.4396129],[27.1467165,38.4395901],[27.1465234,38.4395758]]}},{"type":"Feature","id":"way/172793077","properties":{"highway":"living_street","name":"1468. Sokak","id":"way/172793077"},"geometry":{"type":"LineString","coordinates":[[27.1470695,38.438877],[27.1466786,38.4388415],[27.1455942,38.4387657]]}},{"type":"Feature","id":"way/172793081","properties":{"highway":"living_street","name":"1471. Sokak","oneway":"yes","surface":"asphalt","id":"way/172793081"},"geometry":{"type":"LineString","coordinates":[[27.1438353,38.4395601],[27.144752,38.4395492],[27.14556,38.4395346]]}},{"type":"Feature","id":"way/172793082","properties":{"highway":"living_street","name":"1467. Sokak","surface":"asphalt","id":"way/172793082"},"geometry":{"type":"LineString","coordinates":[[27.1455818,38.4388508],[27.1451074,38.4388555],[27.144678,38.4388582]]}},{"type":"Feature","id":"way/172796124","properties":{"highway":"pedestrian","name":"1478. Sokak","id":"way/172796124"},"geometry":{"type":"LineString","coordinates":[[27.1430301,38.4402807],[27.1439372,38.4402461]]}},{"type":"Feature","id":"way/172796125","properties":{"highway":"pedestrian","id":"way/172796125"},"geometry":{"type":"LineString","coordinates":[[27.143146,38.4405606],[27.143961,38.4405021]]}},{"type":"Feature","id":"way/172796126","properties":{"highway":"living_street","name":"1463. Sokak","oneway":"yes","surface":"asphalt","id":"way/172796126"},"geometry":{"type":"LineString","coordinates":[[27.1457952,38.4380743],[27.1467734,38.4381915],[27.1474261,38.4382489]]}},{"type":"Feature","id":"way/209055332","properties":{"bicycle":"yes","foot":"no","highway":"cycleway","horse":"no","lit":"yes","motor_vehicle":"no","oneway":"no","smoothness":"intermediate","surface":"concrete","width":"3","id":"way/209055332"},"geometry":{"type":"LineString","coordinates":[[27.1397762,38.4362618],[27.1399561,38.4364553],[27.1403475,38.4368711],[27.1408006,38.4377111],[27.1408458,38.4378241],[27.1412712,38.4388877],[27.1412997,38.4389594],[27.1417844,38.4402162],[27.1423377,38.4416737],[27.1424542,38.4418489],[27.1426998,38.4421632],[27.142739,38.4421884]]}},{"type":"Feature","id":"way/209055333","properties":{"check_date:surface":"2026-01-15","highway":"footway","surface":"paved","id":"way/209055333"},"geometry":{"type":"LineString","coordinates":[[27.1344199,38.4301036],[27.1344374,38.4302172],[27.1344789,38.4303032],[27.1345916,38.4304756],[27.134712,38.4306121],[27.135195,38.4311563],[27.13571,38.431705],[27.1367506,38.4328154],[27.1373728,38.4334887],[27.1380916,38.4342598],[27.1381267,38.4342974],[27.138174,38.4343445],[27.1382056,38.4343761],[27.139052,38.4350853],[27.1392784,38.4352924],[27.1396669,38.4356089],[27.1400391,38.4359122],[27.1402966,38.4363205],[27.1404951,38.4365896],[27.1409489,38.4376747],[27.1410049,38.437824],[27.1413936,38.4388595],[27.1418989,38.4401892],[27.1423807,38.4414783],[27.1424719,38.4416296],[27.1425595,38.441732],[27.1426323,38.4417953],[27.142726,38.441851],[27.1428286,38.4418775],[27.1430004,38.4418541]]}},{"type":"Feature","id":"way/209055337","properties":{"bicycle":"yes","cutting":"track","foot":"no","highway":"cycleway","horse":"no","junction":"roundabout","lit":"yes","motor_vehicle":"no","oneway":"no","smoothness":"intermediate","surface":"concrete","width":"3","id":"way/209055337"},"geometry":{"type":"LineString","coordinates":[[27.1427852,38.442097],[27.1428236,38.4420809],[27.1428667,38.442076],[27.1429094,38.442083],[27.1429464,38.4421011],[27.1429732,38.442128],[27.1429866,38.4421605],[27.1429849,38.4421946],[27.1429686,38.442226],[27.1429397,38.4422511],[27.1429015,38.442267],[27.1428587,38.4422718],[27.1428164,38.4422649],[27.1427796,38.4422471],[27.1427527,38.4422206],[27.142739,38.4421884],[27.1427401,38.4421543],[27.1427562,38.4421225],[27.1427852,38.442097]]}},{"type":"Feature","id":"way/211261572","properties":{"highway":"living_street","name":"1453. Sokak","id":"way/211261572"},"geometry":{"type":"LineString","coordinates":[[27.1418894,38.437445],[27.1424117,38.4373164],[27.1431806,38.4371272]]}},{"type":"Feature","id":"way/217630323","properties":{"highway":"residential","lane_markings":"no","name":"Mahmut Esat Bozkurt Caddesi","oneway":"yes","surface":"asphalt","id":"way/217630323"},"geometry":{"type":"LineString","coordinates":[[27.1467074,38.4367957],[27.1467521,38.4365882],[27.1467657,38.4365096]]}},{"type":"Feature","id":"way/217775684","properties":{"highway":"living_street","name":"1440. Sokak","oneway":"yes","id":"way/217775684"},"geometry":{"type":"LineString","coordinates":[[27.1436063,38.4356883],[27.1441573,38.4359277],[27.1446487,38.4361339]]}},{"type":"Feature","id":"way/222445003","properties":{"cycleway:left":"no","cycleway:right":"shared_lane","highway":"tertiary","lane_markings":"no","name":"Cumhuriyet Bulvarı","oneway":"yes","surface":"asphalt","id":"way/222445003"},"geometry":{"type":"LineString","coordinates":[[27.1418894,38.437445],[27.1420619,38.4378378],[27.1423693,38.4386425],[27.1423806,38.4386666],[27.1424703,38.4388888],[27.1426291,38.4392856],[27.1429044,38.4399899],[27.1430301,38.4402807],[27.143146,38.4405606],[27.1431892,38.4406551],[27.1432618,38.4408163],[27.14342,38.4411672],[27.14355,38.4415714]]}},{"type":"Feature","id":"way/222445006","properties":{"highway":"residential","maxspeed":"30","name":"Ali Çetinkaya Bulvari","oneway":"yes","surface":"asphalt","id":"way/222445006"},"geometry":{"type":"LineString","coordinates":[[27.1405078,38.4350306],[27.1404646,38.435083],[27.1403885,38.4351519],[27.1400328,38.4354852]]}},{"type":"Feature","id":"way/222445009","properties":{"highway":"living_street","name":"1457. Sokak","oneway":"yes","surface":"asphalt","id":"way/222445009"},"geometry":{"type":"LineString","coordinates":[[27.144658,38.4374403],[27.1457306,38.437485],[27.1460409,38.4375054]]}},{"type":"Feature","id":"way/256317179","properties":{"highway":"pedestrian","name":"1435. Sokak","id":"way/256317179"},"geometry":{"type":"LineString","coordinates":[[27.1417374,38.4353219],[27.1418032,38.4354697],[27.1418755,38.4356338],[27.1419056,38.4357022]]}},{"type":"Feature","id":"way/256317183","properties":{"highway":"living_street","name":"1465 Sokak","surface":"asphalt","id":"way/256317183"},"geometry":{"type":"LineString","coordinates":[[27.1450228,38.4383899],[27.145069,38.4378448]]}},{"type":"Feature","id":"way/374656100","properties":{"highway":"pedestrian","name":"Enver Dündar Başar Sokağı","oneway":"no","id":"way/374656100"},"geometry":{"type":"LineString","coordinates":[[27.1417011,38.4387836],[27.1423693,38.4386425]]}},{"type":"Feature","id":"way/394906540","properties":{"access":"no","bicycle":"yes","foot":"yes","highway":"pedestrian","name":"Can Yücel Sokak","surface":"sett","id":"way/394906540"},"geometry":{"type":"LineString","coordinates":[[27.1416951,38.4369186],[27.1430586,38.4367262]]}},{"type":"Feature","id":"way/510687702","properties":{"highway":"residential","lane_markings":"no","name":"Mahmut Esat Bozkurt Caddesi","oneway":"yes","surface":"asphalt","id":"way/510687702"},"geometry":{"type":"LineString","coordinates":[[27.1470022,38.4366212],[27.1469231,38.4368085]]}},{"type":"Feature","id":"way/510687704","properties":{"highway":"secondary","lane_markings":"yes","lanes":"2","name":"Talatpaşa Bulvarı","oneway":"yes","surface":"asphalt","id":"way/510687704"},"geometry":{"type":"LineString","coordinates":[[27.1474927,38.4369277],[27.1474335,38.4368344],[27.1473593,38.4367838],[27.1472441,38.4367271],[27.1470022,38.4366212],[27.1467657,38.4365096]]}},{"type":"Feature","id":"way/510687706","properties":{"cycleway":"shared_lane","highway":"secondary","lanes":"2","name":"Talatpaşa Bulvarı","oneway":"yes","surface":"asphalt","id":"way/510687706"},"geometry":{"type":"LineString","coordinates":[[27.1467657,38.4365096],[27.1464307,38.4363592],[27.1457641,38.4360588],[27.1455713,38.435978],[27.1453167,38.4358735],[27.1450119,38.4357375]]}},{"type":"Feature","id":"way/528135475","properties":{"highway":"footway","surface":"paving_stones","id":"way/528135475"},"geometry":{"type":"LineString","coordinates":[[27.1435891,38.4387484],[27.1435599,38.4385414],[27.1435407,38.4384394]]}},{"type":"Feature","id":"way/528136760","properties":{"highway":"footway","surface":"paving_stones","id":"way/528136760"},"geometry":{"type":"LineString","coordinates":[[27.1435599,38.4385414],[27.1434099,38.4385519],[27.1434262,38.4386616],[27.1433442,38.4386518],[27.1432581,38.4386525],[27.1432568,38.4384884]]}},{"type":"Feature","id":"way/539683020","properties":{"highway":"footway","surface":"paving_stones","id":"way/539683020"},"geometry":{"type":"LineString","coordinates":[[27.1433442,38.4386518],[27.1433751,38.438713]]}},{"type":"Feature","id":"way/539961559","properties":{"highway":"tertiary","lane_markings":"no","name":"Atatürk Caddesi","oneway":"yes","surface":"sett","id":"way/539961559"},"geometry":{"type":"LineString","coordinates":[[27.1464459,38.4412009],[27.1463932,38.4412645],[27.1461692,38.4414611],[27.1460521,38.4415506],[27.1459845,38.4416096],[27.1458071,38.4417569],[27.1455699,38.4419291],[27.1453639,38.4420662],[27.1451932,38.4421617],[27.1449533,38.4422477],[27.1446444,38.4423318],[27.1442493,38.4423766]]}},{"type":"Feature","id":"way/620406519","properties":{"highway":"residential","lane_markings":"no","name":"1456. Sokak","oneway":"yes","sidewalk":"both","surface":"asphalt","id":"way/620406519"},"geometry":{"type":"LineString","coordinates":[[27.1450119,38.4357375],[27.1448578,38.4359047],[27.1447867,38.4359877],[27.1446487,38.4361339],[27.1446167,38.4364607],[27.1446309,38.4366962]]}},{"type":"Feature","id":"way/620406521","properties":{"highway":"residential","lane_markings":"no","name":"Mahmut Esat Bozkurt Caddesi","oneway":"yes","surface":"asphalt","id":"way/620406521"},"geometry":{"type":"LineString","coordinates":[[27.1434688,38.4366502],[27.143671,38.4366599],[27.1440692,38.4366758],[27.1446309,38.4366962],[27.1448968,38.4367041],[27.1452684,38.436715],[27.145515,38.4367225],[27.1458036,38.4367474],[27.1462498,38.4367731],[27.1463945,38.4367818],[27.1465851,38.4367912]]}},{"type":"Feature","id":"way/620424705","properties":{"highway":"residential","name":"1476/1. Sokak","oneway":"no","id":"way/620424705"},"geometry":{"type":"LineString","coordinates":[[27.142847,38.4416847],[27.1431881,38.4416364],[27.14355,38.4415714],[27.144069,38.4414821],[27.1450227,38.4413415],[27.1464459,38.4412009]]}},{"type":"Feature","id":"way/620424706","properties":{"alt_name":"Alsancak Sevgi Yolu","highway":"pedestrian","lit":"yes","name":"Kıbrıs Şehitleri Caddesi","oneway":"no","surface":"paving_stones","wikidata":"Q6025064","wikimedia_commons":"Category:Kıbrıs Şehitleri Caddesi","wikipedia":"tr:Kıbrıs Şehitleri Caddesi","id":"way/620424706"},"geometry":{"type":"LineString","coordinates":[[27.1438941,38.4399044],[27.1439372,38.4402461],[27.143961,38.4405021],[27.1439884,38.4407508],[27.144069,38.4414821],[27.1441536,38.4419872]]}},{"type":"Feature","id":"way/620424707","properties":{"highway":"residential","lane_markings":"no","name":"1472. Sokak","oneway":"yes","sidewalk":"both","sidewalk:both:surface":"paving_stones","surface":"asphalt","id":"way/620424707"},"geometry":{"type":"LineString","coordinates":[[27.1438941,38.4399044],[27.1443745,38.43988],[27.1447842,38.4398654],[27.1451768,38.4398639],[27.1455572,38.4398736],[27.1463743,38.4399126],[27.1466635,38.4399295],[27.1470494,38.4400015]]}},{"type":"Feature","id":"way/620447095","properties":{"highway":"residential","lane_markings":"no","name":"1456. Sokak","oneway":"yes","surface":"asphalt","id":"way/620447095"},"geometry":{"type":"LineString","coordinates":[[27.1446618,38.4383927],[27.1446334,38.4378533],[27.144658,38.4374403],[27.1446611,38.4372617],[27.1446607,38.4372097],[27.1446546,38.4369816],[27.1446309,38.4366962]]}},{"type":"Feature","id":"way/620451314","properties":{"highway":"living_street","name":"Enver Dündar Başar Sokağı","oneway":"no","surface":"paving_stones","id":"way/620451314"},"geometry":{"type":"LineString","coordinates":[[27.1423693,38.4386425],[27.1430618,38.4385257],[27.1432568,38.4384884],[27.1435407,38.4384394],[27.1436117,38.4384374]]}},{"type":"Feature","id":"way/620461956","properties":{"highway":"living_street","name":"1480. Sokak","id":"way/620461956"},"geometry":{"type":"LineString","coordinates":[[27.1424703,38.4388888],[27.1431264,38.4388051],[27.1433729,38.4387765],[27.1435891,38.4387484],[27.143674,38.4387373]]}},{"type":"Feature","id":"way/620461958","properties":{"crossing":"marked","crossing:markings":"yes","footway":"crossing","highway":"footway","surface":"asphalt","id":"way/620461958"},"geometry":{"type":"LineString","coordinates":[[27.1424828,38.434495],[27.1424248,38.4345775],[27.1423881,38.4346193]]}},{"type":"Feature","id":"way/620461960","properties":{"highway":"pedestrian","name":"İrfan Boyuer Sokak","surface":"paving_stones","id":"way/620461960"},"geometry":{"type":"LineString","coordinates":[[27.1425307,38.4351056],[27.1418608,38.4352873],[27.1417374,38.4353219],[27.1416508,38.4353462],[27.1412774,38.4354665],[27.1411951,38.435493],[27.140999,38.4355283]]}},{"type":"Feature","id":"way/620461961","properties":{"alt_name":"Alsancak Sevgi Yolu","covered":"no","description":"İzmir ilinin Konak ilçesinde bulunan, şehrin simge caddelerinden biridir. Cadde trafiğe kapalı olup üzerinde restoranlar, cafeler, barlar, kitapçılar ve alışveriş yerleri bulunmaktadır.","description:bg":"Разположена в квартал Конак в Измир, тя е една от символичните улици на града. Улицата е затворена за движение и по нея има ресторанти, кафенета, барове, книжарници и търговски площи.","description:de":"Sie liegt im Stadtteil Konak in Izmir und ist eine der Symbolstraßen der Stadt. Die Straße ist für den Verkehr gesperrt und es gibt auf ihr Restaurants, Cafés, Bars, Buchhandlungen und Einkaufsmöglichkeiten.","description:el":"Βρίσκεται στην περιοχή Konak της Σμύρνης και είναι ένας από τους δρόμους-σύμβολα της πόλης. Ο δρόμος είναι κλειστός στην κυκλοφορία και σε αυτόν υπάρχουν εστιατόρια, καφέ, μπαρ, βιβλιοπωλεία και εμπορικές περιοχές.","description:en":"Located in the Konak district of Izmir, it is one of the symbol streets of the city. The street is closed to traffic and there are restaurants, cafes, bars, bookstores and shopping areas on it.","highway":"pedestrian","lit":"yes","name":"Kıbrıs Şehitleri Caddesi","oneway":"no","surface":"paving_stones","wikidata":"Q6025064","wikimedia_commons":"Category:Kıbrıs Şehitleri Caddesi","wikipedia":"tr:Kıbrıs Şehitleri Caddesi","id":"way/620461961"},"geometry":{"type":"LineString","coordinates":[[27.1423881,38.4346193],[27.1423884,38.4347272],[27.1425307,38.4351056],[27.1425988,38.4352867],[27.1426035,38.4352962],[27.1426429,38.4354182],[27.1427018,38.4356132],[27.1427276,38.4357015],[27.1427392,38.4357678],[27.143002,38.4365574],[27.1430336,38.4366406],[27.1430586,38.4367262],[27.143142,38.4370265],[27.1431806,38.4371272],[27.1432411,38.4373183],[27.1433481,38.4375365],[27.1434657,38.4378456],[27.1435445,38.438165],[27.1436117,38.4384374],[27.1436188,38.438493],[27.143674,38.4387373],[27.1436955,38.4388334],[27.1437196,38.4389488],[27.1437688,38.4391443],[27.1438353,38.4395601],[27.1438941,38.4399044]]}},{"type":"Feature","id":"way/620461964","properties":{"highway":"service","name":"1446. Sokak","id":"way/620461964"},"geometry":{"type":"LineString","coordinates":[[27.1419056,38.4357022],[27.1411936,38.4358649]]}},{"type":"Feature","id":"way/620461965","properties":{"highway":"pedestrian","name":"1449. Sokak","id":"way/620461965"},"geometry":{"type":"LineString","coordinates":[[27.1427392,38.4357678],[27.1417496,38.4359847],[27.1413059,38.4360744]]}},{"type":"Feature","id":"way/620476751","properties":{"highway":"primary","lanes":"2","name":"Atatürk Caddesi","oneway":"yes","surface":"asphalt","id":"way/620476751"},"geometry":{"type":"LineString","coordinates":[[27.1473113,38.4392143],[27.1473322,38.4390351],[27.1473826,38.4388734],[27.1474214,38.4387405],[27.1475056,38.4378448],[27.1475159,38.4373295],[27.1474927,38.4369277]]}},{"type":"Feature","id":"way/634023445","properties":{"highway":"tertiary","lanes":"1","maxspeed":"30","name":"Atatürk Caddesi","id":"way/634023445"},"geometry":{"type":"LineString","coordinates":[[27.1464459,38.4412009],[27.1466222,38.4408406],[27.1468655,38.4403905],[27.1469537,38.4402157],[27.1470494,38.4400015],[27.1471124,38.4398674]]}},{"type":"Feature","id":"way/705689619","properties":{"highway":"tertiary","name":"Cumhuriyet Bulvarı","oneway":"yes","id":"way/705689619"},"geometry":{"type":"LineString","coordinates":[[27.1441536,38.4419872],[27.1441076,38.4419848],[27.1440905,38.4419839],[27.1439656,38.4419424],[27.1437284,38.4418062],[27.1436245,38.4417172],[27.1435904,38.4416491],[27.1435766,38.4416216],[27.14355,38.4415714]]}},{"type":"Feature","id":"way/760887274","properties":{"highway":"pedestrian","name":"Muzaffer İzgü Sokak","id":"way/760887274"},"geometry":{"type":"LineString","coordinates":[[27.1433481,38.4375365],[27.1428344,38.4376662],[27.1420619,38.4378378]]}},{"type":"Feature","id":"way/762695314","properties":{"highway":"pedestrian","surface":"concrete","id":"way/762695314"},"geometry":{"type":"LineString","coordinates":[[27.1396386,38.4363243],[27.1394696,38.4362503],[27.139143,38.4358958],[27.1388255,38.4355511],[27.1387881,38.4353835]]}},{"type":"Feature","id":"way/762695315","properties":{"highway":"pedestrian","name":"Atatürk Caddesi","surface":"concrete","id":"way/762695315"},"geometry":{"type":"LineString","coordinates":[[27.1442493,38.4423766],[27.1442483,38.4423908],[27.144236,38.4425721],[27.1439956,38.44259],[27.1439999,38.4426917],[27.1439593,38.4427412],[27.1439217,38.4427871],[27.1431208,38.4426955],[27.1430084,38.44267],[27.1429031,38.442615],[27.1423517,38.4418771],[27.1422784,38.4417779],[27.1422047,38.4416205],[27.1416764,38.440245],[27.1411207,38.4389223],[27.1407111,38.4377336],[27.1402738,38.4369629],[27.1398862,38.436542],[27.1396386,38.4363243]]}},{"type":"Feature","id":"way/762695316","properties":{"highway":"residential","lanes":"1","maxspeed":"30","name":"Atatürk Caddesi","old_name":"1. Kordon","oneway":"yes","surface":"paving_stones","id":"way/762695316"},"geometry":{"type":"LineString","coordinates":[[27.1442493,38.4423766],[27.14422,38.4423705],[27.1441846,38.4423631],[27.1439503,38.4423201],[27.1437139,38.4422677],[27.1434685,38.4421856],[27.1432281,38.4420655],[27.1430004,38.4418541],[27.142847,38.4416847],[27.1427138,38.4413617],[27.1423526,38.4404533],[27.1422393,38.4401637],[27.1421259,38.4398741],[27.1420499,38.4396809],[27.1419779,38.4394623],[27.1419141,38.4393472],[27.1418518,38.4391728],[27.1417011,38.4387836],[27.1415441,38.4383605],[27.141493,38.4382219],[27.1412683,38.437612],[27.1412299,38.437514],[27.1408317,38.4365186],[27.1407014,38.4362055],[27.1404528,38.4358474],[27.140343,38.4357272],[27.1400328,38.4354852],[27.1400217,38.4354766],[27.1399391,38.4353971],[27.1399115,38.4353705],[27.139273,38.4348959],[27.1384223,38.4341929],[27.1376311,38.4333248],[27.1370043,38.4326691],[27.136969,38.4326321],[27.1369016,38.4325688],[27.1364598,38.4321057],[27.135977,38.4315748],[27.1359233,38.4315106],[27.1349317,38.4304119],[27.1347411,38.4301921],[27.1344052,38.429817],[27.1343805,38.4297373],[27.1343773,38.4296638],[27.1344138,38.4295968],[27.1344556,38.4295397],[27.1347191,38.4293933],[27.1348539,38.429384],[27.1349855,38.4293889]]}},{"type":"Feature","id":"way/762695317","properties":{"bicycle":"yes","foot":"no","highway":"cycleway","horse":"no","lit":"yes","oneway":"no","smoothness":"intermediate","surface":"concrete","width":"2","id":"way/762695317"},"geometry":{"type":"LineString","coordinates":[[27.1429849,38.4421946],[27.1432646,38.4422463],[27.1436668,38.4423188],[27.1437715,38.4423062],[27.144024,38.442365],[27.1441172,38.4423761],[27.1441803,38.4423832],[27.1442483,38.4423908],[27.1443519,38.4423897],[27.1445868,38.4423894],[27.1446804,38.4423827],[27.1448157,38.4423551],[27.1449559,38.4423196],[27.1450853,38.4422637],[27.1452725,38.4421756],[27.1454533,38.4420794],[27.14559,38.4419905],[27.1457872,38.4418403],[27.1460257,38.4416424],[27.146101,38.4415896],[27.1463149,38.4414217],[27.1463867,38.4413388],[27.1464517,38.4412721],[27.1464459,38.4412009]]}},{"type":"Feature","id":"way/865641378","properties":{"highway":"pedestrian","id":"way/865641378"},"geometry":{"type":"LineString","coordinates":[[27.1417496,38.4359847],[27.1417084,38.43587]]}},{"type":"Feature","id":"way/866315000","properties":{"highway":"residential","name":"1484. Sokak","id":"way/866315000"},"geometry":{"type":"LineString","coordinates":[[27.1441723,38.4384342],[27.1442651,38.4391245]]}},{"type":"Feature","id":"way/866708770","properties":{"highway":"service","service":"parking_aisle","surface":"asphalt","id":"way/866708770"},"geometry":{"type":"LineString","coordinates":[[27.1468862,38.4372055],[27.1473623,38.4372279]]}},{"type":"Feature","id":"way/867756559","properties":{"highway":"living_street","name":"1483. Sokak","oneway":"yes","surface":"asphalt","id":"way/867756559"},"geometry":{"type":"LineString","coordinates":[[27.1457561,38.4372549],[27.1446607,38.4372097]]}},{"type":"Feature","id":"way/868567646","properties":{"highway":"footway","id":"way/868567646"},"geometry":{"type":"LineString","coordinates":[[27.1430977,38.4386627],[27.1431264,38.4388051]]}},{"type":"Feature","id":"way/868567647","properties":{"highway":"footway","surface":"paving_stones","id":"way/868567647"},"geometry":{"type":"LineString","coordinates":[[27.1430618,38.4385257],[27.1430977,38.4386627],[27.1432581,38.4386525]]}},{"type":"Feature","id":"way/868567691","properties":{"highway":"footway","surface":"paving_stones","id":"way/868567691"},"geometry":{"type":"LineString","coordinates":[[27.1433751,38.438713],[27.1433729,38.4387765]]}},{"type":"Feature","id":"way/913402650","properties":{"bicycle":"yes","foot":"no","highway":"cycleway","horse":"no","motor_vehicle":"no","oneway":"no","smoothness":"intermediate","surface":"concrete","width":"3","id":"way/913402650"},"geometry":{"type":"LineString","coordinates":[[27.1408458,38.4378241],[27.1410049,38.437824],[27.1411132,38.4378522],[27.1411643,38.4378937],[27.1413101,38.4382689],[27.141493,38.4382219]]}},{"type":"Feature","id":"way/977068749","properties":{"highway":"service","surface":"asphalt","id":"way/977068749"},"geometry":{"type":"LineString","coordinates":[[27.1459845,38.4416096],[27.1460257,38.4416424],[27.1462416,38.4418073],[27.1463442,38.4419054],[27.1460553,38.4421108]]}},{"type":"Feature","id":"way/977068750","properties":{"highway":"service","surface":"asphalt","id":"way/977068750"},"geometry":{"type":"LineString","coordinates":[[27.1460521,38.4415506],[27.146101,38.4415896],[27.1463036,38.4417696],[27.1464537,38.4418911],[27.1466354,38.4420382],[27.146758,38.4421047],[27.1467792,38.4421624],[27.1467908,38.4421941],[27.1466844,38.4426827],[27.1466674,38.4427085],[27.1466365,38.4427169],[27.1465077,38.4426944],[27.1464779,38.4426802],[27.1464683,38.442656],[27.1465769,38.4421666],[27.1465822,38.4421224],[27.1465524,38.4420799]]}},{"type":"Feature","id":"way/1021982662","properties":{"highway":"pedestrian","name":"1450. Sokak","id":"way/1021982662"},"geometry":{"type":"LineString","coordinates":[[27.1414936,38.4364667],[27.142329,38.4363179],[27.1424224,38.4366321]]}},{"type":"Feature","id":"way/1052446920","properties":{"footway":"sidewalk","highway":"footway","surface":"asphalt","id":"way/1052446920"},"geometry":{"type":"LineString","coordinates":[[27.147482,38.4393123],[27.147524,38.4393017]]}},{"type":"Feature","id":"way/1052446921","properties":{"crossing":"marked","crossing:markings":"yes","footway":"crossing","highway":"footway","id":"way/1052446921"},"geometry":{"type":"LineString","coordinates":[[27.1472381,38.4394298],[27.1473632,38.4393645],[27.1474419,38.4393234],[27.147482,38.4393123]]}},{"type":"Feature","id":"way/1304275014","properties":{"highway":"primary","lanes":"2","name":"Talatpaşa Bulvarı","oneway":"yes","surface":"asphalt","id":"way/1304275014"},"geometry":{"type":"LineString","coordinates":[[27.1474927,38.4369277],[27.1474709,38.43684],[27.1472083,38.4365383],[27.1471131,38.4364126]]}},{"type":"Feature","id":"way/1353191880","properties":{"highway":"tertiary","lanes":"1","maxspeed":"30","name":"Cumhuriyet Bulvarı","oneway":"yes","surface":"asphalt","id":"way/1353191880"},"geometry":{"type":"LineString","coordinates":[[27.1405467,38.4350012],[27.1405828,38.4350305],[27.1407176,38.4352716],[27.140999,38.4355283]]}},{"type":"Feature","id":"way/1359944714","properties":{"alt_name":"Bornova Sokağı","foot":"yes","highway":"residential","lane_markings":"no","motor_vehicle":"permissive","name":"1469. Sokak","oneway:foot":"no","opening_hours:motor_vehicle":"0400-1000","surface":"paving_stones","id":"way/1359944714"},"geometry":{"type":"LineString","coordinates":[[27.1473113,38.4392143],[27.147026,38.439178]]}},{"type":"Feature","id":"way/1359944715","properties":{"alt_name":"Bornova Sokağı","highway":"living_street","name":"1469. Sokak","oneway":"yes","oneway:foot":"no","opening_hours:motor_vehicle":"0400-1000","id":"way/1359944715"},"geometry":{"type":"LineString","coordinates":[[27.1426291,38.4392856],[27.1425779,38.4393122],[27.142522,38.4393385],[27.1419779,38.4394623]]}},{"type":"Feature","id":"way/1359944716","properties":{"highway":"pedestrian","name":"Yüzbaşı Şerafettin Bey Sokağı","surface":"asphalt","id":"way/1359944716"},"geometry":{"type":"LineString","coordinates":[[27.1434657,38.4378456],[27.1442284,38.437844],[27.1446334,38.4378533]]}},{"type":"Feature","id":"way/1359944717","properties":{"highway":"pedestrian","name":"1458. Sokak","surface":"asphalt","id":"way/1359944717"},"geometry":{"type":"LineString","coordinates":[[27.1469231,38.4368085],[27.1469139,38.4369049],[27.1469019,38.4370528],[27.1469013,38.4370597],[27.1468948,38.4371087],[27.1468862,38.4372055]]}},{"type":"Feature","id":"way/1359944718","properties":{"highway":"living_street","name":"1457. Sokak","oneway":"yes","surface":"asphalt","id":"way/1359944718"},"geometry":{"type":"LineString","coordinates":[[27.1468503,38.4376014],[27.1464468,38.4375621],[27.146233,38.4375321],[27.1460409,38.4375054]]}},{"type":"Feature","id":"way/1359944719","properties":{"highway":"pedestrian","name":"1454. Sokak","id":"way/1359944719"},"geometry":{"type":"LineString","coordinates":[[27.1436575,38.4370048],[27.143142,38.4370265]]}},{"type":"Feature","id":"way/1359944720","properties":{"highway":"living_street","name":"1454. Sokak","oneway":"yes","surface":"asphalt","id":"way/1359944720"},"geometry":{"type":"LineString","coordinates":[[27.1446546,38.4369816],[27.1442111,38.4369922],[27.1436575,38.4370048]]}},{"type":"Feature","id":"way/1359944721","properties":{"highway":"pedestrian","name":"Mahmut Esat Bozkurt Caddesi","id":"way/1359944721"},"geometry":{"type":"LineString","coordinates":[[27.1430336,38.4366406],[27.1434688,38.4366502]]}},{"type":"Feature","id":"way/1359944722","properties":{"highway":"residential","lane_markings":"no","name":"Mahmut Esat Bozkurt Caddesi","oneway":"yes","surface":"asphalt","id":"way/1359944722"},"geometry":{"type":"LineString","coordinates":[[27.1469231,38.4368085],[27.1467074,38.4367957]]}},{"type":"Feature","id":"way/1359944723","properties":{"highway":"residential","lane_markings":"no","name":"Mahmut Esat Bozkurt Caddesi","surface":"asphalt","id":"way/1359944723"},"geometry":{"type":"LineString","coordinates":[[27.1465851,38.4367912],[27.1467074,38.4367957]]}},{"type":"Feature","id":"way/1359944728","properties":{"cycleway":"shared_lane","highway":"secondary","lanes":"2","name":"Talatpaşa Bulvarı","oneway":"yes","surface":"asphalt","id":"way/1359944728"},"geometry":{"type":"LineString","coordinates":[[27.1450119,38.4357375],[27.1444727,38.4355147],[27.1439058,38.4352717],[27.1432495,38.4349865],[27.1425824,38.4347021],[27.1423881,38.4346193],[27.1422379,38.4345552],[27.1420143,38.4344584],[27.1418157,38.4343725],[27.1417061,38.4343251],[27.141698,38.4343216],[27.1411602,38.4340889],[27.1407692,38.4339202],[27.1407183,38.4338927],[27.1405157,38.4338075],[27.1402498,38.4336893],[27.1400319,38.4335924],[27.1397937,38.4334903],[27.1387431,38.4330286],[27.1386362,38.4330091],[27.13849,38.4330254]]}},{"type":"Feature","id":"way/1359944732","properties":{"highway":"living_street","name":"1471. Sokak","surface":"asphalt","id":"way/1359944732"},"geometry":{"type":"LineString","coordinates":[[27.14556,38.4395346],[27.14622,38.4395578],[27.1465234,38.4395758]]}},{"type":"Feature","id":"way/1360403896","properties":{"covered":"yes","highway":"footway","layer":"-1","id":"way/1360403896"},"geometry":{"type":"LineString","coordinates":[[27.1406358,38.4390007],[27.1409517,38.4389525]]}},{"type":"Feature","id":"way/1364949443","properties":{"highway":"cycleway","id":"way/1364949443"},"geometry":{"type":"LineString","coordinates":[[27.1435904,38.4416491],[27.1437156,38.441707],[27.1438343,38.4417624],[27.1439437,38.4418094],[27.1440224,38.44187],[27.1440784,38.4419411],[27.1441022,38.4419649],[27.1441536,38.4419872]]}},{"type":"Feature","id":"way/1364949444","properties":{"alt_name":"Alsancak Sevgi Yolu","bicycle":"designated","highway":"pedestrian","lit":"yes","name":"Kıbrıs Şehitleri Caddesi","oneway":"no","surface":"paving_stones","wikidata":"Q6025064","wikimedia_commons":"Category:Kıbrıs Şehitleri Caddesi","wikipedia":"tr:Kıbrıs Şehitleri Caddesi","id":"way/1364949444"},"geometry":{"type":"LineString","coordinates":[[27.1441536,38.4419872],[27.14422,38.4423705]]}},{"type":"Feature","id":"way/1365496818","properties":{"bicycle":"yes","foot":"no","highway":"cycleway","horse":"no","lit":"yes","motor_vehicle":"no","oneway":"no","smoothness":"intermediate","surface":"concrete","id":"way/1365496818"},"geometry":{"type":"LineString","coordinates":[[27.1388246,38.4353474],[27.1388457,38.4354179],[27.1388943,38.4355243],[27.1389458,38.4356157],[27.139202,38.4358634],[27.1394688,38.4361212],[27.1395598,38.4362153],[27.1396025,38.4362494],[27.1396501,38.4362651],[27.1397121,38.43625],[27.1397532,38.4362462],[27.1397762,38.4362618]]}},{"type":"Feature","id":"way/1365496819","properties":{"bicycle":"yes","foot":"no","highway":"cycleway","horse":"no","motor_vehicle":"no","oneway":"no","smoothness":"intermediate","surface":"concrete","id":"way/1365496819"},"geometry":{"type":"LineString","coordinates":[[27.1396386,38.4363243],[27.1397143,38.4362899],[27.1397762,38.4362618]]}},{"type":"Feature","id":"way/1380084355","properties":{"highway":"pedestrian","surface":"paving_stones","id":"way/1380084355"},"geometry":{"type":"LineString","coordinates":[[27.1413358,38.4355957],[27.1412774,38.4354665]]}},{"type":"Feature","id":"way/1509704131","properties":{"highway":"service","id":"way/1509704131"},"geometry":{"type":"LineString","coordinates":[[27.1478941,38.4402316],[27.1477655,38.4401966],[27.1470494,38.4400015]]}},{"type":"Feature","id":"way/1509704577","properties":{"highway":"service","id":"way/1509704577"},"geometry":{"type":"LineString","coordinates":[[27.1458071,38.4417569],[27.1459079,38.4419128],[27.1459139,38.4419674],[27.1458971,38.4420079],[27.1454432,38.4422589],[27.1452199,38.4423755],[27.1447901,38.4424979],[27.1445674,38.4425549]]}},{"type":"Feature","id":"way/1524820589","properties":{"highway":"pedestrian","name":"1453. Sokak","id":"way/1524820589"},"geometry":{"type":"LineString","coordinates":[[27.1412683,38.437612],[27.1413664,38.4375876],[27.1418894,38.437445]]}},{"type":"Feature","id":"way/1524820590","properties":{"cycleway:left":"no","cycleway:right":"shared_lane","highway":"tertiary","lane_markings":"no","name":"Cumhuriyet Bulvarı","oneway":"yes","surface":"asphalt","id":"way/1524820590"},"geometry":{"type":"LineString","coordinates":[[27.140999,38.4355283],[27.1410826,38.4356639],[27.1411936,38.4358649],[27.1412599,38.4359811],[27.1413059,38.4360744],[27.1413996,38.4362457],[27.1414682,38.4364149],[27.1414936,38.4364667],[27.1416169,38.4367178],[27.1416951,38.4369186],[27.1418894,38.437445]]}},{"type":"Feature","id":"way/1524820591","properties":{"highway":"pedestrian","id":"way/1524820591"},"geometry":{"type":"LineString","coordinates":[[27.1435445,38.438165],[27.1426593,38.4383084]]}},{"type":"Feature","id":"way/1524820592","properties":{"highway":"footway","layer":"-1","tunnel":"yes","id":"way/1524820592"},"geometry":{"type":"LineString","coordinates":[[27.1437605,38.4407713],[27.143455,38.4407989]]}},{"type":"Feature","id":"way/1524820593","properties":{"highway":"footway","layer":"-1","id":"way/1524820593"},"geometry":{"type":"LineString","coordinates":[[27.143455,38.4407989],[27.1432618,38.4408163]]}},{"type":"Feature","id":"way/1524820594","properties":{"highway":"footway","layer":"-1","id":"way/1524820594"},"geometry":{"type":"LineString","coordinates":[[27.1439884,38.4407508],[27.1437605,38.4407713]]}}]}