{"type":"FeatureCollection","features":[{"type":"Feature","id":"node/8077261974","properties":{"direction":"0","highway":"street_lamp","id":"node/8077261974"},"geometry":{"type":"Point","coordinates":[27.1859602,38.3666326]}},{"type":"Feature","id":"node/8077261975","properties":{"direction":"0","highway":"street_lamp","id":"node/8077261975"},"geometry":{"type":"Point","coordinates":[27.1862031,38.3666377]}},{"type":"Feature","id":"node/8077261976","properties":{"highway":"street_lamp","id":"node/8077261976"},"geometry":{"type":"Point","coordinates":[27.1859621,38.3663706]}},{"type":"Feature","id":"node/8078076062","properties":{"highway":"street_lamp","id":"node/8078076062"},"geometry":{"type":"Point","coordinates":[27.1920804,38.3693607]}},{"type":"Feature","id":"node/8078076064","properties":{"highway":"street_lamp","id":"node/8078076064"},"geometry":{"type":"Point","coordinates":[27.1921335,38.3694421]}},{"type":"Feature","id":"node/8078076066","properties":{"highway":"street_lamp","id":"node/8078076066"},"geometry":{"type":"Point","coordinates":[27.1922108,38.3696355]}},{"type":"Feature","id":"node/8078076068","properties":{"highway":"street_lamp","id":"node/8078076068"},"geometry":{"type":"Point","coordinates":[27.1922597,38.369703]}},{"type":"Feature","id":"node/8078076069","properties":{"highway":"street_lamp","id":"node/8078076069"},"geometry":{"type":"Point","coordinates":[27.1921807,38.3695421]}},{"type":"Feature","id":"node/8178973468","properties":{"highway":"street_lamp","id":"node/8178973468"},"geometry":{"type":"Point","coordinates":[27.1871866,38.3688249]}},{"type":"Feature","id":"node/8283658119","properties":{"highway":"street_lamp","id":"node/8283658119"},"geometry":{"type":"Point","coordinates":[27.1873001,38.3662649]}},{"type":"Feature","id":"node/8287488662","properties":{"direction":"0","highway":"street_lamp","id":"node/8287488662"},"geometry":{"type":"Point","coordinates":[27.1853494,38.3676571]}},{"type":"Feature","id":"node/8287488663","properties":{"direction":"270","highway":"street_lamp","id":"node/8287488663"},"geometry":{"type":"Point","coordinates":[27.1854778,38.3676004]}},{"type":"Feature","id":"node/8287488684","properties":{"highway":"street_lamp","id":"node/8287488684"},"geometry":{"type":"Point","coordinates":[27.1854786,38.3677834]}},{"type":"Feature","id":"node/8602933172","properties":{"direction":"90","highway":"street_lamp","id":"node/8602933172"},"geometry":{"type":"Point","coordinates":[27.188659,38.3662122]}},{"type":"Feature","id":"node/8602933173","properties":{"highway":"street_lamp","id":"node/8602933173"},"geometry":{"type":"Point","coordinates":[27.187292,38.3667113]}},{"type":"Feature","id":"node/8615436381","properties":{"direction":"60","highway":"street_lamp","material":"concrete","power":"pole","id":"node/8615436381"},"geometry":{"type":"Point","coordinates":[27.1872273,38.3710801]}},{"type":"Feature","id":"node/8615436382","properties":{"direction":"15","highway":"street_lamp","material":"concrete","power":"pole","id":"node/8615436382"},"geometry":{"type":"Point","coordinates":[27.1876441,38.3709402]}},{"type":"Feature","id":"node/8615436383","properties":{"direction":"15","highway":"street_lamp","material":"concrete","power":"pole","id":"node/8615436383"},"geometry":{"type":"Point","coordinates":[27.1879978,38.3708463]}},{"type":"Feature","id":"node/8615436401","properties":{"direction":"285","highway":"street_lamp","material":"concrete","power":"pole","id":"node/8615436401"},"geometry":{"type":"Point","coordinates":[27.1882679,38.3706073]}},{"type":"Feature","id":"node/8615436402","properties":{"direction":"285","highway":"street_lamp","material":"concrete","power":"pole","id":"node/8615436402"},"geometry":{"type":"Point","coordinates":[27.1883652,38.3708588]}},{"type":"Feature","id":"node/8615436403","properties":{"direction":"285","highway":"street_lamp","material":"concrete","power":"pole","id":"node/8615436403"},"geometry":{"type":"Point","coordinates":[27.1880737,38.3701055]}},{"type":"Feature","id":"node/8615436404","properties":{"direction":"0","highway":"street_lamp","id":"node/8615436404"},"geometry":{"type":"Point","coordinates":[27.1879489,38.3699218]}},{"type":"Feature","id":"node/8615436405","properties":{"direction":"270","highway":"street_lamp","id":"node/8615436405"},"geometry":{"type":"Point","coordinates":[27.1881738,38.3698263]}},{"type":"Feature","id":"node/8615436406","properties":{"direction":"0;180","highway":"street_lamp","id":"node/8615436406"},"geometry":{"type":"Point","coordinates":[27.1878475,38.3700026]}},{"type":"Feature","id":"node/8615436415","properties":{"direction":"285","highway":"street_lamp","material":"concrete","power":"pole","id":"node/8615436415"},"geometry":{"type":"Point","coordinates":[27.1885295,38.3712834]}},{"type":"Feature","id":"node/8615436416","properties":{"direction":"240;320","highway":"street_lamp","material":"concrete","power":"pole","id":"node/8615436416"},"geometry":{"type":"Point","coordinates":[27.1886079,38.3714667]}},{"type":"Feature","id":"node/8615439418","properties":{"direction":"195","highway":"street_lamp","material":"concrete","power":"pole","id":"node/8615439418"},"geometry":{"type":"Point","coordinates":[27.1887779,38.3718728]}},{"type":"Feature","id":"node/8615439419","properties":{"direction":"195","highway":"street_lamp","material":"concrete","power":"pole","id":"node/8615439419"},"geometry":{"type":"Point","coordinates":[27.189128,38.3717931]}},{"type":"Feature","id":"node/8615439420","properties":{"direction":"10","highway":"street_lamp","material":"concrete","power":"pole","id":"node/8615439420"},"geometry":{"type":"Point","coordinates":[27.1893409,38.3716496]}},{"type":"Feature","id":"node/8615439421","properties":{"direction":"270","highway":"street_lamp","id":"node/8615439421"},"geometry":{"type":"Point","coordinates":[27.1893085,38.3716075]}},{"type":"Feature","id":"node/8615439422","properties":{"direction":"270","highway":"street_lamp","material":"concrete","power":"pole","id":"node/8615439422"},"geometry":{"type":"Point","coordinates":[27.1898777,38.3715684]}},{"type":"Feature","id":"node/8615439423","properties":{"direction":"270","highway":"street_lamp","material":"concrete","power":"pole","id":"node/8615439423"},"geometry":{"type":"Point","coordinates":[27.1899041,38.3713636]}},{"type":"Feature","id":"node/8615439424","properties":{"direction":"225","highway":"street_lamp","material":"concrete","power":"pole","id":"node/8615439424"},"geometry":{"type":"Point","coordinates":[27.1899556,38.3710788]}},{"type":"Feature","id":"node/8615506396","properties":{"direction":"0;180","highway":"street_lamp","id":"node/8615506396"},"geometry":{"type":"Point","coordinates":[27.1883506,38.3699575]}},{"type":"Feature","id":"node/8615506397","properties":{"direction":"0;180","highway":"street_lamp","id":"node/8615506397"},"geometry":{"type":"Point","coordinates":[27.1890142,38.3699007]}},{"type":"Feature","id":"node/8635920701","properties":{"direction":"225","highway":"street_lamp","material":"concrete","power":"pole","id":"node/8635920701"},"geometry":{"type":"Point","coordinates":[27.1902495,38.371058]}},{"type":"Feature","id":"node/8635920702","properties":{"direction":"180","highway":"street_lamp","material":"concrete","power":"pole","id":"node/8635920702"},"geometry":{"type":"Point","coordinates":[27.1906441,38.3710013]}},{"type":"Feature","id":"node/8635920703","properties":{"direction":"180","highway":"street_lamp","material":"concrete","power":"pole","id":"node/8635920703"},"geometry":{"type":"Point","coordinates":[27.1908935,38.3709866]}},{"type":"Feature","id":"node/8635920704","properties":{"direction":"180","highway":"street_lamp","material":"concrete","power":"pole","id":"node/8635920704"},"geometry":{"type":"Point","coordinates":[27.191557,38.3709489]}},{"type":"Feature","id":"node/8635920705","properties":{"direction":"180","highway":"street_lamp","material":"concrete","power":"pole","id":"node/8635920705"},"geometry":{"type":"Point","coordinates":[27.1911613,38.3709721]}}]}